{
 "type": "Feature",
 "geometry": {
  "coordinates": [
   [
    10.249723,
    47.545727
   ],
   [
    10.249462,
    47.545682
   ],
   [
    10.249069,
    47.545592
   ],
   [
    10.248797,
    47.545459
   ],
   [
    10.248516,
    47.545255
   ],
   [
    10.248058,
    47.544729
   ],
   [
    10.247859,
    47.544873
   ],
   [
    10.247664,
    47.54499
   ],
   [
    10.247544,
    47.545054
   ],
   [
    10.247382,
    47.545117
   ],
   [
    10.247196,
    47.545173
   ],
   [
    10.246991,
    47.545217
   ],
   [
    10.246382,
    47.545316
   ],
   [
    10.246141,
    47.545365
   ],
   [
    10.245896,
    47.545426
   ],
   [
    10.245631,
    47.545534
   ],
   [
    10.245422,
    47.545594
   ],
   [
    10.245254,
    47.545644
   ],
   [
    10.245142,
    47.545695
   ],
   [
    10.245023,
    47.545794
   ],
   [
    10.244742,
    47.546114
   ],
   [
    10.244633,
    47.54621
   ],
   [
    10.244481,
    47.546321
   ],
   [
    10.24398,
    47.546664
   ],
   [
    10.243554,
    47.546954
   ],
   [
    10.243313,
    47.547111
   ],
   [
    10.243158,
    47.5472
   ],
   [
    10.242878,
    47.54736
   ],
   [
    10.242827,
    47.547391
   ],
   [
    10.242685,
    47.547516
   ],
   [
    10.24256,
    47.547696
   ],
   [
    10.242463,
    47.547817
   ],
   [
    10.242396,
    47.547869
   ],
   [
    10.242298,
    47.547898
   ],
   [
    10.242161,
    47.547901
   ],
   [
    10.24198,
    47.547878
   ],
   [
    10.241843,
    47.547852
   ],
   [
    10.241797,
    47.547845
   ],
   [
    10.241672,
    47.547845
   ],
   [
    10.241554,
    47.54787
   ],
   [
    10.241467,
    47.547907
   ],
   [
    10.241426,
    47.548012
   ],
   [
    10.241486,
    47.548135
   ],
   [
    10.241741,
    47.548373
   ],
   [
    10.241859,
    47.548491
   ],
   [
    10.241908,
    47.548566
   ],
   [
    10.241893,
    47.548641
   ],
   [
    10.241823,
    47.548688
   ],
   [
    10.241716,
    47.548702
   ],
   [
    10.241569,
    47.548707
   ],
   [
    10.241418,
    47.54868
   ],
   [
    10.241274,
    47.548672
   ],
   [
    10.240905,
    47.54871
   ],
   [
    10.240532,
    47.548781
   ],
   [
    10.24039,
    47.548826
   ],
   [
    10.240281,
    47.548876
   ],
   [
    10.240162,
    47.549001
   ],
   [
    10.240094,
    47.549131
   ],
   [
    10.240095,
    47.549315
   ],
   [
    10.240131,
    47.549423
   ],
   [
    10.240194,
    47.549591
   ],
   [
    10.240256,
    47.549746
   ],
   [
    10.240274,
    47.54992
   ],
   [
    10.240243,
    47.550076
   ],
   [
    10.240162,
    47.550212
   ],
   [
    10.240108,
    47.550371
   ],
   [
    10.240104,
    47.550384
   ],
   [
    10.240054,
    47.550529
   ],
   [
    10.240038,
    47.550579
   ],
   [
    10.239776,
    47.550584
   ],
   [
    10.239573,
    47.550587
   ],
   [
    10.239223,
    47.550586
   ],
   [
    10.238743,
    47.550614
   ],
   [
    10.238203,
    47.550672
   ],
   [
    10.237416,
    47.550802
   ],
   [
    10.236865,
    47.550923
   ],
   [
    10.236692,
    47.550978
   ],
   [
    10.235862,
    47.551263
   ],
   [
    10.235123,
    47.551548
   ],
   [
    10.234321,
    47.551848
   ],
   [
    10.234255,
    47.551872
   ],
   [
    10.234027,
    47.551959
   ],
   [
    10.233832,
    47.55203
   ],
   [
    10.2337,
    47.552078
   ],
   [
    10.233302,
    47.552209
   ],
   [
    10.232917,
    47.552335
   ],
   [
    10.232775,
    47.552382
   ],
   [
    10.232418,
    47.552494
   ],
   [
    10.2321,
    47.552595
   ],
   [
    10.231764,
    47.552707
   ],
   [
    10.231649,
    47.552746
   ],
   [
    10.231496,
    47.552818
   ],
   [
    10.231147,
    47.552981
   ],
   [
    10.231109,
    47.552999
   ],
   [
    10.230927,
    47.553108
   ],
   [
    10.230845,
    47.553158
   ],
   [
    10.230736,
    47.553258
   ],
   [
    10.230668,
    47.553324
   ],
   [
    10.230678,
    47.553357
   ],
   [
    10.230671,
    47.553391
   ],
   [
    10.230649,
    47.553421
   ],
   [
    10.230612,
    47.553445
   ],
   [
    10.230589,
    47.553527
   ],
   [
    10.230585,
    47.553545
   ],
   [
    10.230577,
    47.553653
   ],
   [
    10.23062,
    47.553813
   ],
   [
    10.230692,
    47.553951
   ],
   [
    10.230798,
    47.554044
   ],
   [
    10.230924,
    47.554139
   ],
   [
    10.23131,
    47.554336
   ],
   [
    10.231478,
    47.554385
   ],
   [
    10.23149,
    47.554389
   ],
   [
    10.231548,
    47.554413
   ],
   [
    10.231571,
    47.554424
   ],
   [
    10.231615,
    47.554412
   ],
   [
    10.231647,
    47.554409
   ],
   [
    10.23168,
    47.55441
   ],
   [
    10.231712,
    47.554416
   ],
   [
    10.231742,
    47.554426
   ],
   [
    10.23177,
    47.554441
   ],
   [
    10.231793,
    47.55446
   ],
   [
    10.231809,
    47.554482
   ],
   [
    10.231818,
    47.554506
   ],
   [
    10.231818,
    47.55453
   ],
   [
    10.231929,
    47.55462
   ],
   [
    10.232008,
    47.554701
   ],
   [
    10.232486,
    47.55492
   ],
   [
    10.232705,
    47.555025
   ],
   [
    10.23273,
    47.555037
   ],
   [
    10.233862,
    47.55559
   ],
   [
    10.234231,
    47.555742
   ],
   [
    10.234276,
    47.555754
   ],
   [
    10.234572,
    47.555836
   ],
   [
    10.234898,
    47.555909
   ],
   [
    10.235302,
    47.555978
   ],
   [
    10.235872,
    47.556034
   ],
   [
    10.236209,
    47.556054
   ],
   [
    10.236346,
    47.556058
   ],
   [
    10.236683,
    47.556061
   ],
   [
    10.237261,
    47.556031
   ],
   [
    10.237802,
    47.555972
   ],
   [
    10.238411,
    47.55586
   ],
   [
    10.238837,
    47.55576
   ],
   [
    10.239,
    47.555714
   ],
   [
    10.23975,
    47.55546
   ],
   [
    10.240465,
    47.555191
   ],
   [
    10.241068,
    47.554968
   ],
   [
    10.24166,
    47.554771
   ],
   [
    10.242167,
    47.554644
   ],
   [
    10.242759,
    47.554534
   ],
   [
    10.243246,
    47.554492
   ],
   [
    10.243719,
    47.554477
   ],
   [
    10.244029,
    47.554489
   ],
   [
    10.244342,
    47.554516
   ],
   [
    10.244733,
    47.554562
   ],
   [
    10.245159,
    47.554646
   ],
   [
    10.245357,
    47.554689
   ],
   [
    10.245591,
    47.554764
   ],
   [
    10.246154,
    47.554965
   ],
   [
    10.246569,
    47.555161
   ],
   [
    10.247065,
    47.555453
   ],
   [
    10.247516,
    47.555843
   ],
   [
    10.247763,
    47.556149
   ],
   [
    10.2479,
    47.556311
   ],
   [
    10.247971,
    47.556358
   ],
   [
    10.248047,
    47.55643
   ],
   [
    10.248079,
    47.556458
   ],
   [
    10.248144,
    47.556456
   ],
   [
    10.248216,
    47.556469
   ],
   [
    10.248266,
    47.556489
   ],
   [
    10.248295,
    47.556509
   ],
   [
    10.248328,
    47.556543
   ],
   [
    10.248346,
    47.556582
   ],
   [
    10.248347,
    47.55663
   ],
   [
    10.248329,
    47.556671
   ],
   [
    10.248287,
    47.556713
   ],
   [
    10.248316,
    47.556772
   ],
   [
    10.24842,
    47.556914
   ],
   [
    10.248457,
    47.557038
   ],
   [
    10.248722,
    47.55729
   ],
   [
    10.2489,
    47.55743
   ],
   [
    10.249222,
    47.557654
   ],
   [
    10.249355,
    47.557736
   ],
   [
    10.249448,
    47.557791
   ],
   [
    10.249726,
    47.557928
   ],
   [
    10.249692,
    47.558026
   ],
   [
    10.249638,
    47.558118
   ],
   [
    10.249526,
    47.558176
   ],
   [
    10.249409,
    47.558222
   ],
   [
    10.249129,
    47.558419
   ],
   [
    10.249,
    47.558476
   ],
   [
    10.248889,
    47.558498
   ],
   [
    10.248817,
    47.558502
   ],
   [
    10.248715,
    47.558497
   ],
   [
    10.2486,
    47.55847
   ],
   [
    10.248499,
    47.558428
   ],
   [
    10.248205,
    47.55834
   ],
   [
    10.248053,
    47.558319
   ],
   [
    10.247901,
    47.558327
   ],
   [
    10.247615,
    47.55839
   ],
   [
    10.246702,
    47.55899
   ],
   [
    10.245612,
    47.559713
   ],
   [
    10.244982,
    47.560144
   ],
   [
    10.244544,
    47.560462
   ],
   [
    10.243992,
    47.560882
   ],
   [
    10.243672,
    47.561147
   ],
   [
    10.243193,
    47.56157
   ],
   [
    10.242787,
    47.561964
   ],
   [
    10.242636,
    47.562124
   ],
   [
    10.242458,
    47.562312
   ],
   [
    10.242076,
    47.562761
   ],
   [
    10.241832,
    47.563114
   ],
   [
    10.24164,
    47.563419
   ],
   [
    10.241461,
    47.563751
   ],
   [
    10.241262,
    47.56421
   ],
   [
    10.241126,
    47.564612
   ],
   [
    10.241047,
    47.565006
   ],
   [
    10.241001,
    47.565266
   ],
   [
    10.240981,
    47.565607
   ],
   [
    10.240991,
    47.566018
   ],
   [
    10.241027,
    47.566366
   ],
   [
    10.241096,
    47.566695
   ],
   [
    10.24115,
    47.56691
   ],
   [
    10.241255,
    47.567208
   ],
   [
    10.241366,
    47.567492
   ],
   [
    10.241501,
    47.567766
   ],
   [
    10.241662,
    47.568065
   ],
   [
    10.24172,
    47.568163
   ],
   [
    10.241874,
    47.568391
   ],
   [
    10.242107,
    47.568708
   ],
   [
    10.242423,
    47.569054
   ],
   [
    10.242693,
    47.569331
   ],
   [
    10.242918,
    47.569534
   ],
   [
    10.243141,
    47.569713
   ],
   [
    10.243599,
    47.570052
   ],
   [
    10.243938,
    47.570279
   ],
   [
    10.244329,
    47.57052
   ],
   [
    10.244702,
    47.570724
   ],
   [
    10.245127,
    47.570925
   ],
   [
    10.24577,
    47.571203
   ],
   [
    10.246873,
    47.571722
   ],
   [
    10.247369,
    47.572002
   ],
   [
    10.247748,
    47.572259
   ],
   [
    10.248093,
    47.572521
   ],
   [
    10.248564,
    47.572957
   ],
   [
    10.248962,
    47.573387
   ],
   [
    10.249196,
    47.573703
   ],
   [
    10.249426,
    47.574065
   ],
   [
    10.249546,
    47.574293
   ],
   [
    10.249694,
    47.57465
   ],
   [
    10.249792,
    47.574938
   ],
   [
    10.249943,
    47.57581
   ],
   [
    10.249954,
    47.57604
   ],
   [
    10.24996,
    47.576158
   ],
   [
    10.249943,
    47.576321
   ],
   [
    10.24989,
    47.576859
   ],
   [
    10.249805,
    47.577746
   ],
   [
    10.249805,
    47.578147
   ],
   [
    10.249831,
    47.578531
   ],
   [
    10.249892,
    47.578963
   ],
   [
    10.249975,
    47.579275
   ],
   [
    10.250071,
    47.579594
   ],
   [
    10.250233,
    47.580012
   ],
   [
    10.250403,
    47.580349
   ],
   [
    10.250605,
    47.580704
   ],
   [
    10.250798,
    47.581031
   ],
   [
    10.250985,
    47.581295
   ],
   [
    10.251082,
    47.581409
   ],
   [
    10.251385,
    47.581785
   ],
   [
    10.25194,
    47.582417
   ],
   [
    10.252532,
    47.583052
   ],
   [
    10.25336,
    47.583952
   ],
   [
    10.254236,
    47.584878
   ],
   [
    10.257104,
    47.587962
   ],
   [
    10.258451,
    47.589395
   ],
   [
    10.2594,
    47.590413
   ],
   [
    10.260677,
    47.591783
   ],
   [
    10.261631,
    47.592809
   ],
   [
    10.262132,
    47.593337
   ],
   [
    10.262553,
    47.593787
   ],
   [
    10.2629,
    47.594139
   ],
   [
    10.263322,
    47.594548
   ],
   [
    10.263689,
    47.594884
   ],
   [
    10.264113,
    47.595237
   ],
   [
    10.264979,
    47.595907
   ],
   [
    10.265944,
    47.596548
   ],
   [
    10.267303,
    47.597415
   ],
   [
    10.267831,
    47.597775
   ],
   [
    10.268698,
    47.598428
   ],
   [
    10.269109,
    47.598755
   ],
   [
    10.269543,
    47.599137
   ],
   [
    10.270261,
    47.599838
   ],
   [
    10.270721,
    47.600324
   ],
   [
    10.271084,
    47.600738
   ],
   [
    10.271328,
    47.601054
   ],
   [
    10.271556,
    47.601383
   ],
   [
    10.271761,
    47.601673
   ],
   [
    10.271976,
    47.602001
   ],
   [
    10.272229,
    47.60242
   ],
   [
    10.272512,
    47.602979
   ],
   [
    10.272825,
    47.603644
   ],
   [
    10.272997,
    47.60408
   ],
   [
    10.273152,
    47.604534
   ],
   [
    10.273284,
    47.605007
   ],
   [
    10.273343,
    47.605344
   ],
   [
    10.273472,
    47.606002
   ],
   [
    10.273637,
    47.607304
   ],
   [
    10.273644,
    47.607459
   ],
   [
    10.273694,
    47.608058
   ],
   [
    10.273736,
    47.608488
   ],
   [
    10.273814,
    47.609319
   ],
   [
    10.273907,
    47.610298
   ],
   [
    10.273962,
    47.610817
   ],
   [
    10.274052,
    47.611288
   ],
   [
    10.274133,
    47.611707
   ],
   [
    10.274224,
    47.612073
   ],
   [
    10.27446,
    47.612809
   ],
   [
    10.27484,
    47.613828
   ],
   [
    10.275006,
    47.614273
   ],
   [
    10.275259,
    47.614965
   ],
   [
    10.275569,
    47.615903
   ],
   [
    10.275708,
    47.616451
   ],
   [
    10.2758,
    47.616895
   ],
   [
    10.275916,
    47.617568
   ],
   [
    10.27594,
    47.617707
   ],
   [
    10.275994,
    47.618122
   ],
   [
    10.276044,
    47.618601
   ],
   [
    10.276179,
    47.619847
   ],
   [
    10.27631,
    47.620823
   ],
   [
    10.276534,
    47.622119
   ],
   [
    10.27668,
    47.622726
   ],
   [
    10.276882,
    47.623459
   ],
   [
    10.277142,
    47.624288
   ],
   [
    10.277295,
    47.624704
   ],
   [
    10.277544,
    47.625349
   ],
   [
    10.277825,
    47.62601
   ],
   [
    10.278235,
    47.62686
   ],
   [
    10.278435,
    47.627263
   ],
   [
    10.278735,
    47.627818
   ],
   [
    10.279205,
    47.628621
   ],
   [
    10.279567,
    47.629209
   ],
   [
    10.279742,
    47.629494
   ],
   [
    10.280316,
    47.630427
   ],
   [
    10.281023,
    47.63156
   ],
   [
    10.281571,
    47.632438
   ],
   [
    10.282054,
    47.633182
   ],
   [
    10.282263,
    47.633484
   ],
   [
    10.282489,
    47.63378
   ],
   [
    10.282885,
    47.634233
   ],
   [
    10.283232,
    47.63459
   ],
   [
    10.283629,
    47.634985
   ],
   [
    10.284393,
    47.635667
   ],
   [
    10.285375,
    47.636586
   ],
   [
    10.285587,
    47.636789
   ],
   [
    10.285802,
    47.637023
   ],
   [
    10.285977,
    47.637233
   ],
   [
    10.286143,
    47.63746
   ],
   [
    10.2863,
    47.637705
   ],
   [
    10.286421,
    47.637926
   ],
   [
    10.286532,
    47.63815
   ],
   [
    10.286646,
    47.638432
   ],
   [
    10.286732,
    47.638675
   ],
   [
    10.286817,
    47.639028
   ],
   [
    10.286892,
    47.639388
   ],
   [
    10.287009,
    47.640033
   ],
   [
    10.287067,
    47.640274
   ],
   [
    10.287161,
    47.640595
   ],
   [
    10.287314,
    47.641043
   ],
   [
    10.287458,
    47.641361
   ],
   [
    10.287569,
    47.641593
   ],
   [
    10.287739,
    47.641891
   ],
   [
    10.287914,
    47.642167
   ],
   [
    10.288072,
    47.642394
   ],
   [
    10.288515,
    47.642938
   ],
   [
    10.289044,
    47.64349
   ],
   [
    10.289326,
    47.643747
   ],
   [
    10.289783,
    47.644099
   ],
   [
    10.289846,
    47.644146
   ],
   [
    10.290389,
    47.644551
   ],
   [
    10.291137,
    47.645069
   ],
   [
    10.291952,
    47.645602
   ],
   [
    10.292776,
    47.646163
   ],
   [
    10.29359,
    47.64674
   ],
   [
    10.293886,
    47.646988
   ],
   [
    10.29413,
    47.647191
   ],
   [
    10.294382,
    47.64742
   ],
   [
    10.29458,
    47.647607
   ],
   [
    10.294807,
    47.647853
   ],
   [
    10.294821,
    47.64787
   ],
   [
    10.295223,
    47.648371
   ],
   [
    10.295299,
    47.648483
   ],
   [
    10.295507,
    47.648836
   ],
   [
    10.295685,
    47.649205
   ],
   [
    10.295766,
    47.649418
   ],
   [
    10.295867,
    47.649682
   ],
   [
    10.295957,
    47.650129
   ],
   [
    10.296007,
    47.650649
   ],
   [
    10.295965,
    47.65219
   ],
   [
    10.296003,
    47.652734
   ],
   [
    10.296097,
    47.653236
   ],
   [
    10.296238,
    47.653654
   ],
   [
    10.296423,
    47.654051
   ],
   [
    10.296747,
    47.654582
   ],
   [
    10.297348,
    47.655403
   ],
   [
    10.297736,
    47.65596
   ],
   [
    10.297908,
    47.656247
   ],
   [
    10.298069,
    47.656539
   ],
   [
    10.298204,
    47.656846
   ],
   [
    10.2984,
    47.657362
   ],
   [
    10.298543,
    47.657874
   ],
   [
    10.298611,
    47.658222
   ],
   [
    10.298659,
    47.658575
   ],
   [
    10.298679,
    47.659148
   ],
   [
    10.298678,
    47.659734
   ],
   [
    10.298666,
    47.660665
   ],
   [
    10.298705,
    47.661346
   ],
   [
    10.298754,
    47.661717
   ],
   [
    10.298914,
    47.6624
   ],
   [
    10.299149,
    47.663284
   ],
   [
    10.299244,
    47.66378
   ],
   [
    10.299302,
    47.664147
   ],
   [
    10.299298,
    47.664722
   ],
   [
    10.299252,
    47.665207
   ],
   [
    10.299135,
    47.665696
   ],
   [
    10.29883,
    47.666441
   ],
   [
    10.298678,
    47.666793
   ],
   [
    10.29842,
    47.667334
   ],
   [
    10.298378,
    47.667418
   ],
   [
    10.298259,
    47.667749
   ],
   [
    10.298188,
    47.66801
   ],
   [
    10.298126,
    47.668355
   ],
   [
    10.2981,
    47.668725
   ],
   [
    10.298115,
    47.669096
   ],
   [
    10.298154,
    47.669334
   ],
   [
    10.298252,
    47.669628
   ],
   [
    10.298461,
    47.670168
   ],
   [
    10.298679,
    47.670539
   ],
   [
    10.298951,
    47.670904
   ],
   [
    10.29926,
    47.671235
   ],
   [
    10.299827,
    47.671731
   ],
   [
    10.300175,
    47.672013
   ],
   [
    10.300558,
    47.672343
   ],
   [
    10.300798,
    47.672592
   ],
   [
    10.300996,
    47.672819
   ],
   [
    10.301183,
    47.673075
   ],
   [
    10.301346,
    47.673367
   ],
   [
    10.301463,
    47.673621
   ],
   [
    10.301531,
    47.673827
   ],
   [
    10.30161,
    47.674088
   ],
   [
    10.301662,
    47.674317
   ],
   [
    10.301825,
    47.675286
   ],
   [
    10.301867,
    47.675442
   ],
   [
    10.301927,
    47.675665
   ],
   [
    10.301981,
    47.675829
   ],
   [
    10.302103,
    47.676095
   ],
   [
    10.302215,
    47.676265
   ],
   [
    10.302323,
    47.676419
   ],
   [
    10.302553,
    47.67671
   ],
   [
    10.30274,
    47.676924
   ],
   [
    10.302921,
    47.677092
   ],
   [
    10.303495,
    47.677597
   ],
   [
    10.303699,
    47.677811
   ],
   [
    10.303903,
    47.678019
   ],
   [
    10.30411,
    47.678285
   ],
   [
    10.304264,
    47.678559
   ],
   [
    10.304324,
    47.678667
   ],
   [
    10.304374,
    47.67879
   ],
   [
    10.304411,
    47.678882
   ],
   [
    10.304438,
    47.678957
   ],
   [
    10.304516,
    47.679213
   ],
   [
    10.30457,
    47.679447
   ],
   [
    10.304542,
    47.679614
   ],
   [
    10.304659,
    47.679966
   ],
   [
    10.304731,
    47.680177
   ],
   [
    10.304763,
    47.680276
   ],
   [
    10.30482,
    47.680464
   ],
   [
    10.304882,
    47.68065
   ],
   [
    10.304985,
    47.680911
   ],
   [
    10.305081,
    47.681133
   ],
   [
    10.305142,
    47.681279
   ],
   [
    10.305195,
    47.681409
   ],
   [
    10.305232,
    47.681488
   ],
   [
    10.305269,
    47.681581
   ],
   [
    10.3053,
    47.68166
   ],
   [
    10.305403,
    47.681925
   ],
   [
    10.305462,
    47.682056
   ],
   [
    10.30582,
    47.682824
   ],
   [
    10.305928,
    47.683
   ],
   [
    10.306088,
    47.683182
   ],
   [
    10.306312,
    47.683404
   ],
   [
    10.306519,
    47.683603
   ],
   [
    10.307338,
    47.684178
   ],
   [
    10.307472,
    47.684269
   ],
   [
    10.307684,
    47.684453
   ],
   [
    10.307708,
    47.684474
   ],
   [
    10.307784,
    47.68454
   ],
   [
    10.307859,
    47.684619
   ],
   [
    10.30807,
    47.684842
   ],
   [
    10.308224,
    47.685033
   ],
   [
    10.308405,
    47.685268
   ],
   [
    10.308639,
    47.685648
   ],
   [
    10.308734,
    47.685803
   ],
   [
    10.308979,
    47.686197
   ],
   [
    10.309113,
    47.686363
   ],
   [
    10.309216,
    47.686501
   ],
   [
    10.309236,
    47.686528
   ],
   [
    10.309311,
    47.686629
   ],
   [
    10.309364,
    47.686698
   ],
   [
    10.309419,
    47.686771
   ],
   [
    10.309704,
    47.687153
   ],
   [
    10.309786,
    47.687267
   ],
   [
    10.309838,
    47.687336
   ],
   [
    10.31007,
    47.687672
   ],
   [
    10.31035,
    47.68818
   ],
   [
    10.310581,
    47.688701
   ],
   [
    10.310693,
    47.689122
   ],
   [
    10.310718,
    47.689347
   ],
   [
    10.310708,
    47.689624
   ],
   [
    10.310599,
    47.690433
   ],
   [
    10.310578,
    47.690915
   ],
   [
    10.310587,
    47.691133
   ],
   [
    10.310598,
    47.691322
   ],
   [
    10.310771,
    47.691936
   ],
   [
    10.310892,
    47.692191
   ],
   [
    10.31129,
    47.692955
   ],
   [
    10.311346,
    47.693048
   ],
   [
    10.311396,
    47.693128
   ],
   [
    10.311518,
    47.69333
   ],
   [
    10.311548,
    47.693385
   ],
   [
    10.312097,
    47.69425
   ],
   [
    10.31221,
    47.694564
   ],
   [
    10.312266,
    47.695019
   ],
   [
    10.312277,
    47.69587
   ],
   [
    10.312293,
    47.696022
   ],
   [
    10.312306,
    47.696178
   ],
   [
    10.312343,
    47.696338
   ],
   [
    10.312387,
    47.696468
   ],
   [
    10.312449,
    47.696596
   ],
   [
    10.312571,
    47.69683
   ],
   [
    10.312683,
    47.697044
   ],
   [
    10.312786,
    47.697222
   ],
   [
    10.312919,
    47.697454
   ],
   [
    10.312945,
    47.697509
   ],
   [
    10.313002,
    47.697631
   ],
   [
    10.31307,
    47.697801
   ],
   [
    10.313102,
    47.697929
   ],
   [
    10.313124,
    47.698044
   ],
   [
    10.313148,
    47.698261
   ],
   [
    10.313154,
    47.698511
   ],
   [
    10.313135,
    47.698814
   ],
   [
    10.313091,
    47.699228
   ],
   [
    10.312984,
    47.700105
   ],
   [
    10.312909,
    47.700788
   ],
   [
    10.312889,
    47.701115
   ],
   [
    10.312881,
    47.701429
   ],
   [
    10.312885,
    47.701747
   ],
   [
    10.312888,
    47.701961
   ],
   [
    10.312902,
    47.702205
   ],
   [
    10.312914,
    47.702531
   ],
   [
    10.312917,
    47.702668
   ],
   [
    10.31292,
    47.702842
   ],
   [
    10.312919,
    47.702868
   ],
   [
    10.312927,
    47.703185
   ],
   [
    10.31291,
    47.703571
   ],
   [
    10.312865,
    47.703925
   ],
   [
    10.312825,
    47.704173
   ],
   [
    10.312806,
    47.704272
   ],
   [
    10.312779,
    47.704391
   ],
   [
    10.312746,
    47.704504
   ],
   [
    10.312594,
    47.704919
   ],
   [
    10.31244,
    47.705328
   ],
   [
    10.31229,
    47.705876
   ],
   [
    10.312103,
    47.706285
   ],
   [
    10.312032,
    47.70643
   ],
   [
    10.311969,
    47.706558
   ],
   [
    10.311885,
    47.706716
   ],
   [
    10.311835,
    47.706854
   ],
   [
    10.311773,
    47.707115
   ],
   [
    10.311737,
    47.70729
   ],
   [
    10.311693,
    47.707628
   ],
   [
    10.311699,
    47.707989
   ],
   [
    10.311718,
    47.708147
   ],
   [
    10.311756,
    47.708297
   ],
   [
    10.311777,
    47.708341
   ],
   [
    10.311919,
    47.708602
   ],
   [
    10.312157,
    47.708914
   ],
   [
    10.312493,
    47.709267
   ],
   [
    10.31271,
    47.709485
   ],
   [
    10.313134,
    47.709922
   ],
   [
    10.313249,
    47.71004
   ],
   [
    10.31344,
    47.710221
   ],
   [
    10.31366,
    47.710429
   ],
   [
    10.313846,
    47.710602
   ],
   [
    10.314053,
    47.710807
   ],
   [
    10.314175,
    47.710954
   ],
   [
    10.314348,
    47.711173
   ],
   [
    10.314459,
    47.711315
   ],
   [
    10.314723,
    47.711701
   ],
   [
    10.314924,
    47.712114
   ],
   [
    10.315079,
    47.712531
   ],
   [
    10.315213,
    47.713142
   ],
   [
    10.315267,
    47.713751
   ],
   [
    10.315263,
    47.714006
   ],
   [
    10.315259,
    47.714084
   ],
   [
    10.315244,
    47.714173
   ],
   [
    10.315191,
    47.714485
   ],
   [
    10.315145,
    47.71472
   ],
   [
    10.315174,
    47.7148
   ],
   [
    10.315176,
    47.714915
   ],
   [
    10.315191,
    47.714987
   ],
   [
    10.315213,
    47.715039
   ],
   [
    10.315252,
    47.715098
   ],
   [
    10.315397,
    47.715215
   ],
   [
    10.315453,
    47.715283
   ],
   [
    10.315918,
    47.715442
   ],
   [
    10.316774,
    47.71567
   ],
   [
    10.317126,
    47.715744
   ],
   [
    10.3172,
    47.71576
   ],
   [
    10.317344,
    47.715774
   ],
   [
    10.317573,
    47.715797
   ],
   [
    10.317776,
    47.715817
   ],
   [
    10.318029,
    47.71583
   ],
   [
    10.318293,
    47.715834
   ],
   [
    10.318628,
    47.715819
   ],
   [
    10.318983,
    47.715781
   ],
   [
    10.319323,
    47.715722
   ],
   [
    10.319645,
    47.715661
   ],
   [
    10.319887,
    47.715617
   ],
   [
    10.32017,
    47.71556
   ],
   [
    10.320355,
    47.715522
   ],
   [
    10.320395,
    47.715631
   ],
   [
    10.320406,
    47.715687
   ],
   [
    10.320412,
    47.715739
   ],
   [
    10.320386,
    47.715915
   ],
   [
    10.320292,
    47.716042
   ],
   [
    10.320243,
    47.716108
   ],
   [
    10.320256,
    47.716247
   ],
   [
    10.320263,
    47.716295
   ],
   [
    10.320314,
    47.716367
   ],
   [
    10.320386,
    47.716416
   ],
   [
    10.320523,
    47.716475
   ],
   [
    10.320625,
    47.716487
   ],
   [
    10.320809,
    47.716511
   ],
   [
    10.321036,
    47.716544
   ],
   [
    10.321138,
    47.716557
   ],
   [
    10.32129,
    47.71658
   ],
   [
    10.321393,
    47.716606
   ],
   [
    10.321443,
    47.716649
   ],
   [
    10.321506,
    47.716723
   ],
   [
    10.321539,
    47.716785
   ],
   [
    10.321557,
    47.716901
   ],
   [
    10.321581,
    47.717271
   ],
   [
    10.321573,
    47.717731
   ],
   [
    10.321563,
    47.717818
   ],
   [
    10.321525,
    47.718079
   ],
   [
    10.321418,
    47.718432
   ],
   [
    10.321632,
    47.718459
   ],
   [
    10.321796,
    47.718479
   ],
   [
    10.32204,
    47.718454
   ],
   [
    10.321901,
    47.718014
   ]
  ],
  "type": "LineString"
 },
 "properties": {
  "quelle": "OSRM router.project-osrm.org, Profil driving",
  "distanz_m": 24092.9,
  "dauer_s": 1336.8,
  "punkte": 660,
  "dienst": "D05",
  "client_ref": "m-12-7092451863",
  "abschnitt": 1
 }
}
