{
 "type": "Feature",
 "geometry": {
  "coordinates": [
   [
    10.321901,
    47.718014
   ],
   [
    10.32204,
    47.718454
   ],
   [
    10.321796,
    47.718479
   ],
   [
    10.321632,
    47.718459
   ],
   [
    10.321418,
    47.718432
   ],
   [
    10.321525,
    47.718079
   ],
   [
    10.321563,
    47.717818
   ],
   [
    10.321573,
    47.717731
   ],
   [
    10.321581,
    47.717271
   ],
   [
    10.321557,
    47.716901
   ],
   [
    10.321539,
    47.716785
   ],
   [
    10.321506,
    47.716723
   ],
   [
    10.321443,
    47.716649
   ],
   [
    10.321393,
    47.716606
   ],
   [
    10.32129,
    47.71658
   ],
   [
    10.321138,
    47.716557
   ],
   [
    10.321036,
    47.716544
   ],
   [
    10.320809,
    47.716511
   ],
   [
    10.320625,
    47.716487
   ],
   [
    10.320523,
    47.716475
   ],
   [
    10.320191,
    47.71644
   ],
   [
    10.320031,
    47.716382
   ],
   [
    10.320132,
    47.716258
   ],
   [
    10.320243,
    47.716108
   ],
   [
    10.320292,
    47.716042
   ],
   [
    10.320386,
    47.715915
   ],
   [
    10.320412,
    47.715739
   ],
   [
    10.320406,
    47.715687
   ],
   [
    10.320395,
    47.715631
   ],
   [
    10.320355,
    47.715522
   ],
   [
    10.320555,
    47.715479
   ],
   [
    10.320801,
    47.715427
   ],
   [
    10.320948,
    47.715397
   ],
   [
    10.321468,
    47.715302
   ],
   [
    10.322711,
    47.715126
   ],
   [
    10.323076,
    47.715127
   ],
   [
    10.323444,
    47.715173
   ],
   [
    10.323543,
    47.715192
   ],
   [
    10.323754,
    47.715233
   ],
   [
    10.324002,
    47.715281
   ],
   [
    10.324201,
    47.715274
   ],
   [
    10.324398,
    47.715273
   ],
   [
    10.325603,
    47.715408
   ],
   [
    10.325708,
    47.715406
   ],
   [
    10.325771,
    47.715386
   ],
   [
    10.325854,
    47.715361
   ],
   [
    10.325925,
    47.715129
   ],
   [
    10.325936,
    47.715065
   ],
   [
    10.325945,
    47.715015
   ],
   [
    10.325944,
    47.714923
   ],
   [
    10.325931,
    47.71481
   ],
   [
    10.32592,
    47.714725
   ],
   [
    10.325924,
    47.714615
   ],
   [
    10.325947,
    47.714344
   ],
   [
    10.325968,
    47.714185
   ],
   [
    10.32599,
    47.71407
   ],
   [
    10.325997,
    47.713821
   ],
   [
    10.325715,
    47.712974
   ],
   [
    10.325692,
    47.712886
   ],
   [
    10.325745,
    47.712839
   ],
   [
    10.325789,
    47.712796
   ],
   [
    10.325867,
    47.71273
   ],
   [
    10.325956,
    47.712692
   ],
   [
    10.326092,
    47.71267
   ],
   [
    10.326314,
    47.712691
   ],
   [
    10.326519,
    47.712712
   ],
   [
    10.327408,
    47.71282
   ],
   [
    10.327826,
    47.712872
   ],
   [
    10.32803,
    47.712904
   ],
   [
    10.328178,
    47.712934
   ],
   [
    10.328357,
    47.712935
   ],
   [
    10.328432,
    47.712926
   ],
   [
    10.328588,
    47.712884
   ],
   [
    10.328764,
    47.712796
   ],
   [
    10.328841,
    47.712607
   ],
   [
    10.328918,
    47.71238
   ],
   [
    10.329104,
    47.711667
   ],
   [
    10.329122,
    47.711607
   ],
   [
    10.329152,
    47.711534
   ],
   [
    10.329194,
    47.711438
   ],
   [
    10.329218,
    47.711388
   ],
   [
    10.329319,
    47.711237
   ],
   [
    10.329391,
    47.711151
   ],
   [
    10.329491,
    47.711025
   ],
   [
    10.329551,
    47.710965
   ],
   [
    10.329853,
    47.710652
   ],
   [
    10.329992,
    47.710505
   ],
   [
    10.330084,
    47.710408
   ],
   [
    10.330145,
    47.710344
   ],
   [
    10.330201,
    47.710285
   ],
   [
    10.330313,
    47.710167
   ],
   [
    10.330424,
    47.71005
   ],
   [
    10.330554,
    47.709913
   ],
   [
    10.33062,
    47.709845
   ],
   [
    10.330836,
    47.709649
   ],
   [
    10.331058,
    47.709477
   ],
   [
    10.331202,
    47.709385
   ],
   [
    10.331463,
    47.709244
   ],
   [
    10.33159,
    47.709178
   ],
   [
    10.331676,
    47.709135
   ],
   [
    10.332068,
    47.708951
   ],
   [
    10.332675,
    47.708709
   ],
   [
    10.334309,
    47.708008
   ],
   [
    10.334353,
    47.707983
   ],
   [
    10.334536,
    47.707879
   ],
   [
    10.3346,
    47.707844
   ],
   [
    10.334981,
    47.707568
   ],
   [
    10.334998,
    47.707552
   ],
   [
    10.335162,
    47.7074
   ],
   [
    10.335431,
    47.707113
   ],
   [
    10.335656,
    47.706816
   ],
   [
    10.336096,
    47.706
   ],
   [
    10.336355,
    47.705517
   ],
   [
    10.336427,
    47.70539
   ],
   [
    10.336558,
    47.705234
   ],
   [
    10.336598,
    47.705152
   ],
   [
    10.336553,
    47.70513
   ],
   [
    10.336525,
    47.705109
   ],
   [
    10.336488,
    47.705059
   ],
   [
    10.336479,
    47.70503
   ],
   [
    10.336482,
    47.704986
   ],
   [
    10.336501,
    47.704946
   ],
   [
    10.33654,
    47.704906
   ],
   [
    10.336573,
    47.704886
   ],
   [
    10.336617,
    47.704868
   ],
   [
    10.336702,
    47.704854
   ],
   [
    10.336776,
    47.704859
   ],
   [
    10.336824,
    47.704871
   ],
   [
    10.336839,
    47.704877
   ],
   [
    10.336893,
    47.704809
   ],
   [
    10.336942,
    47.704759
   ],
   [
    10.337236,
    47.704415
   ],
   [
    10.337324,
    47.704344
   ],
   [
    10.337486,
    47.70422
   ],
   [
    10.338544,
    47.703366
   ],
   [
    10.339104,
    47.70288
   ],
   [
    10.339271,
    47.702675
   ],
   [
    10.339824,
    47.701963
   ],
   [
    10.340215,
    47.701438
   ],
   [
    10.340529,
    47.701027
   ],
   [
    10.340652,
    47.700863
   ],
   [
    10.340722,
    47.700785
   ],
   [
    10.340979,
    47.700428
   ],
   [
    10.341056,
    47.700326
   ],
   [
    10.341075,
    47.700302
   ],
   [
    10.341169,
    47.700161
   ],
   [
    10.341525,
    47.699553
   ],
   [
    10.341668,
    47.699309
   ],
   [
    10.34183,
    47.699072
   ],
   [
    10.341895,
    47.698971
   ],
   [
    10.342015,
    47.698809
   ],
   [
    10.342137,
    47.69865
   ],
   [
    10.342301,
    47.698436
   ],
   [
    10.342393,
    47.698332
   ],
   [
    10.342465,
    47.698253
   ],
   [
    10.342545,
    47.698201
   ],
   [
    10.34263,
    47.698163
   ],
   [
    10.342751,
    47.698136
   ],
   [
    10.342863,
    47.698122
   ],
   [
    10.34304,
    47.698124
   ],
   [
    10.343321,
    47.698142
   ],
   [
    10.343513,
    47.698129
   ],
   [
    10.343636,
    47.69811
   ],
   [
    10.343766,
    47.698086
   ],
   [
    10.343886,
    47.698044
   ],
   [
    10.344092,
    47.697941
   ],
   [
    10.344262,
    47.697821
   ],
   [
    10.34448,
    47.697638
   ],
   [
    10.344662,
    47.697443
   ],
   [
    10.344797,
    47.697296
   ],
   [
    10.345096,
    47.697018
   ],
   [
    10.345128,
    47.696991
   ],
   [
    10.34524,
    47.69689
   ],
   [
    10.345311,
    47.696833
   ],
   [
    10.345502,
    47.696724
   ],
   [
    10.345678,
    47.696652
   ],
   [
    10.346123,
    47.696491
   ],
   [
    10.346588,
    47.696228
   ],
   [
    10.346955,
    47.695991
   ],
   [
    10.347087,
    47.695923
   ],
   [
    10.347191,
    47.695874
   ],
   [
    10.347413,
    47.695769
   ],
   [
    10.347792,
    47.69559
   ],
   [
    10.348086,
    47.695441
   ],
   [
    10.348437,
    47.695252
   ],
   [
    10.34857,
    47.695166
   ],
   [
    10.348759,
    47.695031
   ],
   [
    10.348933,
    47.694884
   ],
   [
    10.348981,
    47.694835
   ],
   [
    10.349082,
    47.694731
   ],
   [
    10.349167,
    47.694617
   ],
   [
    10.349262,
    47.694474
   ],
   [
    10.34928,
    47.694436
   ],
   [
    10.349333,
    47.694295
   ],
   [
    10.349387,
    47.694123
   ],
   [
    10.349449,
    47.693721
   ],
   [
    10.349524,
    47.693478
   ],
   [
    10.34963,
    47.693259
   ],
   [
    10.349782,
    47.693022
   ],
   [
    10.350082,
    47.69267
   ],
   [
    10.350141,
    47.69256
   ],
   [
    10.350185,
    47.692421
   ],
   [
    10.350196,
    47.69226
   ],
   [
    10.350201,
    47.692135
   ],
   [
    10.350204,
    47.691963
   ],
   [
    10.350265,
    47.691754
   ],
   [
    10.350364,
    47.691615
   ],
   [
    10.350694,
    47.691328
   ],
   [
    10.350897,
    47.691109
   ],
   [
    10.351029,
    47.690878
   ],
   [
    10.351133,
    47.690696
   ],
   [
    10.351251,
    47.690549
   ],
   [
    10.351365,
    47.690452
   ],
   [
    10.351558,
    47.690289
   ],
   [
    10.351766,
    47.690093
   ],
   [
    10.35209,
    47.689733
   ],
   [
    10.352376,
    47.689397
   ],
   [
    10.352667,
    47.688963
   ],
   [
    10.352912,
    47.688495
   ],
   [
    10.353102,
    47.688065
   ],
   [
    10.353277,
    47.687649
   ],
   [
    10.353359,
    47.687405
   ],
   [
    10.353582,
    47.68652
   ],
   [
    10.353668,
    47.686027
   ],
   [
    10.353725,
    47.685364
   ],
   [
    10.353718,
    47.684713
   ],
   [
    10.353684,
    47.684277
   ],
   [
    10.353653,
    47.683927
   ],
   [
    10.353586,
    47.683453
   ],
   [
    10.353485,
    47.682835
   ],
   [
    10.353474,
    47.682706
   ],
   [
    10.353488,
    47.682568
   ],
   [
    10.353569,
    47.682391
   ],
   [
    10.353641,
    47.682299
   ],
   [
    10.353733,
    47.682219
   ],
   [
    10.353943,
    47.682099
   ],
   [
    10.354244,
    47.681949
   ],
   [
    10.354336,
    47.681903
   ],
   [
    10.354522,
    47.681808
   ],
   [
    10.354279,
    47.68115
   ],
   [
    10.354241,
    47.680993
   ],
   [
    10.354258,
    47.680818
   ],
   [
    10.354337,
    47.680523
   ],
   [
    10.354748,
    47.678841
   ],
   [
    10.354779,
    47.678288
   ],
   [
    10.354732,
    47.677937
   ],
   [
    10.35449,
    47.677273
   ],
   [
    10.354405,
    47.677088
   ],
   [
    10.354172,
    47.676675
   ],
   [
    10.353936,
    47.676244
   ],
   [
    10.3539,
    47.676084
   ],
   [
    10.353899,
    47.675904
   ],
   [
    10.353928,
    47.675643
   ],
   [
    10.354009,
    47.675375
   ],
   [
    10.354026,
    47.675215
   ],
   [
    10.354004,
    47.67495
   ],
   [
    10.353896,
    47.674659
   ],
   [
    10.353728,
    47.674369
   ],
   [
    10.353485,
    47.674057
   ],
   [
    10.353035,
    47.673557
   ],
   [
    10.352435,
    47.67217
   ],
   [
    10.352353,
    47.671897
   ],
   [
    10.352287,
    47.67168
   ],
   [
    10.352258,
    47.671583
   ],
   [
    10.352043,
    47.670875
   ],
   [
    10.351917,
    47.670459
   ],
   [
    10.351859,
    47.670265
   ],
   [
    10.351764,
    47.67014
   ],
   [
    10.351362,
    47.669745
   ],
   [
    10.350915,
    47.6693
   ],
   [
    10.350779,
    47.669093
   ],
   [
    10.350716,
    47.668851
   ],
   [
    10.350701,
    47.668429
   ],
   [
    10.350702,
    47.668364
   ],
   [
    10.350771,
    47.668105
   ],
   [
    10.350774,
    47.667958
   ],
   [
    10.350764,
    47.667868
   ],
   [
    10.350729,
    47.667752
   ],
   [
    10.350694,
    47.667677
   ],
   [
    10.350539,
    47.667343
   ],
   [
    10.350355,
    47.666949
   ],
   [
    10.350115,
    47.666506
   ],
   [
    10.350033,
    47.666337
   ],
   [
    10.349797,
    47.665976
   ],
   [
    10.349605,
    47.665638
   ],
   [
    10.349573,
    47.665565
   ],
   [
    10.349564,
    47.665265
   ],
   [
    10.349577,
    47.665159
   ],
   [
    10.349645,
    47.665023
   ],
   [
    10.349719,
    47.664909
   ],
   [
    10.349841,
    47.664788
   ],
   [
    10.350024,
    47.664626
   ],
   [
    10.350458,
    47.664333
   ],
   [
    10.35076,
    47.664122
   ],
   [
    10.350889,
    47.664055
   ],
   [
    10.350797,
    47.663722
   ],
   [
    10.350779,
    47.663667
   ],
   [
    10.350651,
    47.663204
   ],
   [
    10.350443,
    47.662582
   ],
   [
    10.350159,
    47.662118
   ],
   [
    10.350027,
    47.661872
   ],
   [
    10.349987,
    47.661786
   ],
   [
    10.349885,
    47.661595
   ],
   [
    10.349755,
    47.661349
   ],
   [
    10.349739,
    47.661282
   ],
   [
    10.349742,
    47.661221
   ],
   [
    10.349759,
    47.661177
   ],
   [
    10.349771,
    47.661108
   ],
   [
    10.349754,
    47.66106
   ],
   [
    10.349711,
    47.660964
   ],
   [
    10.349702,
    47.660897
   ],
   [
    10.349765,
    47.660877
   ],
   [
    10.349795,
    47.660857
   ],
   [
    10.349989,
    47.660616
   ],
   [
    10.350105,
    47.660535
   ],
   [
    10.350253,
    47.660404
   ],
   [
    10.350291,
    47.66034
   ],
   [
    10.35034,
    47.660272
   ],
   [
    10.350381,
    47.660174
   ],
   [
    10.35039,
    47.66014
   ],
   [
    10.350414,
    47.66003
   ],
   [
    10.350416,
    47.659992
   ],
   [
    10.350409,
    47.659952
   ],
   [
    10.350388,
    47.659904
   ],
   [
    10.350358,
    47.659861
   ],
   [
    10.350277,
    47.659787
   ],
   [
    10.350192,
    47.659725
   ],
   [
    10.350074,
    47.659662
   ],
   [
    10.349769,
    47.659501
   ],
   [
    10.34968,
    47.659428
   ],
   [
    10.349619,
    47.65938
   ],
   [
    10.349517,
    47.65925
   ],
   [
    10.34947,
    47.659133
   ],
   [
    10.34946,
    47.65908
   ],
   [
    10.349438,
    47.658966
   ],
   [
    10.349445,
    47.658879
   ],
   [
    10.349451,
    47.658806
   ],
   [
    10.349482,
    47.658663
   ],
   [
    10.349511,
    47.65851
   ],
   [
    10.349521,
    47.658377
   ],
   [
    10.34949,
    47.658235
   ],
   [
    10.349409,
    47.658029
   ],
   [
    10.349149,
    47.657258
   ],
   [
    10.349127,
    47.657175
   ],
   [
    10.349084,
    47.657031
   ],
   [
    10.349037,
    47.656756
   ],
   [
    10.349023,
    47.656662
   ],
   [
    10.349,
    47.65655
   ],
   [
    10.348979,
    47.656406
   ],
   [
    10.348968,
    47.656321
   ],
   [
    10.348907,
    47.656084
   ],
   [
    10.348893,
    47.656029
   ],
   [
    10.348846,
    47.655917
   ],
   [
    10.34875,
    47.655757
   ],
   [
    10.348657,
    47.655625
   ],
   [
    10.348419,
    47.655353
   ],
   [
    10.348207,
    47.655093
   ],
   [
    10.348142,
    47.654984
   ],
   [
    10.348094,
    47.654855
   ],
   [
    10.348059,
    47.6547
   ],
   [
    10.34807,
    47.654535
   ],
   [
    10.348081,
    47.654424
   ],
   [
    10.348112,
    47.654315
   ],
   [
    10.348147,
    47.654238
   ],
   [
    10.348231,
    47.654108
   ],
   [
    10.348407,
    47.653891
   ],
   [
    10.34855,
    47.653752
   ],
   [
    10.348767,
    47.653643
   ],
   [
    10.349573,
    47.653307
   ],
   [
    10.349729,
    47.653216
   ],
   [
    10.349867,
    47.653114
   ],
   [
    10.350008,
    47.652981
   ],
   [
    10.350091,
    47.652838
   ],
   [
    10.350125,
    47.652717
   ],
   [
    10.350124,
    47.652524
   ],
   [
    10.3501,
    47.652384
   ],
   [
    10.350077,
    47.652302
   ],
   [
    10.34991,
    47.651935
   ],
   [
    10.349711,
    47.651524
   ],
   [
    10.349004,
    47.650125
   ],
   [
    10.348955,
    47.650003
   ],
   [
    10.348937,
    47.649887
   ],
   [
    10.348968,
    47.64977
   ],
   [
    10.349035,
    47.649675
   ],
   [
    10.349143,
    47.6496
   ],
   [
    10.349284,
    47.649541
   ],
   [
    10.349424,
    47.649523
   ],
   [
    10.349608,
    47.649537
   ],
   [
    10.34974,
    47.649573
   ],
   [
    10.349979,
    47.649717
   ],
   [
    10.35049,
    47.650047
   ],
   [
    10.350811,
    47.650227
   ],
   [
    10.351039,
    47.65032
   ],
   [
    10.351279,
    47.650386
   ],
   [
    10.351627,
    47.650444
   ],
   [
    10.35199,
    47.650481
   ],
   [
    10.352295,
    47.650543
   ],
   [
    10.352583,
    47.650652
   ],
   [
    10.352746,
    47.650738
   ],
   [
    10.352882,
    47.650819
   ],
   [
    10.353061,
    47.650989
   ],
   [
    10.353184,
    47.651135
   ],
   [
    10.353199,
    47.651162
   ],
   [
    10.353314,
    47.651327
   ],
   [
    10.353361,
    47.651395
   ],
   [
    10.353441,
    47.651499
   ],
   [
    10.353501,
    47.65157
   ],
   [
    10.353559,
    47.651635
   ],
   [
    10.353601,
    47.651668
   ],
   [
    10.353656,
    47.651693
   ],
   [
    10.353733,
    47.651714
   ],
   [
    10.3538,
    47.651721
   ],
   [
    10.353884,
    47.65172
   ],
   [
    10.353978,
    47.651708
   ],
   [
    10.354053,
    47.651686
   ],
   [
    10.354125,
    47.651649
   ],
   [
    10.354184,
    47.651606
   ],
   [
    10.354219,
    47.651555
   ],
   [
    10.354244,
    47.651507
   ],
   [
    10.354245,
    47.651433
   ],
   [
    10.354232,
    47.651329
   ],
   [
    10.354122,
    47.650847
   ],
   [
    10.354006,
    47.650296
   ],
   [
    10.35392,
    47.649847
   ],
   [
    10.35388,
    47.649321
   ],
   [
    10.353869,
    47.648998
   ],
   [
    10.35382,
    47.648788
   ],
   [
    10.353731,
    47.648567
   ],
   [
    10.353658,
    47.648398
   ],
   [
    10.353615,
    47.648308
   ],
   [
    10.35314,
    47.647304
   ],
   [
    10.352633,
    47.646245
   ],
   [
    10.352544,
    47.646035
   ],
   [
    10.352457,
    47.645725
   ],
   [
    10.352398,
    47.645322
   ],
   [
    10.352428,
    47.64486
   ],
   [
    10.352589,
    47.644201
   ],
   [
    10.352749,
    47.643597
   ],
   [
    10.352786,
    47.643514
   ],
   [
    10.352845,
    47.643421
   ],
   [
    10.352953,
    47.643302
   ],
   [
    10.353079,
    47.643201
   ],
   [
    10.353251,
    47.643099
   ],
   [
    10.353387,
    47.643033
   ],
   [
    10.353556,
    47.642972
   ],
   [
    10.353679,
    47.642957
   ],
   [
    10.35398,
    47.642939
   ],
   [
    10.355219,
    47.642871
   ],
   [
    10.355473,
    47.642854
   ],
   [
    10.355818,
    47.642822
   ],
   [
    10.356072,
    47.642772
   ],
   [
    10.356286,
    47.642696
   ],
   [
    10.356446,
    47.642591
   ],
   [
    10.356518,
    47.642534
   ],
   [
    10.356584,
    47.642461
   ],
   [
    10.356627,
    47.642291
   ],
   [
    10.356625,
    47.642158
   ],
   [
    10.356605,
    47.64203
   ],
   [
    10.356168,
    47.640531
   ],
   [
    10.356076,
    47.640297
   ],
   [
    10.355945,
    47.64005
   ],
   [
    10.355814,
    47.639863
   ],
   [
    10.355666,
    47.639708
   ],
   [
    10.35487,
    47.638991
   ],
   [
    10.35478,
    47.638897
   ],
   [
    10.354724,
    47.638818
   ],
   [
    10.354695,
    47.638719
   ],
   [
    10.354692,
    47.638653
   ],
   [
    10.354708,
    47.638511
   ],
   [
    10.354751,
    47.63838
   ],
   [
    10.355059,
    47.637902
   ],
   [
    10.355351,
    47.637478
   ],
   [
    10.355449,
    47.637289
   ],
   [
    10.355532,
    47.637098
   ],
   [
    10.355547,
    47.636901
   ],
   [
    10.355535,
    47.63676
   ],
   [
    10.355412,
    47.635753
   ],
   [
    10.355367,
    47.635378
   ],
   [
    10.355372,
    47.635249
   ],
   [
    10.355384,
    47.635166
   ],
   [
    10.355417,
    47.635072
   ],
   [
    10.355671,
    47.634455
   ],
   [
    10.355706,
    47.63431
   ],
   [
    10.35571,
    47.634211
   ],
   [
    10.355692,
    47.634002
   ],
   [
    10.35557,
    47.633563
   ],
   [
    10.355557,
    47.63343
   ],
   [
    10.355572,
    47.633289
   ],
   [
    10.355722,
    47.632874
   ],
   [
    10.355983,
    47.632359
   ],
   [
    10.356141,
    47.632073
   ],
   [
    10.356325,
    47.631741
   ],
   [
    10.356421,
    47.631584
   ],
   [
    10.356504,
    47.631494
   ],
   [
    10.356674,
    47.631375
   ],
   [
    10.356829,
    47.631328
   ],
   [
    10.357017,
    47.631323
   ],
   [
    10.357581,
    47.631344
   ],
   [
    10.358112,
    47.631356
   ],
   [
    10.358234,
    47.631345
   ],
   [
    10.358309,
    47.631332
   ],
   [
    10.358387,
    47.631293
   ],
   [
    10.358473,
    47.63124
   ],
   [
    10.358519,
    47.631177
   ],
   [
    10.358538,
    47.631099
   ],
   [
    10.35851,
    47.631005
   ],
   [
    10.358432,
    47.63091
   ],
   [
    10.358313,
    47.630813
   ],
   [
    10.358028,
    47.630645
   ],
   [
    10.357682,
    47.630412
   ],
   [
    10.357437,
    47.630227
   ],
   [
    10.35713,
    47.629969
   ],
   [
    10.356862,
    47.629738
   ],
   [
    10.356575,
    47.629451
   ],
   [
    10.356057,
    47.628861
   ],
   [
    10.355855,
    47.62859
   ],
   [
    10.355733,
    47.628409
   ],
   [
    10.355666,
    47.628254
   ],
   [
    10.355647,
    47.628137
   ],
   [
    10.35565,
    47.628021
   ],
   [
    10.35568,
    47.627855
   ],
   [
    10.355729,
    47.627728
   ],
   [
    10.3558,
    47.627539
   ],
   [
    10.355903,
    47.627272
   ],
   [
    10.355973,
    47.627078
   ],
   [
    10.356141,
    47.626659
   ],
   [
    10.356271,
    47.626328
   ],
   [
    10.356323,
    47.626101
   ],
   [
    10.356347,
    47.625881
   ],
   [
    10.356335,
    47.625661
   ],
   [
    10.356315,
    47.625434
   ],
   [
    10.356264,
    47.625222
   ],
   [
    10.356161,
    47.624942
   ],
   [
    10.356067,
    47.624776
   ],
   [
    10.35592,
    47.624546
   ],
   [
    10.355767,
    47.62435
   ],
   [
    10.355409,
    47.623977
   ],
   [
    10.355131,
    47.623676
   ],
   [
    10.354998,
    47.623505
   ],
   [
    10.354916,
    47.623386
   ],
   [
    10.354812,
    47.623252
   ],
   [
    10.354684,
    47.62294
   ],
   [
    10.354607,
    47.622731
   ],
   [
    10.354506,
    47.622278
   ],
   [
    10.35445,
    47.622021
   ],
   [
    10.354374,
    47.621819
   ],
   [
    10.354184,
    47.621536
   ],
   [
    10.353977,
    47.6213
   ],
   [
    10.353806,
    47.621158
   ],
   [
    10.353538,
    47.620969
   ],
   [
    10.353219,
    47.620795
   ],
   [
    10.352752,
    47.620554
   ],
   [
    10.352423,
    47.62035
   ],
   [
    10.352128,
    47.620105
   ],
   [
    10.351977,
    47.619936
   ],
   [
    10.351517,
    47.619483
   ],
   [
    10.351313,
    47.619341
   ],
   [
    10.351118,
    47.619219
   ],
   [
    10.350815,
    47.619074
   ],
   [
    10.350504,
    47.618966
   ],
   [
    10.350069,
    47.618857
   ],
   [
    10.349686,
    47.618775
   ],
   [
    10.349282,
    47.618687
   ],
   [
    10.348929,
    47.618563
   ],
   [
    10.348566,
    47.618388
   ],
   [
    10.348276,
    47.61824
   ],
   [
    10.347948,
    47.618104
   ],
   [
    10.347648,
    47.61801
   ],
   [
    10.347477,
    47.617969
   ],
   [
    10.347291,
    47.617942
   ],
   [
    10.346862,
    47.617899
   ],
   [
    10.34644,
    47.617861
   ],
   [
    10.346012,
    47.617817
   ],
   [
    10.345577,
    47.617701
   ],
   [
    10.345105,
    47.617486
   ],
   [
    10.344715,
    47.61727
   ],
   [
    10.34435,
    47.617095
   ],
   [
    10.343993,
    47.61699
   ],
   [
    10.343599,
    47.616924
   ],
   [
    10.343214,
    47.616883
   ],
   [
    10.34279,
    47.616827
   ],
   [
    10.342472,
    47.616734
   ],
   [
    10.342173,
    47.61662
   ],
   [
    10.341924,
    47.616498
   ],
   [
    10.341778,
    47.616437
   ],
   [
    10.341506,
    47.61635
   ],
   [
    10.341255,
    47.616289
   ],
   [
    10.340897,
    47.616217
   ],
   [
    10.340536,
    47.616125
   ],
   [
    10.340453,
    47.616087
   ],
   [
    10.3403,
    47.616017
   ],
   [
    10.340093,
    47.615884
   ],
   [
    10.339851,
    47.615655
   ],
   [
    10.339627,
    47.61542
   ],
   [
    10.339298,
    47.615183
   ],
   [
    10.338959,
    47.614943
   ],
   [
    10.338568,
    47.614675
   ],
   [
    10.338358,
    47.61453
   ],
   [
    10.338303,
    47.614493
   ],
   [
    10.338206,
    47.614444
   ],
   [
    10.33809,
    47.614411
   ],
   [
    10.337743,
    47.61435
   ],
   [
    10.337262,
    47.614265
   ],
   [
    10.337228,
    47.614259
   ],
   [
    10.337128,
    47.614242
   ],
   [
    10.336944,
    47.614211
   ],
   [
    10.336801,
    47.614173
   ],
   [
    10.336717,
    47.614125
   ],
   [
    10.336653,
    47.614056
   ],
   [
    10.33659,
    47.613948
   ],
   [
    10.33652,
    47.613798
   ],
   [
    10.336446,
    47.61361
   ],
   [
    10.336359,
    47.613416
   ],
   [
    10.336313,
    47.613301
   ],
   [
    10.336248,
    47.613135
   ],
   [
    10.336169,
    47.61299
   ],
   [
    10.336113,
    47.612899
   ],
   [
    10.336036,
    47.612773
   ],
   [
    10.335981,
    47.612684
   ],
   [
    10.33585,
    47.612565
   ],
   [
    10.33575,
    47.612489
   ],
   [
    10.335619,
    47.612416
   ],
   [
    10.335588,
    47.612403
   ],
   [
    10.335499,
    47.612363
   ],
   [
    10.335352,
    47.612294
   ],
   [
    10.335246,
    47.612249
   ],
   [
    10.335179,
    47.612206
   ],
   [
    10.335113,
    47.612093
   ],
   [
    10.335074,
    47.611958
   ],
   [
    10.335037,
    47.611774
   ],
   [
    10.335021,
    47.611628
   ],
   [
    10.335008,
    47.611414
   ],
   [
    10.335009,
    47.611289
   ],
   [
    10.335,
    47.611157
   ],
   [
    10.334956,
    47.611022
   ],
   [
    10.334872,
    47.610912
   ],
   [
    10.334804,
    47.610812
   ],
   [
    10.334651,
    47.610687
   ],
   [
    10.334521,
    47.610584
   ],
   [
    10.334379,
    47.610476
   ],
   [
    10.33433,
    47.610447
   ],
   [
    10.334258,
    47.610403
   ],
   [
    10.334043,
    47.610231
   ],
   [
    10.33392,
    47.610102
   ],
   [
    10.333855,
    47.60998
   ],
   [
    10.333842,
    47.609891
   ],
   [
    10.333825,
    47.60978
   ],
   [
    10.33383,
    47.60958
   ],
   [
    10.333831,
    47.609551
   ],
   [
    10.333833,
    47.609474
   ],
   [
    10.33381,
    47.60938
   ],
   [
    10.333757,
    47.609317
   ],
   [
    10.333621,
    47.609197
   ],
   [
    10.333472,
    47.609045
   ],
   [
    10.333352,
    47.608884
   ],
   [
    10.333234,
    47.608746
   ],
   [
    10.333115,
    47.608668
   ],
   [
    10.333022,
    47.608622
   ],
   [
    10.332838,
    47.608568
   ],
   [
    10.332545,
    47.608479
   ],
   [
    10.332459,
    47.608435
   ],
   [
    10.33241,
    47.608385
   ],
   [
    10.33238,
    47.608317
   ],
   [
    10.332384,
    47.608185
   ],
   [
    10.332432,
    47.608071
   ],
   [
    10.332512,
    47.607922
   ],
   [
    10.332707,
    47.607576
   ],
   [
    10.332758,
    47.607438
   ],
   [
    10.332769,
    47.607313
   ],
   [
    10.332736,
    47.6072
   ],
   [
    10.332661,
    47.607109
   ],
   [
    10.332488,
    47.606985
   ],
   [
    10.33232,
    47.60692
   ],
   [
    10.332181,
    47.606876
   ],
   [
    10.331914,
    47.60682
   ],
   [
    10.331544,
    47.606716
   ],
   [
    10.331336,
    47.60662
   ],
   [
    10.331035,
    47.60642
   ],
   [
    10.330543,
    47.606039
   ],
   [
    10.330309,
    47.605915
   ],
   [
    10.330062,
    47.605826
   ],
   [
    10.329689,
    47.605715
   ],
   [
    10.329523,
    47.60566
   ],
   [
    10.329325,
    47.60558
   ],
   [
    10.329114,
    47.605467
   ],
   [
    10.32873,
    47.605261
   ],
   [
    10.32837,
    47.60514
   ],
   [
    10.327933,
    47.605054
   ],
   [
    10.327636,
    47.605006
   ],
   [
    10.327466,
    47.604967
   ],
   [
    10.327191,
    47.6049
   ],
   [
    10.326983,
    47.604833
   ],
   [
    10.326702,
    47.604697
   ],
   [
    10.32651,
    47.604578
   ],
   [
    10.326374,
    47.604482
   ],
   [
    10.32621,
    47.604341
   ],
   [
    10.326088,
    47.6042
   ],
   [
    10.32587,
    47.603915
   ],
   [
    10.325684,
    47.603626
   ],
   [
    10.325462,
    47.603379
   ],
   [
    10.325393,
    47.603308
   ],
   [
    10.325099,
    47.603057
   ],
   [
    10.324879,
    47.602867
   ],
   [
    10.324649,
    47.602643
   ],
   [
    10.324478,
    47.602379
   ],
   [
    10.32428,
    47.602062
   ],
   [
    10.32414,
    47.601812
   ],
   [
    10.323947,
    47.601567
   ],
   [
    10.323813,
    47.60143
   ],
   [
    10.323746,
    47.601362
   ],
   [
    10.323547,
    47.601206
   ],
   [
    10.323367,
    47.601012
   ],
   [
    10.323291,
    47.60088
   ],
   [
    10.323251,
    47.600696
   ],
   [
    10.323182,
    47.600597
   ],
   [
    10.323041,
    47.600522
   ],
   [
    10.322785,
    47.600413
   ],
   [
    10.322575,
    47.6003
   ],
   [
    10.322434,
    47.600187
   ],
   [
    10.322227,
    47.600005
   ],
   [
    10.322207,
    47.59999
   ],
   [
    10.322033,
    47.599865
   ],
   [
    10.321764,
    47.599704
   ],
   [
    10.321558,
    47.599591
   ],
   [
    10.32136,
    47.599446
   ],
   [
    10.321322,
    47.599407
   ],
   [
    10.321261,
    47.599329
   ],
   [
    10.321156,
    47.599167
   ],
   [
    10.321081,
    47.599032
   ],
   [
    10.320984,
    47.598826
   ],
   [
    10.320906,
    47.598687
   ],
   [
    10.32081,
    47.598555
   ],
   [
    10.320701,
    47.598409
   ],
   [
    10.320567,
    47.59828
   ],
   [
    10.320435,
    47.59817
   ],
   [
    10.320092,
    47.59791
   ],
   [
    10.319931,
    47.597784
   ],
   [
    10.319868,
    47.597727
   ],
   [
    10.319767,
    47.597637
   ],
   [
    10.319671,
    47.597504
   ],
   [
    10.319638,
    47.597389
   ],
   [
    10.319639,
    47.597274
   ],
   [
    10.31966,
    47.597152
   ],
   [
    10.319714,
    47.597044
   ],
   [
    10.319791,
    47.596918
   ],
   [
    10.319857,
    47.596819
   ],
   [
    10.319979,
    47.596624
   ],
   [
    10.320151,
    47.596375
   ],
   [
    10.320423,
    47.595954
   ],
   [
    10.320534,
    47.595778
   ],
   [
    10.320588,
    47.595638
   ],
   [
    10.320607,
    47.595543
   ],
   [
    10.320587,
    47.595173
   ],
   [
    10.320615,
    47.595004
   ],
   [
    10.320661,
    47.594799
   ],
   [
    10.320709,
    47.594634
   ],
   [
    10.320744,
    47.594554
   ],
   [
    10.320802,
    47.594453
   ],
   [
    10.320827,
    47.594417
   ],
   [
    10.321014,
    47.594145
   ],
   [
    10.321086,
    47.594006
   ],
   [
    10.321204,
    47.593673
   ],
   [
    10.32147,
    47.59292
   ],
   [
    10.321646,
    47.592519
   ],
   [
    10.321964,
    47.591955
   ],
   [
    10.322152,
    47.59162
   ],
   [
    10.322773,
    47.590868
   ],
   [
    10.322855,
    47.590755
   ],
   [
    10.323283,
    47.59012
   ],
   [
    10.323472,
    47.589836
   ],
   [
    10.32362,
    47.58965
   ],
   [
    10.323805,
    47.589413
   ],
   [
    10.323881,
    47.58929
   ],
   [
    10.323926,
    47.589114
   ],
   [
    10.324006,
    47.588708
   ],
   [
    10.324129,
    47.588195
   ],
   [
    10.324202,
    47.587747
   ],
   [
    10.324244,
    47.58755
   ],
   [
    10.324451,
    47.586923
   ],
   [
    10.324526,
    47.586738
   ],
   [
    10.324611,
    47.586528
   ],
   [
    10.32472,
    47.586266
   ],
   [
    10.32483,
    47.586046
   ],
   [
    10.32492,
    47.58588
   ],
   [
    10.32497,
    47.585763
   ],
   [
    10.324952,
    47.585711
   ],
   [
    10.324921,
    47.585666
   ],
   [
    10.324576,
    47.585348
   ],
   [
    10.324529,
    47.585304
   ],
   [
    10.324504,
    47.58528
   ],
   [
    10.324417,
    47.585211
   ],
   [
    10.324549,
    47.585161
   ],
   [
    10.324629,
    47.585114
   ],
   [
    10.324654,
    47.585006
   ],
   [
    10.324652,
    47.584931
   ],
   [
    10.32471,
    47.584886
   ],
   [
    10.324771,
    47.584845
   ],
   [
    10.324821,
    47.584783
   ],
   [
    10.324882,
    47.584729
   ],
   [
    10.325267,
    47.58442
   ],
   [
    10.325696,
    47.584066
   ],
   [
    10.326161,
    47.583823
   ],
   [
    10.326411,
    47.583773
   ],
   [
    10.3267,
    47.58373
   ],
   [
    10.327044,
    47.583608
   ],
   [
    10.327473,
    47.583385
   ],
   [
    10.32775,
    47.583106
   ],
   [
    10.327748,
    47.583052
   ],
   [
    10.327728,
    47.583017
   ]
  ],
  "type": "LineString"
 },
 "properties": {
  "quelle": "OSRM router.project-osrm.org, Profil driving",
  "distanz_m": 19717.7,
  "dauer_s": 1415.9,
  "punkte": 809,
  "dienst": "D05",
  "client_ref": "m-12-4386015927",
  "abschnitt": 0
 }
}
