{
 "type": "Feature",
 "geometry": {
  "coordinates": [
   [
    10.327728,
    47.583017
   ],
   [
    10.327748,
    47.583052
   ],
   [
    10.32775,
    47.583106
   ],
   [
    10.327473,
    47.583385
   ],
   [
    10.327044,
    47.583608
   ],
   [
    10.3267,
    47.58373
   ],
   [
    10.326411,
    47.583773
   ],
   [
    10.326161,
    47.583823
   ],
   [
    10.325696,
    47.584066
   ],
   [
    10.325267,
    47.58442
   ],
   [
    10.324882,
    47.584729
   ],
   [
    10.324821,
    47.584783
   ],
   [
    10.324771,
    47.584845
   ],
   [
    10.32471,
    47.584886
   ],
   [
    10.324652,
    47.584931
   ],
   [
    10.324654,
    47.585006
   ],
   [
    10.324629,
    47.585114
   ],
   [
    10.324549,
    47.585161
   ],
   [
    10.324417,
    47.585211
   ],
   [
    10.324368,
    47.585229
   ],
   [
    10.324273,
    47.585235
   ],
   [
    10.324087,
    47.585243
   ],
   [
    10.323929,
    47.585238
   ],
   [
    10.323893,
    47.585238
   ],
   [
    10.32355,
    47.585212
   ],
   [
    10.323075,
    47.585129
   ],
   [
    10.322594,
    47.585034
   ],
   [
    10.322411,
    47.584999
   ],
   [
    10.322239,
    47.584968
   ],
   [
    10.322069,
    47.584921
   ],
   [
    10.321892,
    47.584837
   ],
   [
    10.321541,
    47.584617
   ],
   [
    10.321263,
    47.58444
   ],
   [
    10.32093,
    47.584227
   ],
   [
    10.3206,
    47.58405
   ],
   [
    10.320356,
    47.583934
   ],
   [
    10.320279,
    47.583899
   ],
   [
    10.320166,
    47.583856
   ],
   [
    10.320025,
    47.583809
   ],
   [
    10.319898,
    47.583774
   ],
   [
    10.319822,
    47.583756
   ],
   [
    10.319519,
    47.583692
   ],
   [
    10.318941,
    47.583563
   ],
   [
    10.31835,
    47.5834
   ],
   [
    10.317902,
    47.58326
   ],
   [
    10.317644,
    47.583171
   ],
   [
    10.316437,
    47.582674
   ],
   [
    10.315734,
    47.582391
   ],
   [
    10.315203,
    47.5822
   ],
   [
    10.314929,
    47.582102
   ],
   [
    10.314446,
    47.581963
   ],
   [
    10.313932,
    47.58184
   ],
   [
    10.313382,
    47.581738
   ],
   [
    10.31275,
    47.581671
   ],
   [
    10.311909,
    47.581644
   ],
   [
    10.311301,
    47.58161
   ],
   [
    10.311049,
    47.581582
   ],
   [
    10.310777,
    47.581535
   ],
   [
    10.310329,
    47.58143
   ],
   [
    10.309947,
    47.58129
   ],
   [
    10.309748,
    47.581184
   ],
   [
    10.30881,
    47.580688
   ],
   [
    10.308475,
    47.580521
   ],
   [
    10.307823,
    47.580289
   ],
   [
    10.307064,
    47.580061
   ],
   [
    10.30596,
    47.579739
   ],
   [
    10.305766,
    47.57969
   ],
   [
    10.3056,
    47.579647
   ],
   [
    10.305133,
    47.5795
   ],
   [
    10.304599,
    47.579317
   ],
   [
    10.30408,
    47.579106
   ],
   [
    10.303785,
    47.578946
   ],
   [
    10.3035,
    47.578766
   ],
   [
    10.303007,
    47.578403
   ],
   [
    10.302394,
    47.57788
   ],
   [
    10.301807,
    47.577381
   ],
   [
    10.301607,
    47.577215
   ],
   [
    10.301349,
    47.577048
   ],
   [
    10.30093,
    47.576851
   ],
   [
    10.300216,
    47.576606
   ],
   [
    10.299503,
    47.576305
   ],
   [
    10.298944,
    47.575969
   ],
   [
    10.298394,
    47.575695
   ],
   [
    10.298192,
    47.575612
   ],
   [
    10.298038,
    47.575569
   ],
   [
    10.297823,
    47.575523
   ],
   [
    10.297653,
    47.57549
   ],
   [
    10.297378,
    47.575467
   ],
   [
    10.296834,
    47.575445
   ],
   [
    10.296519,
    47.575408
   ],
   [
    10.296366,
    47.575372
   ],
   [
    10.296195,
    47.575333
   ],
   [
    10.296154,
    47.575322
   ],
   [
    10.296001,
    47.575279
   ],
   [
    10.295714,
    47.575185
   ],
   [
    10.295407,
    47.575052
   ],
   [
    10.29531,
    47.575016
   ],
   [
    10.294904,
    47.574868
   ],
   [
    10.294513,
    47.574766
   ],
   [
    10.294157,
    47.574745
   ],
   [
    10.293737,
    47.574767
   ],
   [
    10.293318,
    47.574809
   ],
   [
    10.292975,
    47.574853
   ],
   [
    10.292872,
    47.574873
   ],
   [
    10.292764,
    47.57491
   ],
   [
    10.292524,
    47.575018
   ],
   [
    10.292281,
    47.575137
   ],
   [
    10.292103,
    47.575209
   ],
   [
    10.291834,
    47.575301
   ],
   [
    10.291655,
    47.57536
   ],
   [
    10.2915,
    47.575392
   ],
   [
    10.291407,
    47.575403
   ],
   [
    10.291293,
    47.575402
   ],
   [
    10.291188,
    47.575384
   ],
   [
    10.291094,
    47.575355
   ],
   [
    10.291016,
    47.575312
   ],
   [
    10.290729,
    47.574964
   ],
   [
    10.29072,
    47.574954
   ],
   [
    10.29055,
    47.574762
   ],
   [
    10.290493,
    47.574677
   ],
   [
    10.290474,
    47.574607
   ],
   [
    10.290429,
    47.574399
   ],
   [
    10.29042,
    47.574337
   ],
   [
    10.290402,
    47.574241
   ],
   [
    10.290387,
    47.574186
   ],
   [
    10.290361,
    47.574143
   ],
   [
    10.290309,
    47.574112
   ],
   [
    10.290237,
    47.574084
   ],
   [
    10.290168,
    47.574058
   ],
   [
    10.289624,
    47.573851
   ],
   [
    10.289301,
    47.573735
   ],
   [
    10.28919,
    47.573691
   ],
   [
    10.289098,
    47.573629
   ],
   [
    10.289052,
    47.573567
   ],
   [
    10.289045,
    47.57351
   ],
   [
    10.289121,
    47.573059
   ],
   [
    10.28917,
    47.57276
   ],
   [
    10.289192,
    47.572543
   ],
   [
    10.289192,
    47.572457
   ],
   [
    10.28917,
    47.572381
   ],
   [
    10.28908,
    47.572261
   ],
   [
    10.288938,
    47.572166
   ],
   [
    10.28887,
    47.57213
   ],
   [
    10.288762,
    47.572102
   ],
   [
    10.288594,
    47.572088
   ],
   [
    10.288445,
    47.572103
   ],
   [
    10.288264,
    47.572152
   ],
   [
    10.288031,
    47.572211
   ],
   [
    10.287811,
    47.572239
   ],
   [
    10.287541,
    47.572234
   ],
   [
    10.287293,
    47.572174
   ],
   [
    10.287173,
    47.572127
   ],
   [
    10.28701,
    47.57205
   ],
   [
    10.286861,
    47.571962
   ],
   [
    10.286636,
    47.571814
   ],
   [
    10.286518,
    47.571711
   ],
   [
    10.286371,
    47.571566
   ],
   [
    10.28623,
    47.571401
   ],
   [
    10.286139,
    47.571229
   ],
   [
    10.286052,
    47.571052
   ],
   [
    10.286,
    47.570803
   ],
   [
    10.285979,
    47.570361
   ],
   [
    10.285994,
    47.569412
   ],
   [
    10.28598,
    47.568812
   ],
   [
    10.285934,
    47.568535
   ],
   [
    10.285835,
    47.568229
   ],
   [
    10.285718,
    47.568
   ],
   [
    10.285558,
    47.567763
   ],
   [
    10.285168,
    47.56738
   ],
   [
    10.284917,
    47.567212
   ],
   [
    10.284656,
    47.567056
   ],
   [
    10.283993,
    47.566777
   ],
   [
    10.283874,
    47.566726
   ],
   [
    10.283703,
    47.566661
   ],
   [
    10.28346,
    47.566569
   ],
   [
    10.28309,
    47.566429
   ],
   [
    10.282654,
    47.566239
   ],
   [
    10.2822,
    47.565992
   ],
   [
    10.2817,
    47.565672
   ],
   [
    10.281238,
    47.565328
   ],
   [
    10.281057,
    47.565168
   ],
   [
    10.280688,
    47.564839
   ],
   [
    10.280214,
    47.564354
   ],
   [
    10.280041,
    47.564172
   ],
   [
    10.279108,
    47.563189
   ],
   [
    10.278172,
    47.562161
   ],
   [
    10.277167,
    47.560995
   ],
   [
    10.276972,
    47.560759
   ],
   [
    10.276873,
    47.560658
   ],
   [
    10.276743,
    47.560559
   ],
   [
    10.276675,
    47.560499
   ],
   [
    10.27664,
    47.560477
   ],
   [
    10.276569,
    47.560483
   ],
   [
    10.276499,
    47.560476
   ],
   [
    10.276447,
    47.560462
   ],
   [
    10.276401,
    47.56044
   ],
   [
    10.276363,
    47.560413
   ],
   [
    10.276328,
    47.560374
   ],
   [
    10.27631,
    47.56033
   ],
   [
    10.276309,
    47.560284
   ],
   [
    10.276235,
    47.560208
   ],
   [
    10.276104,
    47.560131
   ],
   [
    10.275804,
    47.560067
   ],
   [
    10.275663,
    47.560049
   ],
   [
    10.275309,
    47.560002
   ],
   [
    10.274822,
    47.559975
   ],
   [
    10.27382,
    47.559918
   ],
   [
    10.269304,
    47.559684
   ],
   [
    10.263419,
    47.559361
   ],
   [
    10.26138,
    47.559216
   ],
   [
    10.260586,
    47.55915
   ],
   [
    10.260415,
    47.559138
   ],
   [
    10.259608,
    47.559077
   ],
   [
    10.258318,
    47.558989
   ],
   [
    10.255298,
    47.558779
   ],
   [
    10.254668,
    47.558737
   ],
   [
    10.253874,
    47.558678
   ],
   [
    10.253225,
    47.558639
   ],
   [
    10.252863,
    47.558611
   ],
   [
    10.252248,
    47.558551
   ],
   [
    10.251648,
    47.558473
   ],
   [
    10.251295,
    47.55841
   ],
   [
    10.250548,
    47.558222
   ],
   [
    10.250242,
    47.558128
   ],
   [
    10.250129,
    47.558088
   ],
   [
    10.249917,
    47.558015
   ],
   [
    10.249726,
    47.557928
   ],
   [
    10.249448,
    47.557791
   ],
   [
    10.249355,
    47.557736
   ],
   [
    10.249222,
    47.557654
   ],
   [
    10.2489,
    47.55743
   ],
   [
    10.248722,
    47.55729
   ],
   [
    10.248457,
    47.557038
   ],
   [
    10.248345,
    47.556949
   ],
   [
    10.248254,
    47.556845
   ],
   [
    10.24818,
    47.556788
   ],
   [
    10.248149,
    47.556759
   ],
   [
    10.248108,
    47.55676
   ],
   [
    10.248069,
    47.556756
   ],
   [
    10.248031,
    47.556747
   ],
   [
    10.247996,
    47.556734
   ],
   [
    10.247965,
    47.556717
   ],
   [
    10.247939,
    47.556696
   ],
   [
    10.247906,
    47.556652
   ],
   [
    10.247897,
    47.556602
   ],
   [
    10.247911,
    47.556554
   ],
   [
    10.247931,
    47.556526
   ],
   [
    10.247959,
    47.556502
   ],
   [
    10.247909,
    47.556375
   ],
   [
    10.2479,
    47.556311
   ],
   [
    10.247763,
    47.556149
   ],
   [
    10.247516,
    47.555843
   ],
   [
    10.247065,
    47.555453
   ],
   [
    10.246569,
    47.555161
   ],
   [
    10.246154,
    47.554965
   ],
   [
    10.245591,
    47.554764
   ],
   [
    10.245357,
    47.554689
   ],
   [
    10.245159,
    47.554646
   ],
   [
    10.244733,
    47.554562
   ],
   [
    10.244342,
    47.554516
   ],
   [
    10.244029,
    47.554489
   ],
   [
    10.243719,
    47.554477
   ],
   [
    10.243246,
    47.554492
   ],
   [
    10.242759,
    47.554534
   ],
   [
    10.242167,
    47.554644
   ],
   [
    10.24166,
    47.554771
   ],
   [
    10.241068,
    47.554968
   ],
   [
    10.240465,
    47.555191
   ],
   [
    10.23975,
    47.55546
   ],
   [
    10.239,
    47.555714
   ],
   [
    10.238837,
    47.55576
   ],
   [
    10.238411,
    47.55586
   ],
   [
    10.237802,
    47.555972
   ],
   [
    10.237261,
    47.556031
   ],
   [
    10.236683,
    47.556061
   ],
   [
    10.236346,
    47.556058
   ],
   [
    10.236209,
    47.556054
   ],
   [
    10.235872,
    47.556034
   ],
   [
    10.235302,
    47.555978
   ],
   [
    10.234898,
    47.555909
   ],
   [
    10.234572,
    47.555836
   ],
   [
    10.234276,
    47.555754
   ],
   [
    10.234231,
    47.555742
   ],
   [
    10.233862,
    47.55559
   ],
   [
    10.23273,
    47.555037
   ],
   [
    10.232705,
    47.555025
   ],
   [
    10.232486,
    47.55492
   ],
   [
    10.232008,
    47.554701
   ],
   [
    10.231875,
    47.554664
   ],
   [
    10.231794,
    47.554636
   ],
   [
    10.231741,
    47.554615
   ],
   [
    10.231709,
    47.554625
   ],
   [
    10.23167,
    47.554631
   ],
   [
    10.231634,
    47.55463
   ],
   [
    10.231603,
    47.554626
   ],
   [
    10.231479,
    47.554678
   ],
   [
    10.231334,
    47.554728
   ],
   [
    10.231269,
    47.554762
   ],
   [
    10.231072,
    47.554867
   ],
   [
    10.231,
    47.554909
   ],
   [
    10.230903,
    47.554965
   ],
   [
    10.230524,
    47.555215
   ],
   [
    10.230442,
    47.555273
   ],
   [
    10.230368,
    47.555328
   ],
   [
    10.230073,
    47.555532
   ],
   [
    10.229732,
    47.555772
   ],
   [
    10.229701,
    47.555794
   ],
   [
    10.229512,
    47.555919
   ],
   [
    10.229403,
    47.555993
   ],
   [
    10.228912,
    47.556328
   ],
   [
    10.228418,
    47.556546
   ],
   [
    10.227575,
    47.556861
   ],
   [
    10.227537,
    47.556876
   ],
   [
    10.226603,
    47.557164
   ],
   [
    10.226525,
    47.557189
   ],
   [
    10.225917,
    47.557378
   ],
   [
    10.225752,
    47.557431
   ],
   [
    10.225654,
    47.55746
   ],
   [
    10.225597,
    47.557477
   ],
   [
    10.225125,
    47.557628
   ],
   [
    10.224871,
    47.557665
   ],
   [
    10.224664,
    47.557692
   ],
   [
    10.224388,
    47.557684
   ],
   [
    10.223872,
    47.557683
   ],
   [
    10.223542,
    47.557709
   ],
   [
    10.223285,
    47.557756
   ],
   [
    10.222995,
    47.557822
   ],
   [
    10.222924,
    47.557843
   ],
   [
    10.222722,
    47.557916
   ],
   [
    10.222657,
    47.557943
   ],
   [
    10.222422,
    47.558054
   ],
   [
    10.221886,
    47.558249
   ],
   [
    10.221808,
    47.558271
   ],
   [
    10.221578,
    47.558328
   ],
   [
    10.221377,
    47.558358
   ],
   [
    10.221077,
    47.558371
   ],
   [
    10.220919,
    47.55837
   ],
   [
    10.220484,
    47.558343
   ],
   [
    10.220125,
    47.558337
   ],
   [
    10.219758,
    47.558347
   ],
   [
    10.219216,
    47.558409
   ],
   [
    10.218799,
    47.558471
   ],
   [
    10.218583,
    47.558511
   ],
   [
    10.218295,
    47.55855
   ],
   [
    10.218001,
    47.558597
   ],
   [
    10.217334,
    47.558696
   ],
   [
    10.217199,
    47.558711
   ],
   [
    10.216604,
    47.558809
   ],
   [
    10.216706,
    47.558915
   ],
   [
    10.216946,
    47.55887
   ]
  ],
  "type": "LineString"
 },
 "properties": {
  "quelle": "OSRM router.project-osrm.org, Profil driving",
  "distanz_m": 10392.6,
  "dauer_s": 736.1,
  "punkte": 350,
  "dienst": "D05",
  "client_ref": "m-12-4386015927",
  "abschnitt": 1
 }
}
