{
 "type": "Feature",
 "geometry": {
  "coordinates": [
   [
    10.321901,
    47.718014
   ],
   [
    10.32204,
    47.718454
   ],
   [
    10.321796,
    47.718479
   ],
   [
    10.321632,
    47.718459
   ],
   [
    10.321418,
    47.718432
   ],
   [
    10.321525,
    47.718079
   ],
   [
    10.321563,
    47.717818
   ],
   [
    10.321573,
    47.717731
   ],
   [
    10.321581,
    47.717271
   ],
   [
    10.321557,
    47.716901
   ],
   [
    10.321539,
    47.716785
   ],
   [
    10.321506,
    47.716723
   ],
   [
    10.321443,
    47.716649
   ],
   [
    10.321393,
    47.716606
   ],
   [
    10.32129,
    47.71658
   ],
   [
    10.321138,
    47.716557
   ],
   [
    10.321036,
    47.716544
   ],
   [
    10.320809,
    47.716511
   ],
   [
    10.320625,
    47.716487
   ],
   [
    10.320523,
    47.716475
   ],
   [
    10.320191,
    47.71644
   ],
   [
    10.320031,
    47.716382
   ],
   [
    10.320132,
    47.716258
   ],
   [
    10.320243,
    47.716108
   ],
   [
    10.320292,
    47.716042
   ],
   [
    10.32025,
    47.715899
   ],
   [
    10.320235,
    47.715813
   ],
   [
    10.320184,
    47.715737
   ],
   [
    10.320158,
    47.715723
   ],
   [
    10.320037,
    47.715704
   ],
   [
    10.319665,
    47.715777
   ],
   [
    10.318995,
    47.715891
   ],
   [
    10.318735,
    47.715917
   ],
   [
    10.318629,
    47.715928
   ],
   [
    10.318269,
    47.715938
   ],
   [
    10.317771,
    47.715918
   ],
   [
    10.317707,
    47.715916
   ],
   [
    10.317514,
    47.715898
   ],
   [
    10.317143,
    47.715851
   ],
   [
    10.316698,
    47.71576
   ],
   [
    10.316119,
    47.715583
   ],
   [
    10.315907,
    47.715508
   ],
   [
    10.31554,
    47.715403
   ],
   [
    10.315125,
    47.715306
   ],
   [
    10.315069,
    47.715294
   ],
   [
    10.314954,
    47.715266
   ],
   [
    10.314867,
    47.715224
   ],
   [
    10.314757,
    47.715136
   ],
   [
    10.314706,
    47.715027
   ],
   [
    10.314663,
    47.71486
   ],
   [
    10.314728,
    47.714597
   ],
   [
    10.314854,
    47.714108
   ],
   [
    10.31487,
    47.714022
   ],
   [
    10.314956,
    47.713567
   ],
   [
    10.314976,
    47.713322
   ],
   [
    10.314992,
    47.713102
   ],
   [
    10.314977,
    47.712926
   ],
   [
    10.314934,
    47.71271
   ],
   [
    10.314843,
    47.712389
   ],
   [
    10.31479,
    47.712248
   ],
   [
    10.314659,
    47.711967
   ],
   [
    10.314503,
    47.711704
   ],
   [
    10.314387,
    47.71151
   ],
   [
    10.31429,
    47.711374
   ],
   [
    10.314207,
    47.711255
   ],
   [
    10.314107,
    47.711124
   ],
   [
    10.314003,
    47.710998
   ],
   [
    10.313904,
    47.710875
   ],
   [
    10.313841,
    47.710797
   ],
   [
    10.313793,
    47.710747
   ],
   [
    10.313615,
    47.710566
   ],
   [
    10.313356,
    47.710336
   ],
   [
    10.313226,
    47.710215
   ],
   [
    10.313107,
    47.710105
   ],
   [
    10.312827,
    47.709822
   ],
   [
    10.312548,
    47.709541
   ],
   [
    10.312429,
    47.7094
   ],
   [
    10.312005,
    47.708931
   ],
   [
    10.311857,
    47.708744
   ],
   [
    10.311767,
    47.708616
   ],
   [
    10.311686,
    47.708482
   ],
   [
    10.311654,
    47.708429
   ],
   [
    10.311623,
    47.70834
   ],
   [
    10.311569,
    47.708166
   ],
   [
    10.311538,
    47.707989
   ],
   [
    10.311513,
    47.707643
   ],
   [
    10.311541,
    47.707435
   ],
   [
    10.311564,
    47.707273
   ],
   [
    10.311609,
    47.707071
   ],
   [
    10.311665,
    47.706822
   ],
   [
    10.311724,
    47.706661
   ],
   [
    10.311774,
    47.706528
   ],
   [
    10.311909,
    47.706283
   ],
   [
    10.312007,
    47.706103
   ],
   [
    10.312063,
    47.706005
   ],
   [
    10.312234,
    47.705705
   ],
   [
    10.31244,
    47.705328
   ],
   [
    10.312594,
    47.704919
   ],
   [
    10.312746,
    47.704504
   ],
   [
    10.312779,
    47.704391
   ],
   [
    10.312806,
    47.704272
   ],
   [
    10.312825,
    47.704173
   ],
   [
    10.312865,
    47.703925
   ],
   [
    10.31291,
    47.703571
   ],
   [
    10.312927,
    47.703185
   ],
   [
    10.312919,
    47.702868
   ],
   [
    10.31292,
    47.702842
   ],
   [
    10.312917,
    47.702668
   ],
   [
    10.312914,
    47.702531
   ],
   [
    10.312902,
    47.702205
   ],
   [
    10.312888,
    47.701961
   ],
   [
    10.312885,
    47.701747
   ],
   [
    10.312881,
    47.701429
   ],
   [
    10.312889,
    47.701115
   ],
   [
    10.312909,
    47.700788
   ],
   [
    10.312984,
    47.700105
   ],
   [
    10.313091,
    47.699228
   ],
   [
    10.313135,
    47.698814
   ],
   [
    10.313154,
    47.698511
   ],
   [
    10.313148,
    47.698261
   ],
   [
    10.313124,
    47.698044
   ],
   [
    10.313102,
    47.697929
   ],
   [
    10.31307,
    47.697801
   ],
   [
    10.313002,
    47.697631
   ],
   [
    10.312945,
    47.697509
   ],
   [
    10.312919,
    47.697454
   ],
   [
    10.312786,
    47.697222
   ],
   [
    10.312683,
    47.697044
   ],
   [
    10.312571,
    47.69683
   ],
   [
    10.312449,
    47.696596
   ],
   [
    10.312387,
    47.696468
   ],
   [
    10.312343,
    47.696338
   ],
   [
    10.312306,
    47.696178
   ],
   [
    10.312293,
    47.696022
   ],
   [
    10.312277,
    47.69587
   ],
   [
    10.312266,
    47.695019
   ],
   [
    10.31221,
    47.694564
   ],
   [
    10.312097,
    47.69425
   ],
   [
    10.311548,
    47.693385
   ],
   [
    10.311518,
    47.69333
   ],
   [
    10.311396,
    47.693128
   ],
   [
    10.311346,
    47.693048
   ],
   [
    10.31129,
    47.692955
   ],
   [
    10.310892,
    47.692191
   ],
   [
    10.310771,
    47.691936
   ],
   [
    10.310598,
    47.691322
   ],
   [
    10.310587,
    47.691133
   ],
   [
    10.310578,
    47.690915
   ],
   [
    10.310599,
    47.690433
   ],
   [
    10.310708,
    47.689624
   ],
   [
    10.310718,
    47.689347
   ],
   [
    10.310693,
    47.689122
   ],
   [
    10.310581,
    47.688701
   ],
   [
    10.31035,
    47.68818
   ],
   [
    10.31007,
    47.687672
   ],
   [
    10.309838,
    47.687336
   ],
   [
    10.309786,
    47.687267
   ],
   [
    10.309704,
    47.687153
   ],
   [
    10.309419,
    47.686771
   ],
   [
    10.309364,
    47.686698
   ],
   [
    10.309311,
    47.686629
   ],
   [
    10.309236,
    47.686528
   ],
   [
    10.309216,
    47.686501
   ],
   [
    10.309113,
    47.686363
   ],
   [
    10.308979,
    47.686197
   ],
   [
    10.308734,
    47.685803
   ],
   [
    10.308639,
    47.685648
   ],
   [
    10.308405,
    47.685268
   ],
   [
    10.308224,
    47.685033
   ],
   [
    10.30807,
    47.684842
   ],
   [
    10.307859,
    47.684619
   ],
   [
    10.307784,
    47.68454
   ],
   [
    10.307708,
    47.684474
   ],
   [
    10.307684,
    47.684453
   ],
   [
    10.307472,
    47.684269
   ],
   [
    10.307338,
    47.684178
   ],
   [
    10.306519,
    47.683603
   ],
   [
    10.306312,
    47.683404
   ],
   [
    10.306088,
    47.683182
   ],
   [
    10.305928,
    47.683
   ],
   [
    10.30582,
    47.682824
   ],
   [
    10.305462,
    47.682056
   ],
   [
    10.305403,
    47.681925
   ],
   [
    10.3053,
    47.68166
   ],
   [
    10.305269,
    47.681581
   ],
   [
    10.305232,
    47.681488
   ],
   [
    10.305195,
    47.681409
   ],
   [
    10.305142,
    47.681279
   ],
   [
    10.305081,
    47.681133
   ],
   [
    10.304985,
    47.680911
   ],
   [
    10.304882,
    47.68065
   ],
   [
    10.30482,
    47.680464
   ],
   [
    10.304763,
    47.680276
   ],
   [
    10.304731,
    47.680177
   ],
   [
    10.304659,
    47.679966
   ],
   [
    10.304542,
    47.679614
   ],
   [
    10.304438,
    47.679474
   ],
   [
    10.304278,
    47.679033
   ],
   [
    10.304267,
    47.679004
   ],
   [
    10.304227,
    47.678903
   ],
   [
    10.30415,
    47.678704
   ],
   [
    10.304087,
    47.678575
   ],
   [
    10.303859,
    47.678185
   ],
   [
    10.303757,
    47.678052
   ],
   [
    10.303625,
    47.677892
   ],
   [
    10.303387,
    47.677658
   ],
   [
    10.302626,
    47.676979
   ],
   [
    10.302421,
    47.67676
   ],
   [
    10.302183,
    47.676453
   ],
   [
    10.302014,
    47.676168
   ],
   [
    10.301868,
    47.675859
   ],
   [
    10.301763,
    47.67556
   ],
   [
    10.301701,
    47.675284
   ],
   [
    10.301531,
    47.674324
   ],
   [
    10.301487,
    47.674117
   ],
   [
    10.301411,
    47.673846
   ],
   [
    10.301332,
    47.673641
   ],
   [
    10.301213,
    47.673391
   ],
   [
    10.301049,
    47.67311
   ],
   [
    10.300877,
    47.672864
   ],
   [
    10.300694,
    47.672648
   ],
   [
    10.300439,
    47.672387
   ],
   [
    10.300064,
    47.672074
   ],
   [
    10.299713,
    47.671801
   ],
   [
    10.299137,
    47.671293
   ],
   [
    10.298813,
    47.67095
   ],
   [
    10.298536,
    47.670564
   ],
   [
    10.298322,
    47.670224
   ],
   [
    10.29808,
    47.669664
   ],
   [
    10.297996,
    47.669353
   ],
   [
    10.29796,
    47.669101
   ],
   [
    10.297951,
    47.668669
   ],
   [
    10.297969,
    47.66837
   ],
   [
    10.298038,
    47.668006
   ],
   [
    10.298119,
    47.667728
   ],
   [
    10.298284,
    47.667311
   ],
   [
    10.298532,
    47.666765
   ],
   [
    10.298974,
    47.665698
   ],
   [
    10.299094,
    47.665202
   ],
   [
    10.299153,
    47.664801
   ],
   [
    10.299144,
    47.664153
   ],
   [
    10.299095,
    47.663789
   ],
   [
    10.299003,
    47.663298
   ],
   [
    10.29877,
    47.6624
   ],
   [
    10.298628,
    47.661799
   ],
   [
    10.298557,
    47.661359
   ],
   [
    10.298514,
    47.660742
   ],
   [
    10.298519,
    47.659936
   ],
   [
    10.298522,
    47.659734
   ],
   [
    10.298523,
    47.659656
   ],
   [
    10.298525,
    47.659378
   ],
   [
    10.298528,
    47.659147
   ],
   [
    10.298507,
    47.658675
   ],
   [
    10.298498,
    47.658591
   ],
   [
    10.298447,
    47.658235
   ],
   [
    10.298383,
    47.657899
   ],
   [
    10.298232,
    47.657381
   ],
   [
    10.298039,
    47.656861
   ],
   [
    10.297948,
    47.656673
   ],
   [
    10.297894,
    47.656565
   ],
   [
    10.297741,
    47.65628
   ],
   [
    10.297565,
    47.65599
   ],
   [
    10.297194,
    47.655441
   ],
   [
    10.296586,
    47.654626
   ],
   [
    10.296253,
    47.654094
   ],
   [
    10.296063,
    47.65368
   ],
   [
    10.295917,
    47.653253
   ],
   [
    10.295831,
    47.652747
   ],
   [
    10.295798,
    47.65219
   ],
   [
    10.295876,
    47.650648
   ],
   [
    10.295835,
    47.650128
   ],
   [
    10.295736,
    47.649697
   ],
   [
    10.295657,
    47.64947
   ],
   [
    10.295568,
    47.649228
   ],
   [
    10.295384,
    47.648847
   ],
   [
    10.295107,
    47.648408
   ],
   [
    10.294807,
    47.648032
   ],
   [
    10.294689,
    47.647899
   ],
   [
    10.294461,
    47.647663
   ],
   [
    10.294285,
    47.647478
   ],
   [
    10.294029,
    47.647242
   ],
   [
    10.293795,
    47.647046
   ],
   [
    10.293457,
    47.646775
   ],
   [
    10.292691,
    47.64623
   ],
   [
    10.292385,
    47.646014
   ],
   [
    10.291872,
    47.645668
   ],
   [
    10.291063,
    47.645137
   ],
   [
    10.2903,
    47.644617
   ],
   [
    10.289746,
    47.644205
   ],
   [
    10.289683,
    47.644158
   ],
   [
    10.289221,
    47.643795
   ],
   [
    10.288943,
    47.643538
   ],
   [
    10.288389,
    47.642976
   ],
   [
    10.287952,
    47.642424
   ],
   [
    10.287764,
    47.642158
   ],
   [
    10.287605,
    47.641899
   ],
   [
    10.287481,
    47.64167
   ],
   [
    10.287312,
    47.641348
   ],
   [
    10.28718,
    47.64105
   ],
   [
    10.287064,
    47.640724
   ],
   [
    10.286953,
    47.640346
   ],
   [
    10.28689,
    47.640081
   ],
   [
    10.286798,
    47.639578
   ],
   [
    10.286707,
    47.639117
   ],
   [
    10.286597,
    47.638671
   ],
   [
    10.286517,
    47.638431
   ],
   [
    10.286418,
    47.638203
   ],
   [
    10.286318,
    47.638004
   ],
   [
    10.286174,
    47.637744
   ],
   [
    10.286024,
    47.637524
   ],
   [
    10.285876,
    47.637306
   ],
   [
    10.285679,
    47.637063
   ],
   [
    10.28546,
    47.636824
   ],
   [
    10.285276,
    47.636644
   ],
   [
    10.28429,
    47.635726
   ],
   [
    10.283629,
    47.635144
   ],
   [
    10.283112,
    47.634659
   ],
   [
    10.282736,
    47.634285
   ],
   [
    10.282349,
    47.633823
   ],
   [
    10.282147,
    47.633565
   ],
   [
    10.281898,
    47.633215
   ],
   [
    10.281317,
    47.63229
   ],
   [
    10.281268,
    47.632209
   ],
   [
    10.281121,
    47.63197
   ],
   [
    10.280721,
    47.631348
   ],
   [
    10.280182,
    47.630475
   ],
   [
    10.279612,
    47.62953
   ],
   [
    10.279432,
    47.629248
   ],
   [
    10.279053,
    47.628654
   ],
   [
    10.278579,
    47.627823
   ],
   [
    10.2783,
    47.627299
   ],
   [
    10.278096,
    47.626887
   ],
   [
    10.277687,
    47.626036
   ],
   [
    10.277412,
    47.625371
   ],
   [
    10.277211,
    47.624852
   ],
   [
    10.277017,
    47.624299
   ],
   [
    10.276763,
    47.623496
   ],
   [
    10.276565,
    47.622777
   ],
   [
    10.276452,
    47.622307
   ],
   [
    10.276342,
    47.621786
   ],
   [
    10.276182,
    47.62084
   ],
   [
    10.276054,
    47.619838
   ],
   [
    10.275914,
    47.618593
   ],
   [
    10.275864,
    47.618112
   ],
   [
    10.275784,
    47.617524
   ],
   [
    10.275656,
    47.616787
   ],
   [
    10.275394,
    47.615783
   ],
   [
    10.275261,
    47.61535
   ],
   [
    10.275113,
    47.614918
   ],
   [
    10.274857,
    47.614244
   ],
   [
    10.274684,
    47.613788
   ],
   [
    10.274331,
    47.612825
   ],
   [
    10.2741,
    47.612087
   ],
   [
    10.273999,
    47.611691
   ],
   [
    10.273884,
    47.611131
   ],
   [
    10.273838,
    47.610841
   ],
   [
    10.273814,
    47.610682
   ],
   [
    10.273761,
    47.610193
   ],
   [
    10.273678,
    47.609309
   ],
   [
    10.27361,
    47.608574
   ],
   [
    10.273566,
    47.608046
   ],
   [
    10.273522,
    47.607463
   ],
   [
    10.273498,
    47.607238
   ],
   [
    10.273346,
    47.605993
   ],
   [
    10.273215,
    47.605351
   ],
   [
    10.273114,
    47.604932
   ],
   [
    10.27301,
    47.604543
   ],
   [
    10.272888,
    47.604151
   ],
   [
    10.27271,
    47.603692
   ],
   [
    10.272431,
    47.603079
   ],
   [
    10.27211,
    47.602463
   ],
   [
    10.271872,
    47.602053
   ],
   [
    10.271649,
    47.601718
   ],
   [
    10.271436,
    47.60142
   ],
   [
    10.271227,
    47.601117
   ],
   [
    10.270967,
    47.600788
   ],
   [
    10.27052,
    47.600258
   ],
   [
    10.270139,
    47.59986
   ],
   [
    10.269821,
    47.599548
   ],
   [
    10.269448,
    47.599188
   ],
   [
    10.269023,
    47.598818
   ],
   [
    10.268612,
    47.598488
   ],
   [
    10.267717,
    47.597834
   ],
   [
    10.267204,
    47.597482
   ],
   [
    10.266176,
    47.596814
   ],
   [
    10.265851,
    47.596614
   ],
   [
    10.265419,
    47.596328
   ],
   [
    10.264859,
    47.595941
   ],
   [
    10.264708,
    47.59583
   ],
   [
    10.264391,
    47.595592
   ],
   [
    10.263985,
    47.595273
   ],
   [
    10.263586,
    47.59494
   ],
   [
    10.263207,
    47.594594
   ],
   [
    10.262771,
    47.594168
   ],
   [
    10.262421,
    47.593806
   ],
   [
    10.261993,
    47.593357
   ],
   [
    10.261544,
    47.592868
   ],
   [
    10.260559,
    47.591819
   ],
   [
    10.259277,
    47.59045
   ],
   [
    10.258284,
    47.589386
   ],
   [
    10.257027,
    47.588044
   ],
   [
    10.252427,
    47.583113
   ],
   [
    10.251845,
    47.582478
   ],
   [
    10.251264,
    47.581838
   ],
   [
    10.250955,
    47.581452
   ],
   [
    10.250855,
    47.581332
   ],
   [
    10.250604,
    47.580955
   ],
   [
    10.250426,
    47.580672
   ],
   [
    10.250233,
    47.580327
   ],
   [
    10.250088,
    47.580026
   ],
   [
    10.249929,
    47.579625
   ],
   [
    10.249823,
    47.579288
   ],
   [
    10.249746,
    47.578969
   ],
   [
    10.249681,
    47.578582
   ],
   [
    10.249662,
    47.578174
   ],
   [
    10.249671,
    47.577738
   ],
   [
    10.249703,
    47.577309
   ],
   [
    10.249755,
    47.576831
   ],
   [
    10.249809,
    47.576193
   ],
   [
    10.249803,
    47.575839
   ],
   [
    10.249783,
    47.57556
   ],
   [
    10.249736,
    47.575282
   ],
   [
    10.249668,
    47.575002
   ],
   [
    10.24957,
    47.574697
   ],
   [
    10.249447,
    47.574402
   ],
   [
    10.249319,
    47.574146
   ],
   [
    10.249085,
    47.573772
   ],
   [
    10.248806,
    47.573387
   ],
   [
    10.248448,
    47.573004
   ],
   [
    10.248076,
    47.572656
   ],
   [
    10.247996,
    47.572593
   ],
   [
    10.247685,
    47.57235
   ],
   [
    10.247244,
    47.572052
   ],
   [
    10.246963,
    47.57189
   ],
   [
    10.246736,
    47.571828
   ],
   [
    10.246049,
    47.571596
   ],
   [
    10.245387,
    47.571384
   ],
   [
    10.244643,
    47.571155
   ],
   [
    10.24371,
    47.570853
   ],
   [
    10.243656,
    47.570831
   ],
   [
    10.243377,
    47.571039
   ],
   [
    10.24307,
    47.571255
   ],
   [
    10.242328,
    47.571666
   ],
   [
    10.241639,
    47.571952
   ],
   [
    10.241185,
    47.57211
   ],
   [
    10.240123,
    47.572334
   ],
   [
    10.23967,
    47.572402
   ],
   [
    10.239172,
    47.572449
   ],
   [
    10.237936,
    47.572501
   ],
   [
    10.237714,
    47.572556
   ],
   [
    10.23737,
    47.572646
   ],
   [
    10.237314,
    47.572669
   ],
   [
    10.237311,
    47.572705
   ],
   [
    10.2373,
    47.572739
   ],
   [
    10.237281,
    47.572773
   ],
   [
    10.237256,
    47.572804
   ],
   [
    10.237223,
    47.572832
   ],
   [
    10.237184,
    47.572857
   ],
   [
    10.23714,
    47.572878
   ],
   [
    10.237092,
    47.572894
   ],
   [
    10.237041,
    47.572905
   ],
   [
    10.236959,
    47.572911
   ],
   [
    10.236878,
    47.572905
   ],
   [
    10.236801,
    47.572885
   ],
   [
    10.236732,
    47.572855
   ],
   [
    10.236676,
    47.572815
   ],
   [
    10.236635,
    47.572766
   ],
   [
    10.236611,
    47.572713
   ],
   [
    10.236606,
    47.572669
   ],
   [
    10.236613,
    47.572625
   ],
   [
    10.236632,
    47.572582
   ],
   [
    10.236662,
    47.572543
   ],
   [
    10.236695,
    47.572514
   ],
   [
    10.236734,
    47.572488
   ],
   [
    10.236779,
    47.572467
   ],
   [
    10.236811,
    47.572395
   ],
   [
    10.236817,
    47.572359
   ],
   [
    10.236812,
    47.572321
   ],
   [
    10.236758,
    47.57219
   ],
   [
    10.236714,
    47.572097
   ],
   [
    10.236616,
    47.571902
   ],
   [
    10.236505,
    47.571785
   ],
   [
    10.236166,
    47.571447
   ],
   [
    10.235937,
    47.571221
   ],
   [
    10.235671,
    47.570975
   ],
   [
    10.235565,
    47.570866
   ],
   [
    10.235259,
    47.570564
   ],
   [
    10.235157,
    47.570464
   ],
   [
    10.235099,
    47.570408
   ],
   [
    10.234973,
    47.570281
   ],
   [
    10.234769,
    47.570062
   ],
   [
    10.234646,
    47.569938
   ],
   [
    10.234346,
    47.569633
   ],
   [
    10.234222,
    47.569528
   ],
   [
    10.234187,
    47.569498
   ],
   [
    10.233923,
    47.569263
   ],
   [
    10.233714,
    47.569107
   ],
   [
    10.232997,
    47.568641
   ],
   [
    10.232723,
    47.568439
   ],
   [
    10.232551,
    47.568308
   ],
   [
    10.232342,
    47.568149
   ],
   [
    10.231968,
    47.567819
   ],
   [
    10.231787,
    47.567648
   ],
   [
    10.231023,
    47.566933
   ],
   [
    10.230423,
    47.566337
   ],
   [
    10.229696,
    47.565652
   ],
   [
    10.229484,
    47.565457
   ],
   [
    10.229306,
    47.565299
   ],
   [
    10.22906,
    47.565114
   ],
   [
    10.228773,
    47.564903
   ],
   [
    10.228499,
    47.564734
   ],
   [
    10.228275,
    47.564601
   ],
   [
    10.228227,
    47.564573
   ],
   [
    10.22782,
    47.564373
   ],
   [
    10.22741,
    47.564142
   ],
   [
    10.227011,
    47.563864
   ],
   [
    10.226919,
    47.563794
   ],
   [
    10.226833,
    47.563716
   ],
   [
    10.226718,
    47.563601
   ],
   [
    10.226607,
    47.563486
   ],
   [
    10.226418,
    47.563261
   ],
   [
    10.226397,
    47.563235
   ],
   [
    10.226167,
    47.562923
   ],
   [
    10.22613,
    47.562872
   ],
   [
    10.226075,
    47.562799
   ],
   [
    10.226061,
    47.562779
   ],
   [
    10.225833,
    47.562507
   ],
   [
    10.225694,
    47.562332
   ],
   [
    10.225594,
    47.562258
   ],
   [
    10.225573,
    47.562269
   ],
   [
    10.22555,
    47.562276
   ],
   [
    10.225525,
    47.56228
   ],
   [
    10.2255,
    47.562281
   ],
   [
    10.225474,
    47.562278
   ],
   [
    10.225451,
    47.562272
   ],
   [
    10.225429,
    47.562263
   ],
   [
    10.225411,
    47.56225
   ],
   [
    10.225397,
    47.562236
   ],
   [
    10.225387,
    47.56222
   ],
   [
    10.225382,
    47.562203
   ],
   [
    10.225383,
    47.562186
   ],
   [
    10.225389,
    47.562169
   ],
   [
    10.2254,
    47.562153
   ],
   [
    10.225415,
    47.562139
   ],
   [
    10.225435,
    47.562128
   ],
   [
    10.224438,
    47.561557
   ],
   [
    10.224161,
    47.561437
   ],
   [
    10.224016,
    47.56139
   ],
   [
    10.223718,
    47.561308
   ],
   [
    10.223598,
    47.561284
   ],
   [
    10.223472,
    47.561258
   ],
   [
    10.223372,
    47.56124
   ],
   [
    10.223089,
    47.561215
   ],
   [
    10.222637,
    47.56116
   ],
   [
    10.221807,
    47.561059
   ],
   [
    10.221473,
    47.561025
   ],
   [
    10.221355,
    47.561014
   ],
   [
    10.221346,
    47.561032
   ],
   [
    10.221331,
    47.561049
   ],
   [
    10.221311,
    47.561063
   ],
   [
    10.221286,
    47.561073
   ],
   [
    10.221258,
    47.561079
   ],
   [
    10.221229,
    47.561081
   ],
   [
    10.221201,
    47.561078
   ],
   [
    10.221174,
    47.561071
   ],
   [
    10.22115,
    47.56106
   ],
   [
    10.22113,
    47.561045
   ],
   [
    10.221117,
    47.561028
   ],
   [
    10.221109,
    47.561009
   ],
   [
    10.221108,
    47.56099
   ],
   [
    10.221114,
    47.56097
   ],
   [
    10.221123,
    47.560956
   ],
   [
    10.221136,
    47.560943
   ],
   [
    10.221153,
    47.560932
   ],
   [
    10.221172,
    47.560923
   ],
   [
    10.221194,
    47.560916
   ],
   [
    10.221216,
    47.560913
   ],
   [
    10.22123,
    47.56088
   ],
   [
    10.22124,
    47.560843
   ],
   [
    10.221237,
    47.560776
   ],
   [
    10.221217,
    47.560679
   ],
   [
    10.221208,
    47.560629
   ],
   [
    10.221164,
    47.560451
   ],
   [
    10.221139,
    47.560374
   ],
   [
    10.221061,
    47.560102
   ],
   [
    10.221035,
    47.560015
   ],
   [
    10.220956,
    47.559739
   ],
   [
    10.220928,
    47.559642
   ],
   [
    10.220893,
    47.559559
   ],
   [
    10.220834,
    47.55946
   ],
   [
    10.220782,
    47.559405
   ],
   [
    10.220716,
    47.559334
   ],
   [
    10.220693,
    47.559343
   ],
   [
    10.220669,
    47.55935
   ],
   [
    10.220643,
    47.559354
   ],
   [
    10.220616,
    47.559355
   ],
   [
    10.220589,
    47.559353
   ],
   [
    10.220564,
    47.559348
   ],
   [
    10.22054,
    47.55934
   ],
   [
    10.220518,
    47.559329
   ],
   [
    10.220499,
    47.559316
   ],
   [
    10.220477,
    47.559292
   ],
   [
    10.220465,
    47.559265
   ],
   [
    10.220464,
    47.559237
   ],
   [
    10.220474,
    47.559209
   ],
   [
    10.220426,
    47.559185
   ],
   [
    10.220404,
    47.559152
   ],
   [
    10.220377,
    47.559113
   ],
   [
    10.220303,
    47.559002
   ],
   [
    10.22026,
    47.558865
   ],
   [
    10.220178,
    47.5586
   ],
   [
    10.22017,
    47.558556
   ],
   [
    10.220125,
    47.558337
   ],
   [
    10.219758,
    47.558347
   ],
   [
    10.219216,
    47.558409
   ],
   [
    10.218799,
    47.558471
   ],
   [
    10.218583,
    47.558511
   ],
   [
    10.218295,
    47.55855
   ],
   [
    10.218001,
    47.558597
   ],
   [
    10.217334,
    47.558696
   ],
   [
    10.217199,
    47.558711
   ],
   [
    10.216604,
    47.558809
   ],
   [
    10.216706,
    47.558915
   ],
   [
    10.216946,
    47.55887
   ]
  ],
  "type": "LineString"
 },
 "properties": {
  "quelle": "OSRM router.project-osrm.org, Profil driving",
  "distanz_m": 21632.4,
  "dauer_s": 1224.2,
  "punkte": 624,
  "dienst": "D05",
  "client_ref": "m-12-7092451863",
  "abschnitt": 2
 }
}
