{
 "type": "Feature",
 "geometry": {
  "coordinates": [
   [
    10.216946,
    47.55887
   ],
   [
    10.217376,
    47.558789
   ],
   [
    10.217334,
    47.558696
   ],
   [
    10.218001,
    47.558597
   ],
   [
    10.218295,
    47.55855
   ],
   [
    10.218583,
    47.558511
   ],
   [
    10.218799,
    47.558471
   ],
   [
    10.219216,
    47.558409
   ],
   [
    10.219758,
    47.558347
   ],
   [
    10.220125,
    47.558337
   ],
   [
    10.220484,
    47.558343
   ],
   [
    10.220919,
    47.55837
   ],
   [
    10.221077,
    47.558371
   ],
   [
    10.221377,
    47.558358
   ],
   [
    10.221578,
    47.558328
   ],
   [
    10.221808,
    47.558271
   ],
   [
    10.221886,
    47.558249
   ],
   [
    10.222422,
    47.558054
   ],
   [
    10.222657,
    47.557943
   ],
   [
    10.222722,
    47.557916
   ],
   [
    10.222924,
    47.557843
   ],
   [
    10.222995,
    47.557822
   ],
   [
    10.223285,
    47.557756
   ],
   [
    10.223542,
    47.557709
   ],
   [
    10.223872,
    47.557683
   ],
   [
    10.224388,
    47.557684
   ],
   [
    10.224664,
    47.557692
   ],
   [
    10.224871,
    47.557665
   ],
   [
    10.225125,
    47.557628
   ],
   [
    10.225597,
    47.557477
   ],
   [
    10.225654,
    47.55746
   ],
   [
    10.225752,
    47.557431
   ],
   [
    10.225917,
    47.557378
   ],
   [
    10.226525,
    47.557189
   ],
   [
    10.226603,
    47.557164
   ],
   [
    10.227537,
    47.556876
   ],
   [
    10.227575,
    47.556861
   ],
   [
    10.228418,
    47.556546
   ],
   [
    10.228912,
    47.556328
   ],
   [
    10.229403,
    47.555993
   ],
   [
    10.229512,
    47.555919
   ],
   [
    10.229701,
    47.555794
   ],
   [
    10.229732,
    47.555772
   ],
   [
    10.230073,
    47.555532
   ],
   [
    10.230368,
    47.555328
   ],
   [
    10.230442,
    47.555273
   ],
   [
    10.230524,
    47.555215
   ],
   [
    10.230903,
    47.554965
   ],
   [
    10.231,
    47.554909
   ],
   [
    10.231072,
    47.554867
   ],
   [
    10.231269,
    47.554762
   ],
   [
    10.231334,
    47.554728
   ],
   [
    10.231439,
    47.554644
   ],
   [
    10.231496,
    47.5546
   ],
   [
    10.231517,
    47.554583
   ],
   [
    10.231502,
    47.554564
   ],
   [
    10.231493,
    47.554544
   ],
   [
    10.231489,
    47.554523
   ],
   [
    10.231491,
    47.554503
   ],
   [
    10.231499,
    47.554482
   ],
   [
    10.231512,
    47.554464
   ],
   [
    10.231535,
    47.554443
   ],
   [
    10.231571,
    47.554424
   ],
   [
    10.231615,
    47.554412
   ],
   [
    10.231647,
    47.554409
   ],
   [
    10.23168,
    47.55441
   ],
   [
    10.231712,
    47.554416
   ],
   [
    10.231742,
    47.554426
   ],
   [
    10.23177,
    47.554441
   ],
   [
    10.231793,
    47.55446
   ],
   [
    10.231809,
    47.554482
   ],
   [
    10.231818,
    47.554506
   ],
   [
    10.231818,
    47.55453
   ],
   [
    10.231929,
    47.55462
   ],
   [
    10.232008,
    47.554701
   ],
   [
    10.232486,
    47.55492
   ],
   [
    10.232705,
    47.555025
   ],
   [
    10.23273,
    47.555037
   ],
   [
    10.233862,
    47.55559
   ],
   [
    10.234231,
    47.555742
   ],
   [
    10.234276,
    47.555754
   ],
   [
    10.234572,
    47.555836
   ],
   [
    10.234898,
    47.555909
   ],
   [
    10.235302,
    47.555978
   ],
   [
    10.235872,
    47.556034
   ],
   [
    10.236209,
    47.556054
   ],
   [
    10.236346,
    47.556058
   ],
   [
    10.236683,
    47.556061
   ],
   [
    10.237261,
    47.556031
   ],
   [
    10.237802,
    47.555972
   ],
   [
    10.238411,
    47.55586
   ],
   [
    10.238837,
    47.55576
   ],
   [
    10.239,
    47.555714
   ],
   [
    10.23975,
    47.55546
   ],
   [
    10.240465,
    47.555191
   ],
   [
    10.241068,
    47.554968
   ],
   [
    10.24166,
    47.554771
   ],
   [
    10.242167,
    47.554644
   ],
   [
    10.242759,
    47.554534
   ],
   [
    10.243246,
    47.554492
   ],
   [
    10.243719,
    47.554477
   ],
   [
    10.244029,
    47.554489
   ],
   [
    10.244342,
    47.554516
   ],
   [
    10.244733,
    47.554562
   ],
   [
    10.245159,
    47.554646
   ],
   [
    10.245357,
    47.554689
   ],
   [
    10.245591,
    47.554764
   ],
   [
    10.246154,
    47.554965
   ],
   [
    10.246569,
    47.555161
   ],
   [
    10.247065,
    47.555453
   ],
   [
    10.247516,
    47.555843
   ],
   [
    10.247763,
    47.556149
   ],
   [
    10.2479,
    47.556311
   ],
   [
    10.247971,
    47.556358
   ],
   [
    10.248047,
    47.55643
   ],
   [
    10.248079,
    47.556458
   ],
   [
    10.248144,
    47.556456
   ],
   [
    10.248216,
    47.556469
   ],
   [
    10.248266,
    47.556489
   ],
   [
    10.248295,
    47.556509
   ],
   [
    10.248328,
    47.556543
   ],
   [
    10.248346,
    47.556582
   ],
   [
    10.248347,
    47.55663
   ],
   [
    10.248329,
    47.556671
   ],
   [
    10.248287,
    47.556713
   ],
   [
    10.248316,
    47.556772
   ],
   [
    10.24842,
    47.556914
   ],
   [
    10.248457,
    47.557038
   ],
   [
    10.248722,
    47.55729
   ],
   [
    10.2489,
    47.55743
   ],
   [
    10.249222,
    47.557654
   ],
   [
    10.249355,
    47.557736
   ],
   [
    10.249448,
    47.557791
   ],
   [
    10.249726,
    47.557928
   ],
   [
    10.249917,
    47.558015
   ],
   [
    10.250129,
    47.558088
   ],
   [
    10.250242,
    47.558128
   ],
   [
    10.250548,
    47.558222
   ],
   [
    10.251295,
    47.55841
   ],
   [
    10.251648,
    47.558473
   ],
   [
    10.252248,
    47.558551
   ],
   [
    10.252863,
    47.558611
   ],
   [
    10.253225,
    47.558639
   ],
   [
    10.253874,
    47.558678
   ],
   [
    10.254668,
    47.558737
   ],
   [
    10.255298,
    47.558779
   ],
   [
    10.258318,
    47.558989
   ],
   [
    10.259608,
    47.559077
   ],
   [
    10.260415,
    47.559138
   ],
   [
    10.260586,
    47.55915
   ],
   [
    10.26138,
    47.559216
   ],
   [
    10.263419,
    47.559361
   ],
   [
    10.269304,
    47.559684
   ],
   [
    10.27382,
    47.559918
   ],
   [
    10.274822,
    47.559975
   ],
   [
    10.275309,
    47.560002
   ],
   [
    10.275663,
    47.560049
   ],
   [
    10.275804,
    47.560067
   ],
   [
    10.276104,
    47.560131
   ],
   [
    10.276263,
    47.560151
   ],
   [
    10.276373,
    47.560165
   ],
   [
    10.2764,
    47.560167
   ],
   [
    10.276454,
    47.560143
   ],
   [
    10.276514,
    47.560128
   ],
   [
    10.276577,
    47.560124
   ],
   [
    10.276641,
    47.56013
   ],
   [
    10.276708,
    47.560059
   ],
   [
    10.276844,
    47.559906
   ],
   [
    10.276965,
    47.559705
   ],
   [
    10.277042,
    47.559599
   ],
   [
    10.277273,
    47.559246
   ],
   [
    10.278142,
    47.55793
   ],
   [
    10.278306,
    47.557651
   ],
   [
    10.278425,
    47.557391
   ],
   [
    10.278524,
    47.557168
   ],
   [
    10.278573,
    47.557019
   ],
   [
    10.278608,
    47.556802
   ],
   [
    10.278621,
    47.556456
   ],
   [
    10.278646,
    47.555995
   ],
   [
    10.2787,
    47.55576
   ],
   [
    10.279097,
    47.554997
   ],
   [
    10.279303,
    47.554698
   ],
   [
    10.279507,
    47.554442
   ],
   [
    10.279792,
    47.554066
   ],
   [
    10.279858,
    47.553963
   ],
   [
    10.279928,
    47.553838
   ],
   [
    10.280048,
    47.55354
   ],
   [
    10.280185,
    47.553201
   ],
   [
    10.28021,
    47.553039
   ],
   [
    10.280203,
    47.55293
   ],
   [
    10.280181,
    47.552823
   ],
   [
    10.280123,
    47.552658
   ],
   [
    10.279983,
    47.552294
   ],
   [
    10.279949,
    47.55219
   ],
   [
    10.279918,
    47.552063
   ],
   [
    10.279893,
    47.551871
   ],
   [
    10.279853,
    47.551609
   ],
   [
    10.279779,
    47.551389
   ],
   [
    10.27968,
    47.551227
   ],
   [
    10.279556,
    47.551094
   ],
   [
    10.279475,
    47.550955
   ],
   [
    10.279437,
    47.550855
   ],
   [
    10.279426,
    47.55074
   ],
   [
    10.279462,
    47.550624
   ],
   [
    10.279521,
    47.550527
   ],
   [
    10.279573,
    47.550463
   ],
   [
    10.279637,
    47.550385
   ],
   [
    10.279698,
    47.550309
   ],
   [
    10.280087,
    47.549895
   ],
   [
    10.280656,
    47.549128
   ],
   [
    10.280803,
    47.548943
   ],
   [
    10.280841,
    47.548885
   ],
   [
    10.280824,
    47.548696
   ],
   [
    10.280796,
    47.548337
   ],
   [
    10.280781,
    47.547818
   ],
   [
    10.280792,
    47.547673
   ],
   [
    10.280822,
    47.547585
   ],
   [
    10.280937,
    47.547412
   ],
   [
    10.281238,
    47.54703
   ],
   [
    10.281639,
    47.546506
   ],
   [
    10.28171,
    47.54641
   ],
   [
    10.281781,
    47.546309
   ],
   [
    10.281868,
    47.546118
   ],
   [
    10.281893,
    47.546043
   ],
   [
    10.281904,
    47.545945
   ],
   [
    10.281918,
    47.545729
   ],
   [
    10.281908,
    47.545678
   ],
   [
    10.281896,
    47.545607
   ],
   [
    10.28186,
    47.545466
   ],
   [
    10.281821,
    47.545352
   ],
   [
    10.281694,
    47.545096
   ],
   [
    10.281613,
    47.54491
   ],
   [
    10.281568,
    47.544593
   ],
   [
    10.281578,
    47.544481
   ],
   [
    10.281605,
    47.544359
   ],
   [
    10.281662,
    47.544211
   ],
   [
    10.281777,
    47.544037
   ],
   [
    10.281863,
    47.54391
   ],
   [
    10.281975,
    47.543797
   ],
   [
    10.282015,
    47.543763
   ],
   [
    10.282145,
    47.543663
   ],
   [
    10.282472,
    47.543477
   ],
   [
    10.282686,
    47.543359
   ],
   [
    10.283084,
    47.543087
   ],
   [
    10.283163,
    47.543034
   ],
   [
    10.283632,
    47.542662
   ],
   [
    10.28375,
    47.542543
   ],
   [
    10.283796,
    47.542465
   ],
   [
    10.283913,
    47.542183
   ],
   [
    10.284099,
    47.541733
   ],
   [
    10.284112,
    47.541704
   ],
   [
    10.28415,
    47.541619
   ],
   [
    10.284245,
    47.54149
   ],
   [
    10.284368,
    47.541388
   ],
   [
    10.284455,
    47.541353
   ],
   [
    10.28465,
    47.541279
   ],
   [
    10.28506,
    47.541179
   ],
   [
    10.285492,
    47.541074
   ],
   [
    10.285704,
    47.541001
   ],
   [
    10.285837,
    47.540921
   ],
   [
    10.28594,
    47.540806
   ],
   [
    10.285998,
    47.540697
   ],
   [
    10.286008,
    47.540629
   ],
   [
    10.285985,
    47.540526
   ],
   [
    10.285825,
    47.540199
   ],
   [
    10.285679,
    47.539885
   ],
   [
    10.285651,
    47.539734
   ],
   [
    10.28563,
    47.539617
   ],
   [
    10.285625,
    47.539588
   ],
   [
    10.285609,
    47.539413
   ],
   [
    10.285605,
    47.539359
   ],
   [
    10.285614,
    47.539234
   ],
   [
    10.285643,
    47.539114
   ],
   [
    10.28565,
    47.53909
   ],
   [
    10.285656,
    47.539062
   ],
   [
    10.285723,
    47.53879
   ],
   [
    10.285709,
    47.538632
   ],
   [
    10.285605,
    47.53843
   ],
   [
    10.285571,
    47.538378
   ],
   [
    10.285488,
    47.538243
   ],
   [
    10.285433,
    47.538183
   ],
   [
    10.285395,
    47.538081
   ],
   [
    10.285375,
    47.53795
   ],
   [
    10.285364,
    47.537761
   ],
   [
    10.28539,
    47.537591
   ],
   [
    10.285419,
    47.537478
   ],
   [
    10.285437,
    47.53741
   ],
   [
    10.285451,
    47.537358
   ],
   [
    10.285579,
    47.537143
   ],
   [
    10.285626,
    47.537069
   ],
   [
    10.285688,
    47.536971
   ],
   [
    10.285714,
    47.536889
   ],
   [
    10.285726,
    47.536791
   ],
   [
    10.285707,
    47.536659
   ],
   [
    10.285601,
    47.5365
   ],
   [
    10.285459,
    47.536285
   ],
   [
    10.285428,
    47.536238
   ],
   [
    10.285243,
    47.535896
   ],
   [
    10.285228,
    47.535863
   ],
   [
    10.285113,
    47.535611
   ],
   [
    10.285078,
    47.535521
   ],
   [
    10.28482,
    47.534949
   ],
   [
    10.284747,
    47.534832
   ],
   [
    10.284519,
    47.534498
   ],
   [
    10.284435,
    47.534397
   ],
   [
    10.284544,
    47.53427
   ],
   [
    10.284697,
    47.534091
   ],
   [
    10.284911,
    47.533885
   ],
   [
    10.284952,
    47.533859
   ],
   [
    10.285321,
    47.533622
   ],
   [
    10.285577,
    47.533472
   ],
   [
    10.285462,
    47.533232
   ],
   [
    10.286028,
    47.533094
   ],
   [
    10.286482,
    47.532913
   ],
   [
    10.2867,
    47.532746
   ],
   [
    10.286936,
    47.532566
   ],
   [
    10.287339,
    47.53215
   ]
  ],
  "type": "LineString"
 },
 "properties": {
  "quelle": "OSRM router.project-osrm.org, Profil driving",
  "distanz_m": 8467.6,
  "dauer_s": 644.9,
  "punkte": 317,
  "dienst": "D10",
  "client_ref": "m-12-1687240539",
  "abschnitt": 0
 }
}
