{
 "type": "Feature",
 "geometry": {
  "coordinates": [
   [
    10.216946,
    47.55887
   ],
   [
    10.217376,
    47.558789
   ],
   [
    10.217334,
    47.558696
   ],
   [
    10.218001,
    47.558597
   ],
   [
    10.218295,
    47.55855
   ],
   [
    10.218583,
    47.558511
   ],
   [
    10.218799,
    47.558471
   ],
   [
    10.219216,
    47.558409
   ],
   [
    10.219758,
    47.558347
   ],
   [
    10.220125,
    47.558337
   ],
   [
    10.220484,
    47.558343
   ],
   [
    10.220919,
    47.55837
   ],
   [
    10.221077,
    47.558371
   ],
   [
    10.221377,
    47.558358
   ],
   [
    10.221578,
    47.558328
   ],
   [
    10.221808,
    47.558271
   ],
   [
    10.221886,
    47.558249
   ],
   [
    10.222422,
    47.558054
   ],
   [
    10.222657,
    47.557943
   ],
   [
    10.222722,
    47.557916
   ],
   [
    10.222924,
    47.557843
   ],
   [
    10.222995,
    47.557822
   ],
   [
    10.223285,
    47.557756
   ],
   [
    10.223542,
    47.557709
   ],
   [
    10.223872,
    47.557683
   ],
   [
    10.224388,
    47.557684
   ],
   [
    10.224664,
    47.557692
   ],
   [
    10.224871,
    47.557665
   ],
   [
    10.225125,
    47.557628
   ],
   [
    10.225597,
    47.557477
   ],
   [
    10.225654,
    47.55746
   ],
   [
    10.225752,
    47.557431
   ],
   [
    10.225917,
    47.557378
   ],
   [
    10.226525,
    47.557189
   ],
   [
    10.226603,
    47.557164
   ],
   [
    10.227537,
    47.556876
   ],
   [
    10.227575,
    47.556861
   ],
   [
    10.228418,
    47.556546
   ],
   [
    10.228912,
    47.556328
   ],
   [
    10.229403,
    47.555993
   ],
   [
    10.229512,
    47.555919
   ],
   [
    10.229701,
    47.555794
   ],
   [
    10.229732,
    47.555772
   ],
   [
    10.230073,
    47.555532
   ],
   [
    10.230368,
    47.555328
   ],
   [
    10.230442,
    47.555273
   ],
   [
    10.230524,
    47.555215
   ],
   [
    10.230903,
    47.554965
   ],
   [
    10.231,
    47.554909
   ],
   [
    10.231072,
    47.554867
   ],
   [
    10.231269,
    47.554762
   ],
   [
    10.231334,
    47.554728
   ],
   [
    10.231439,
    47.554644
   ],
   [
    10.231496,
    47.5546
   ],
   [
    10.231517,
    47.554583
   ],
   [
    10.231502,
    47.554564
   ],
   [
    10.231493,
    47.554544
   ],
   [
    10.231489,
    47.554523
   ],
   [
    10.231491,
    47.554503
   ],
   [
    10.231499,
    47.554482
   ],
   [
    10.231428,
    47.554431
   ],
   [
    10.23131,
    47.554336
   ],
   [
    10.230924,
    47.554139
   ],
   [
    10.230798,
    47.554044
   ],
   [
    10.230692,
    47.553951
   ],
   [
    10.23062,
    47.553813
   ],
   [
    10.230577,
    47.553653
   ],
   [
    10.230525,
    47.553551
   ],
   [
    10.230517,
    47.553527
   ],
   [
    10.230485,
    47.553459
   ],
   [
    10.23046,
    47.553452
   ],
   [
    10.230437,
    47.553443
   ],
   [
    10.230416,
    47.553431
   ],
   [
    10.2304,
    47.553416
   ],
   [
    10.230387,
    47.5534
   ],
   [
    10.230379,
    47.553383
   ],
   [
    10.230375,
    47.553357
   ],
   [
    10.230381,
    47.553332
   ],
   [
    10.230396,
    47.553309
   ],
   [
    10.230418,
    47.553289
   ],
   [
    10.230452,
    47.553272
   ],
   [
    10.230491,
    47.553261
   ],
   [
    10.230534,
    47.553258
   ],
   [
    10.230575,
    47.553264
   ],
   [
    10.230681,
    47.553218
   ],
   [
    10.230845,
    47.553158
   ],
   [
    10.230927,
    47.553108
   ],
   [
    10.231109,
    47.552999
   ],
   [
    10.231147,
    47.552981
   ],
   [
    10.231496,
    47.552818
   ],
   [
    10.231649,
    47.552746
   ],
   [
    10.231764,
    47.552707
   ],
   [
    10.2321,
    47.552595
   ],
   [
    10.232418,
    47.552494
   ],
   [
    10.232775,
    47.552382
   ],
   [
    10.232917,
    47.552335
   ],
   [
    10.233302,
    47.552209
   ],
   [
    10.2337,
    47.552078
   ],
   [
    10.233832,
    47.55203
   ],
   [
    10.234027,
    47.551959
   ],
   [
    10.234255,
    47.551872
   ],
   [
    10.234321,
    47.551848
   ],
   [
    10.235123,
    47.551548
   ],
   [
    10.235862,
    47.551263
   ],
   [
    10.236692,
    47.550978
   ],
   [
    10.236865,
    47.550923
   ],
   [
    10.237416,
    47.550802
   ],
   [
    10.238203,
    47.550672
   ],
   [
    10.238743,
    47.550614
   ],
   [
    10.239223,
    47.550586
   ],
   [
    10.239573,
    47.550587
   ],
   [
    10.239776,
    47.550584
   ],
   [
    10.240038,
    47.550579
   ],
   [
    10.240054,
    47.550529
   ],
   [
    10.240104,
    47.550384
   ],
   [
    10.240108,
    47.550371
   ],
   [
    10.240162,
    47.550212
   ],
   [
    10.240243,
    47.550076
   ],
   [
    10.240274,
    47.54992
   ],
   [
    10.240256,
    47.549746
   ],
   [
    10.240194,
    47.549591
   ],
   [
    10.240131,
    47.549423
   ],
   [
    10.240095,
    47.549315
   ],
   [
    10.240094,
    47.549131
   ],
   [
    10.240162,
    47.549001
   ],
   [
    10.240281,
    47.548876
   ],
   [
    10.24039,
    47.548826
   ],
   [
    10.240532,
    47.548781
   ],
   [
    10.240905,
    47.54871
   ],
   [
    10.241274,
    47.548672
   ],
   [
    10.241418,
    47.54868
   ],
   [
    10.241569,
    47.548707
   ],
   [
    10.241716,
    47.548702
   ],
   [
    10.241823,
    47.548688
   ],
   [
    10.241893,
    47.548641
   ],
   [
    10.241908,
    47.548566
   ],
   [
    10.241859,
    47.548491
   ],
   [
    10.241741,
    47.548373
   ],
   [
    10.241486,
    47.548135
   ],
   [
    10.241426,
    47.548012
   ],
   [
    10.241467,
    47.547907
   ],
   [
    10.241554,
    47.54787
   ],
   [
    10.241672,
    47.547845
   ],
   [
    10.241797,
    47.547845
   ],
   [
    10.241843,
    47.547852
   ],
   [
    10.24198,
    47.547878
   ],
   [
    10.242161,
    47.547901
   ],
   [
    10.242298,
    47.547898
   ],
   [
    10.242396,
    47.547869
   ],
   [
    10.242463,
    47.547817
   ],
   [
    10.24256,
    47.547696
   ],
   [
    10.242685,
    47.547516
   ],
   [
    10.242827,
    47.547391
   ],
   [
    10.242878,
    47.54736
   ],
   [
    10.243158,
    47.5472
   ],
   [
    10.243313,
    47.547111
   ],
   [
    10.243554,
    47.546954
   ],
   [
    10.24398,
    47.546664
   ],
   [
    10.244481,
    47.546321
   ],
   [
    10.244633,
    47.54621
   ],
   [
    10.244742,
    47.546114
   ],
   [
    10.245023,
    47.545794
   ],
   [
    10.245142,
    47.545695
   ],
   [
    10.245254,
    47.545644
   ],
   [
    10.245422,
    47.545594
   ],
   [
    10.245631,
    47.545534
   ],
   [
    10.245896,
    47.545426
   ],
   [
    10.246141,
    47.545365
   ],
   [
    10.246382,
    47.545316
   ],
   [
    10.246991,
    47.545217
   ],
   [
    10.247196,
    47.545173
   ],
   [
    10.247382,
    47.545117
   ],
   [
    10.247544,
    47.545054
   ],
   [
    10.247664,
    47.54499
   ],
   [
    10.247859,
    47.544873
   ],
   [
    10.248058,
    47.544729
   ],
   [
    10.248516,
    47.545255
   ],
   [
    10.248797,
    47.545459
   ],
   [
    10.249069,
    47.545592
   ],
   [
    10.249462,
    47.545682
   ],
   [
    10.249723,
    47.545727
   ]
  ],
  "type": "LineString"
 },
 "properties": {
  "quelle": "OSRM router.project-osrm.org, Profil driving",
  "distanz_m": 3459.3,
  "dauer_s": 339.8,
  "punkte": 181,
  "dienst": "D10",
  "client_ref": "m-12-9053871426",
  "abschnitt": 0
 }
}
