{"type":"Feature","geometry":{"coordinates":[[10.21695,47.55887],[10.21738,47.55879],[10.21733,47.5587],[10.218,47.5586],[10.21829,47.55855],[10.21858,47.55851],[10.2188,47.55847],[10.21922,47.55841],[10.21976,47.55835],[10.22012,47.55834],[10.22048,47.55834],[10.22092,47.55837],[10.22108,47.55837],[10.22138,47.55836],[10.22158,47.55833],[10.22181,47.55827],[10.22189,47.55825],[10.22242,47.55805],[10.22266,47.55794],[10.22272,47.55792],[10.22292,47.55784],[10.22299,47.55782],[10.22329,47.55776],[10.22354,47.55771],[10.22387,47.55768],[10.22439,47.55768],[10.22466,47.55769],[10.22487,47.55767],[10.22513,47.55763],[10.2256,47.55748],[10.22565,47.55746],[10.22575,47.55743],[10.22592,47.55738],[10.22653,47.55719],[10.2266,47.55716],[10.22754,47.55688],[10.22757,47.55686],[10.22842,47.55655],[10.22891,47.55633],[10.2294,47.55599],[10.22951,47.55592],[10.2297,47.55579],[10.22973,47.55577],[10.23007,47.55553],[10.23037,47.55533],[10.23044,47.55527],[10.23052,47.55521],[10.2309,47.55497],[10.231,47.55491],[10.23107,47.55487],[10.23127,47.55476],[10.23133,47.55473],[10.23144,47.55464],[10.2315,47.5546],[10.23152,47.55458],[10.2315,47.55456],[10.23149,47.55454],[10.23149,47.55452],[10.23149,47.5545],[10.2315,47.55448],[10.23151,47.55446],[10.23153,47.55444],[10.23157,47.55442],[10.23161,47.55441],[10.23165,47.55441],[10.23168,47.55441],[10.23171,47.55442],[10.23174,47.55443],[10.23177,47.55444],[10.23179,47.55446],[10.23181,47.55448],[10.23182,47.55451],[10.23182,47.55453],[10.23193,47.55462],[10.23201,47.5547],[10.23249,47.55492],[10.2327,47.55503],[10.23273,47.55504],[10.23386,47.55559],[10.23423,47.55574],[10.23428,47.55575],[10.23457,47.55584],[10.2349,47.55591],[10.2353,47.55598],[10.23587,47.55603],[10.23621,47.55605],[10.23635,47.55606],[10.23668,47.55606],[10.23726,47.55603],[10.2378,47.55597],[10.23841,47.55586],[10.23884,47.55576],[10.239,47.55571],[10.23975,47.55546],[10.24047,47.55519],[10.24107,47.55497],[10.24166,47.55477],[10.24217,47.55464],[10.24276,47.55453],[10.24325,47.55449],[10.24372,47.55448],[10.24403,47.55449],[10.24434,47.55452],[10.24473,47.55456],[10.24516,47.55465],[10.24536,47.55469],[10.24559,47.55476],[10.24615,47.55497],[10.24657,47.55516],[10.24706,47.55545],[10.24752,47.55584],[10.24776,47.55615],[10.2479,47.55631],[10.24797,47.55636],[10.24805,47.55643],[10.24808,47.55646],[10.24814,47.55646],[10.24822,47.55647],[10.24827,47.55649],[10.2483,47.55651],[10.24851,47.55644],[10.2487,47.5564],[10.24889,47.55638],[10.24905,47.5564],[10.24921,47.55647],[10.24949,47.55661],[10.24963,47.55666],[10.24973,47.55666],[10.24987,47.55665],[10.25019,47.55655],[10.25077,47.55616],[10.25113,47.55594],[10.25277,47.55485],[10.25511,47.55332],[10.25553,47.55305],[10.25758,47.55169],[10.25911,47.55069],[10.26146,47.54915],[10.26292,47.54819],[10.26365,47.54768],[10.26427,47.54725],[10.26494,47.54672],[10.26551,47.54621],[10.26597,47.54575],[10.2664,47.54522],[10.2667,47.54478],[10.26701,47.54424],[10.26719,47.54382],[10.26731,47.54348],[10.26741,47.54312],[10.26749,47.54274],[10.26754,47.54235],[10.26756,47.54205],[10.26756,47.54132],[10.2675,47.54062],[10.2674,47.53986],[10.2673,47.5392],[10.26702,47.53737],[10.26689,47.53642],[10.26678,47.53556],[10.26662,47.53407],[10.26658,47.53324],[10.26656,47.53251],[10.26657,47.53164],[10.26667,47.53053],[10.26679,47.52959],[10.26695,47.52869],[10.26705,47.52824],[10.2671,47.52801],[10.26745,47.52648],[10.26759,47.52598],[10.26802,47.52445],[10.26811,47.52413],[10.26839,47.52316],[10.26858,47.52251],[10.26867,47.52219],[10.26872,47.52198],[10.26881,47.52161],[10.26884,47.52144],[10.26889,47.52117],[10.26892,47.5209],[10.26895,47.52055],[10.26899,47.52015],[10.26903,47.51962],[10.26904,47.51949],[10.26906,47.51927],[10.2691,47.51902],[10.26915,47.51879],[10.2692,47.51861],[10.26925,47.51839],[10.26928,47.5183],[10.26933,47.51817],[10.26942,47.51794],[10.26954,47.51766],[10.26975,47.51725],[10.27023,47.51641],[10.27031,47.51626],[10.27038,47.5161],[10.2704,47.51607],[10.27049,47.51586],[10.27059,47.51563],[10.27071,47.51546],[10.27082,47.51512],[10.27092,47.51475],[10.27104,47.5142],[10.27106,47.51412],[10.27119,47.5135],[10.27131,47.51285],[10.27135,47.51262],[10.27146,47.51195],[10.27154,47.51144],[10.2716,47.51102],[10.27166,47.51065],[10.27169,47.51015],[10.27171,47.50991],[10.27171,47.50945],[10.2717,47.50914],[10.2717,47.50909],[10.27168,47.50888],[10.2716,47.50844],[10.27159,47.50836],[10.27151,47.508],[10.27139,47.50752],[10.27117,47.507],[10.27096,47.50653],[10.27083,47.50626],[10.27074,47.50611],[10.2706,47.5059],[10.27045,47.50565],[10.27023,47.50535],[10.27008,47.50514],[10.26976,47.50476],[10.26925,47.50423],[10.2686,47.50358],[10.26836,47.50332],[10.268,47.50293],[10.2676,47.50243],[10.26721,47.50187],[10.26692,47.50141],[10.26676,47.50111],[10.26653,47.50066],[10.26641,47.50039],[10.26633,47.50015],[10.26629,47.50006],[10.26612,47.49955],[10.266,47.49905],[10.26586,47.49842],[10.26567,47.49757],[10.2655,47.49671],[10.26543,47.49632],[10.26543,47.49618],[10.26545,47.49601],[10.26548,47.49588],[10.2655,47.49583],[10.26555,47.49571],[10.26614,47.49455],[10.26653,47.49378],[10.26661,47.49355],[10.26666,47.49332],[10.2667,47.49308],[10.26675,47.4919],[10.26675,47.49167],[10.26669,47.49122],[10.26664,47.49096],[10.26666,47.49068],[10.26685,47.48985],[10.26699,47.48901],[10.26702,47.48886],[10.26706,47.48836],[10.26703,47.48807],[10.26692,47.48761],[10.26691,47.48738],[10.26693,47.48716],[10.26701,47.4869],[10.26715,47.48648],[10.26718,47.48628],[10.26718,47.48607],[10.26712,47.48585],[10.26703,47.48564],[10.26653,47.48498],[10.26641,47.48476],[10.26635,47.48453],[10.26633,47.48421],[10.26633,47.48369],[10.26632,47.48345],[10.2663,47.48321],[10.26624,47.48284],[10.26616,47.48249],[10.26609,47.48218],[10.26601,47.48192],[10.26596,47.4816],[10.26596,47.48133],[10.26598,47.48118],[10.26603,47.48101],[10.26633,47.48047],[10.26661,47.47985],[10.26665,47.47965],[10.26666,47.47939],[10.26666,47.47905],[10.26665,47.47874],[10.26659,47.4782],[10.26657,47.47787],[10.26657,47.4776],[10.26659,47.47728],[10.26665,47.47691],[10.2667,47.47663],[10.26678,47.47632],[10.2668,47.47626],[10.26695,47.47579],[10.26719,47.47513],[10.2675,47.47421],[10.26768,47.4737],[10.26779,47.47329],[10.26786,47.47298],[10.26793,47.47266],[10.26797,47.47229],[10.26798,47.47193],[10.26798,47.47163],[10.26798,47.47147],[10.26799,47.4714],[10.26799,47.47109],[10.268,47.47102],[10.268,47.47091],[10.268,47.46992],[10.268,47.46976],[10.268,47.46964],[10.268,47.46957],[10.268,47.46947],[10.26801,47.46895],[10.26804,47.46861],[10.26808,47.46793],[10.2681,47.46769],[10.26815,47.46689],[10.26837,47.46409],[10.26837,47.46375],[10.26833,47.46335],[10.26823,47.46297],[10.26815,47.46274],[10.26803,47.46247],[10.26791,47.46221],[10.26786,47.46211],[10.26766,47.46175],[10.26749,47.46142],[10.26739,47.46116],[10.26735,47.46108],[10.26726,47.46078],[10.26719,47.46041],[10.26718,47.46039],[10.26716,47.46026],[10.26701,47.46027],[10.26666,47.46032],[10.26628,47.46032],[10.26623,47.46031],[10.2658,47.46025],[10.26559,47.46022],[10.26525,47.46015],[10.26505,47.46009],[10.2637,47.45968],[10.26345,47.45961],[10.26256,47.45935],[10.261,47.45897],[10.26031,47.45884],[10.25906,47.45868],[10.2588,47.45862],[10.2585,47.45855],[10.25821,47.45844],[10.25816,47.45843],[10.25809,47.4584],[10.25797,47.45837],[10.25775,47.45829],[10.25755,47.45822],[10.25639,47.45791],[10.25581,47.45775],[10.25498,47.45753],[10.25453,47.45735],[10.25405,47.4571],[10.25295,47.45654],[10.25229,47.45635],[10.2519,47.45628],[10.25105,47.45613],[10.25064,47.45604],[10.25018,47.45589],[10.24958,47.45566],[10.24935,47.45554],[10.24861,47.45524],[10.24815,47.45507],[10.24775,47.45497],[10.24702,47.45485],[10.24676,47.45481],[10.24639,47.45474],[10.24586,47.45459],[10.24558,47.4545],[10.24531,47.45438],[10.24514,47.45428],[10.24499,47.45417],[10.24494,47.45414],[10.24481,47.45403],[10.24466,47.45385],[10.24451,47.45351],[10.24443,47.45325],[10.24425,47.45268],[10.24415,47.4524],[10.24413,47.45235],[10.24405,47.4522],[10.24388,47.45198],[10.2438,47.45192],[10.24376,47.4519],[10.24354,47.45175],[10.24329,47.45166],[10.24307,47.45159],[10.24266,47.45146],[10.24253,47.45141],[10.24228,47.4513],[10.24201,47.45114],[10.24148,47.45069],[10.24059,47.44994],[10.24049,47.44985],[10.24046,47.44982],[10.2402,47.44962],[10.24001,47.44952],[10.23985,47.44945],[10.23967,47.4494],[10.23958,47.44938],[10.23945,47.44939],[10.23936,47.44938],[10.2392,47.44937],[10.23909,47.44937],[10.23897,47.44937],[10.23876,47.44939],[10.23775,47.44952],[10.23721,47.44953],[10.23691,47.44947],[10.23642,47.44933],[10.23592,47.44924],[10.23568,47.44924],[10.23545,47.44924],[10.23493,47.44923],[10.23424,47.44912],[10.23408,47.44909],[10.2338,47.44903],[10.23357,47.44895],[10.23352,47.44893],[10.23331,47.44881],[10.23285,47.44832],[10.23276,47.44823],[10.23262,47.44811],[10.23233,47.44786],[10.23196,47.44753],[10.2316,47.44729],[10.23145,47.44719],[10.23142,47.44716],[10.23133,47.44709],[10.23118,47.44696],[10.23111,47.4469],[10.23106,47.44683],[10.23102,47.44678],[10.23095,47.44668],[10.23086,47.44653],[10.23077,47.44639],[10.23064,47.44623],[10.23046,47.44607],[10.23037,47.44599],[10.23025,47.44586],[10.2301,47.44571],[10.22998,47.44556],[10.22995,47.44549],[10.22993,47.44545],[10.22985,47.44548],[10.2298,47.44551],[10.22974,47.44555],[10.22968,47.44563],[10.22947,47.44577],[10.2292,47.44585],[10.22896,47.44588],[10.22859,47.44594],[10.2285,47.44596],[10.22838,47.44593],[10.22829,47.44588],[10.22826,47.44581],[10.22834,47.44574],[10.22848,47.44572],[10.2286,47.44567],[10.2288,47.44557],[10.22889,47.44546],[10.22894,47.44539],[10.22892,47.4453],[10.22885,47.44526],[10.22866,47.44525],[10.22849,47.44524],[10.22834,47.44519],[10.22827,47.44513],[10.22823,47.44506],[10.22822,47.44494],[10.22823,47.44487],[10.22829,47.44477],[10.22833,47.44469],[10.22824,47.44449],[10.22816,47.44425],[10.22814,47.44396],[10.22812,47.44388],[10.22809,47.44378],[10.22802,47.44365],[10.2279,47.44351],[10.2278,47.44334],[10.22769,47.44328],[10.22768,47.44318],[10.22766,47.44311],[10.22767,47.44277],[10.22751,47.44258],[10.22731,47.44248],[10.22703,47.44238],[10.22689,47.44229],[10.22679,47.4422],[10.22669,47.442],[10.22683,47.44169],[10.22682,47.44154],[10.22675,47.44147],[10.22668,47.44143],[10.22657,47.44136],[10.22641,47.44134],[10.22623,47.44138],[10.22614,47.44152],[10.22608,47.44166],[10.22611,47.44179],[10.22624,47.44212],[10.22631,47.44243],[10.22634,47.44251],[10.22635,47.4427],[10.22633,47.44279],[10.22629,47.44288],[10.22621,47.44292],[10.22612,47.44291],[10.22598,47.44284],[10.22578,47.44275],[10.22503,47.44259],[10.22481,47.44253],[10.22457,47.44237],[10.22435,47.44223],[10.22425,47.44218],[10.22413,47.44216],[10.22382,47.44222],[10.22377,47.44224],[10.2232,47.4424],[10.22285,47.44259],[10.22278,47.44262],[10.22271,47.4426],[10.22253,47.44247],[10.22234,47.44236],[10.22222,47.44223],[10.22219,47.4421],[10.22222,47.44192],[10.22222,47.44184],[10.22202,47.44164],[10.222,47.4416],[10.22217,47.44136],[10.22216,47.44117],[10.22211,47.44107],[10.22157,47.44116],[10.22132,47.44115],[10.22119,47.44112],[10.22113,47.4411],[10.22113,47.4411]],"type":"LineString"},"properties":{"quelle":"OSRM router.project-osrm.org, Profil driving","von":[47.559,10.217],"nach":[47.44151,10.22058],"distanz_m":19311,"dauer_s":2031.1,"punkte":562}}
