{"type":"Feature","geometry":{"coordinates":[[10.21695,47.55887],[10.21738,47.55879],[10.21733,47.5587],[10.218,47.5586],[10.21829,47.55855],[10.21858,47.55851],[10.2188,47.55847],[10.21922,47.55841],[10.21976,47.55835],[10.22012,47.55834],[10.22017,47.55856],[10.22018,47.5586],[10.22026,47.55886],[10.2203,47.559],[10.22038,47.55911],[10.2204,47.55915],[10.22043,47.55918],[10.22047,47.55921],[10.22048,47.5592],[10.2205,47.55918],[10.22051,47.55917],[10.22053,47.55916],[10.22055,47.55915],[10.22057,47.55915],[10.2206,47.55914],[10.22062,47.55914],[10.22064,47.55914],[10.22067,47.55915],[10.22069,47.55915],[10.22071,47.55916],[10.22073,47.55917],[10.22075,47.55918],[10.22076,47.5592],[10.22077,47.55921],[10.22078,47.55923],[10.22078,47.55925],[10.22078,47.55926],[10.22077,47.55928],[10.22084,47.55935],[10.22085,47.55937],[10.22093,47.55947],[10.22098,47.55955],[10.22101,47.55963],[10.22104,47.55973],[10.22108,47.55987],[10.22112,47.56],[10.22114,47.56009],[10.22127,47.56056],[10.22129,47.56061],[10.22132,47.56073],[10.22133,47.56085],[10.22133,47.5609],[10.22133,47.56095],[10.22135,47.56096],[10.22136,47.56098],[10.22136,47.561],[10.22136,47.56101],[10.22147,47.56103],[10.22181,47.56106],[10.22264,47.56116],[10.22309,47.56121],[10.22337,47.56124],[10.22347,47.56126],[10.2236,47.56128],[10.22372,47.56131],[10.22402,47.56139],[10.22416,47.56144],[10.22444,47.56156],[10.22543,47.56213],[10.22546,47.56212],[10.22548,47.56211],[10.22551,47.56211],[10.22553,47.56211],[10.22555,47.56212],[10.22558,47.56213],[10.2256,47.56214],[10.22561,47.56215],[10.22563,47.56217],[10.22563,47.56219],[10.22563,47.56221],[10.22563,47.56223],[10.22561,47.56224],[10.22559,47.56226],[10.22569,47.56233],[10.22583,47.56251],[10.22606,47.56278],[10.22607,47.5628],[10.22613,47.56287],[10.22617,47.56292],[10.2264,47.56323],[10.22642,47.56326],[10.22661,47.56349],[10.22672,47.5636],[10.22683,47.56372],[10.22692,47.56379],[10.22701,47.56386],[10.22741,47.56414],[10.22782,47.56437],[10.22823,47.56457],[10.22828,47.5646],[10.2285,47.56473],[10.22877,47.5649],[10.22906,47.56511],[10.22931,47.5653],[10.22948,47.56546],[10.2297,47.56565],[10.23042,47.56634],[10.23102,47.56693],[10.23179,47.56765],[10.23197,47.56782],[10.23234,47.56815],[10.23255,47.56831],[10.23272,47.56844],[10.233,47.56864],[10.23371,47.56911],[10.23392,47.56926],[10.23419,47.5695],[10.23422,47.56953],[10.23435,47.56963],[10.23465,47.56994],[10.23477,47.57006],[10.23497,47.57028],[10.2351,47.57041],[10.23516,47.57046],[10.23526,47.57056],[10.23556,47.57087],[10.23567,47.57097],[10.23594,47.57122],[10.23617,47.57145],[10.2365,47.57178],[10.23662,47.5719],[10.23677,47.57207],[10.23678,47.57207],[10.23684,47.57216],[10.23685,47.57218],[10.23692,47.57232],[10.23697,47.57239],[10.237,47.57242],[10.23703,47.57244],[10.23709,47.57245],[10.23715,47.57247],[10.2372,47.5725],[10.23731,47.57252],[10.23746,47.57252],[10.23794,47.5725],[10.23917,47.57245],[10.23967,47.5724],[10.24012,47.57233],[10.24118,47.57211],[10.24164,47.57195],[10.24233,47.57167],[10.24307,47.57126],[10.24338,47.57104],[10.24366,47.57083],[10.24395,47.57058],[10.24423,47.5703],[10.24436,47.57009],[10.24441,47.5699],[10.24441,47.56972],[10.24434,47.56951],[10.24422,47.56933],[10.24401,47.56917],[10.24392,47.56911],[10.24376,47.56903],[10.24352,47.56899],[10.2433,47.569],[10.24314,47.56905],[10.24299,47.56915],[10.24291,47.56933],[10.24299,47.5695],[10.24308,47.56957],[10.24314,47.56971],[10.2436,47.57005],[10.24394,47.57028],[10.24433,47.57052],[10.2447,47.57072],[10.24513,47.57093],[10.24577,47.5712],[10.24687,47.57172],[10.24737,47.572],[10.24775,47.57226],[10.24809,47.57252],[10.24856,47.57296],[10.24896,47.57339],[10.2492,47.5737],[10.24943,47.57406],[10.24955,47.57429],[10.24969,47.57465],[10.24979,47.57494],[10.24994,47.57581],[10.24995,47.57604],[10.24996,47.57616],[10.24994,47.57632],[10.24989,47.57686],[10.24981,47.57775],[10.24981,47.57815],[10.24983,47.57853],[10.24989,47.57896],[10.24997,47.57928],[10.25007,47.57959],[10.25023,47.58001],[10.2504,47.58035],[10.25061,47.5807],[10.2508,47.58103],[10.25099,47.58129],[10.25108,47.58141],[10.25139,47.58179],[10.25194,47.58242],[10.25253,47.58305],[10.25336,47.58395],[10.25424,47.58488],[10.2571,47.58796],[10.25845,47.5894],[10.2594,47.59041],[10.26068,47.59178],[10.26163,47.59281],[10.26213,47.59334],[10.26255,47.59379],[10.2629,47.59414],[10.26332,47.59455],[10.26369,47.59488],[10.26411,47.59524],[10.26498,47.59591],[10.26594,47.59655],[10.2673,47.59741],[10.26783,47.59777],[10.2687,47.59843],[10.26911,47.59875],[10.26954,47.59914],[10.27026,47.59984],[10.27072,47.60032],[10.27108,47.60074],[10.27133,47.60105],[10.27156,47.60138],[10.27176,47.60167],[10.27198,47.602],[10.27223,47.60242],[10.27251,47.60298],[10.27282,47.60364],[10.273,47.60408],[10.27315,47.60453],[10.27328,47.60501],[10.27334,47.60534],[10.27347,47.606],[10.27364,47.6073],[10.27364,47.60746],[10.27369,47.60806],[10.27374,47.60849],[10.27381,47.60932],[10.27391,47.6103],[10.27396,47.61082],[10.27405,47.61129],[10.27413,47.61171],[10.27422,47.61207],[10.27446,47.61281],[10.27484,47.61383],[10.27501,47.61427],[10.27526,47.61496],[10.27557,47.6159],[10.27571,47.61645],[10.2758,47.61689],[10.27592,47.61757],[10.27594,47.61771],[10.27599,47.61812],[10.27604,47.6186],[10.27618,47.61985],[10.27631,47.62082],[10.27653,47.62212],[10.27668,47.62273],[10.27688,47.62346],[10.27714,47.62429],[10.2773,47.6247],[10.27754,47.62535],[10.27782,47.62601],[10.27824,47.62686],[10.27843,47.62726],[10.27873,47.62782],[10.2792,47.62862],[10.27957,47.62921],[10.27974,47.62949],[10.28032,47.63043],[10.28102,47.63156],[10.28157,47.63244],[10.28205,47.63318],[10.28226,47.63348],[10.28249,47.63378],[10.28289,47.63423],[10.28323,47.63459],[10.28363,47.63499],[10.28439,47.63567],[10.28538,47.63659],[10.28559,47.63679],[10.2858,47.63702],[10.28598,47.63723],[10.28614,47.63746],[10.2863,47.6377],[10.28642,47.63793],[10.28653,47.63815],[10.28665,47.63843],[10.28673,47.63867],[10.28682,47.63903],[10.28689,47.63939],[10.28701,47.64003],[10.28707,47.64027],[10.28716,47.64059],[10.28731,47.64104],[10.28746,47.64136],[10.28757,47.64159],[10.28774,47.64189],[10.28791,47.64217],[10.28807,47.64239],[10.28852,47.64294],[10.28904,47.64349],[10.28933,47.64375],[10.28978,47.6441],[10.28985,47.64415],[10.29039,47.64455],[10.29114,47.64507],[10.29195,47.6456],[10.29278,47.64616],[10.29359,47.64674],[10.29389,47.64699],[10.29413,47.64719],[10.29438,47.64742],[10.29458,47.64761],[10.29481,47.64785],[10.29482,47.64787],[10.29522,47.64837],[10.2953,47.64848],[10.29551,47.64884],[10.29569,47.64921],[10.29577,47.64942],[10.29587,47.64968],[10.29596,47.65013],[10.29601,47.65065],[10.29597,47.65219],[10.296,47.65273],[10.2961,47.65324],[10.29624,47.65365],[10.29642,47.65405],[10.29675,47.65458],[10.29735,47.6554],[10.29774,47.65596],[10.29791,47.65625],[10.29807,47.65654],[10.2982,47.65685],[10.2984,47.65736],[10.29854,47.65787],[10.29861,47.65822],[10.29866,47.65857],[10.29868,47.65915],[10.29868,47.65973],[10.29867,47.66067],[10.2987,47.66135],[10.29875,47.66172],[10.29891,47.6624],[10.29915,47.66328],[10.29924,47.66378],[10.2993,47.66415],[10.2993,47.66472],[10.29925,47.66521],[10.29913,47.6657],[10.29916,47.66587],[10.29922,47.66597],[10.29932,47.66604],[10.29944,47.66608],[10.29967,47.66612],[10.30006,47.66605],[10.30013,47.66604],[10.3005,47.66682],[10.30069,47.66715],[10.30082,47.66736],[10.301,47.66761],[10.30119,47.66782],[10.30147,47.66809],[10.30205,47.66862],[10.30238,47.669],[10.30266,47.66936],[10.30284,47.6696],[10.30288,47.66965],[10.30307,47.66992],[10.30326,47.67018],[10.30336,47.67033],[10.30336,47.67034],[10.30343,47.67051],[10.30344,47.67066],[10.30341,47.67105],[10.30351,47.67103],[10.30363,47.67105],[10.30376,47.67107],[10.30381,47.67106],[10.30384,47.67105],[10.30391,47.671],[10.30395,47.67091],[10.30396,47.67084],[10.30399,47.67079],[10.304,47.67077],[10.30404,47.67072],[10.30412,47.67066],[10.30515,47.6701],[10.30535,47.67],[10.30571,47.66982],[10.30584,47.66975],[10.3062,47.66959],[10.30632,47.66951],[10.30637,47.66946],[10.3064,47.66943],[10.30644,47.66938],[10.30648,47.66932],[10.30652,47.66925],[10.30653,47.6692],[10.30655,47.66913],[10.30656,47.66906],[10.30657,47.66899],[10.30656,47.66895],[10.30654,47.66887],[10.3065,47.66878],[10.30644,47.66869],[10.3062,47.66844],[10.30598,47.66821],[10.30582,47.66801],[10.30578,47.66791],[10.30577,47.66788],[10.30576,47.66783],[10.30576,47.66778],[10.30578,47.66769],[10.30582,47.66761],[10.30589,47.66754],[10.30601,47.66747],[10.30617,47.66737],[10.30625,47.66733],[10.3063,47.66728],[10.30631,47.66723],[10.3063,47.66715],[10.30623,47.66708],[10.30592,47.6668],[10.30591,47.66679],[10.30583,47.66672],[10.30576,47.66667],[10.30563,47.66657],[10.305,47.66608],[10.30488,47.66597],[10.30485,47.66587],[10.30489,47.66577],[10.30528,47.66552],[10.30537,47.66547],[10.30554,47.66537],[10.30565,47.66531],[10.30572,47.66526],[10.30587,47.66514],[10.30596,47.66501],[10.30598,47.66489],[10.30597,47.6647],[10.30576,47.66397],[10.3057,47.66375],[10.30565,47.66353],[10.30565,47.66341],[10.3057,47.66332],[10.30579,47.66326],[10.30665,47.66302],[10.3068,47.66299],[10.30696,47.66297],[10.30706,47.66296],[10.30728,47.66295],[10.3074,47.66295],[10.30754,47.66294],[10.3077,47.66292],[10.30779,47.66289],[10.30796,47.66298],[10.30804,47.66302],[10.30814,47.66303],[10.30829,47.66303],[10.30828,47.66296],[10.30829,47.6629],[10.30833,47.66283]],"type":"LineString"},"properties":{"quelle":"OSRM router.project-osrm.org, Profil driving","von":[47.559,10.217],"nach":[47.66261,10.30881],"distanz_m":17223.3,"dauer_s":962.6,"punkte":475}}
