{"type":"Feature","geometry":{"coordinates":[[10.25058,47.54699],[10.25071,47.54682],[10.25078,47.54665],[10.25076,47.54647],[10.25061,47.54628],[10.25025,47.5459],[10.24994,47.54577],[10.24946,47.54568],[10.24907,47.54559],[10.2488,47.54546],[10.24852,47.54525],[10.24806,47.54473],[10.2482,47.54462],[10.24868,47.54434],[10.24897,47.54421],[10.24971,47.54403],[10.25,47.54388],[10.25022,47.54376],[10.25047,47.54366],[10.25098,47.54358],[10.25285,47.54364],[10.25332,47.54365],[10.25397,47.54366],[10.25453,47.54355],[10.2549,47.5435],[10.25528,47.54348],[10.25589,47.54356],[10.25617,47.54357],[10.25651,47.54358],[10.25688,47.54358],[10.25712,47.54357],[10.25733,47.54357],[10.25741,47.54356],[10.25749,47.54354],[10.25761,47.54348],[10.25766,47.54345],[10.25772,47.5434],[10.25777,47.54332],[10.2578,47.54326],[10.25784,47.5431],[10.25785,47.54299],[10.25785,47.54285],[10.25786,47.54279],[10.25789,47.54274],[10.25795,47.5427],[10.25805,47.54267],[10.25804,47.54265],[10.25804,47.54261],[10.25805,47.54258],[10.25808,47.54254],[10.25808,47.54232],[10.25804,47.54203],[10.25804,47.54199],[10.25802,47.54136],[10.25802,47.54128],[10.25801,47.54113],[10.258,47.54091],[10.25792,47.54037],[10.25785,47.53994],[10.25782,47.53974],[10.25783,47.53958],[10.25787,47.53936],[10.25793,47.53912],[10.25794,47.5391],[10.25805,47.53882],[10.25812,47.53865],[10.25817,47.53835],[10.25817,47.53833],[10.25817,47.53815],[10.25817,47.53785],[10.25809,47.53737],[10.25809,47.53717],[10.25812,47.53688],[10.2582,47.5365],[10.25822,47.53641],[10.25826,47.53614],[10.25827,47.53586],[10.2582,47.53565],[10.25795,47.53525],[10.2578,47.53496],[10.25772,47.53468],[10.25768,47.5341],[10.25758,47.5332],[10.25754,47.53282],[10.25751,47.53243],[10.25756,47.53203],[10.25766,47.53155],[10.25775,47.53111],[10.25779,47.53085],[10.2578,47.53064],[10.25779,47.53041],[10.25776,47.53026],[10.25769,47.53005],[10.25764,47.52996],[10.2576,47.52988],[10.25743,47.52959],[10.25733,47.52937],[10.25728,47.52913],[10.25726,47.52892],[10.25729,47.52851],[10.25735,47.52824],[10.25745,47.528],[10.25748,47.52791],[10.25758,47.52776],[10.25771,47.52755],[10.25775,47.52748],[10.25831,47.5269],[10.25887,47.52635],[10.25921,47.52583],[10.25928,47.52573],[10.25966,47.52522],[10.26013,47.52488],[10.26044,47.52471],[10.26052,47.52467],[10.26101,47.52442],[10.26115,47.52434],[10.26127,47.52428],[10.26159,47.5241],[10.26162,47.52409],[10.26171,47.52403],[10.26184,47.52392],[10.26187,47.5239],[10.26199,47.52379],[10.26206,47.52373],[10.26223,47.52358],[10.26269,47.52316],[10.2629,47.52298],[10.26355,47.52238],[10.26388,47.52208],[10.26426,47.52173],[10.26469,47.52135],[10.26487,47.5212],[10.26521,47.52099],[10.26553,47.52082],[10.26578,47.52071],[10.26619,47.52052],[10.2662,47.52052],[10.26643,47.52045],[10.26675,47.52037],[10.2673,47.52023],[10.26738,47.52019],[10.26746,47.52016],[10.26751,47.52014],[10.26757,47.52013],[10.26757,47.52008],[10.26759,47.52003],[10.26764,47.51999],[10.26768,47.51996],[10.26774,47.51995],[10.2678,47.51995],[10.26787,47.51995],[10.26793,47.51997],[10.26799,47.52001],[10.26802,47.52006],[10.2681,47.52012],[10.26816,47.52014],[10.26824,47.52018],[10.26831,47.52023],[10.26841,47.52024],[10.26853,47.52026],[10.26864,47.52028],[10.26871,47.52028],[10.26875,47.52028],[10.2691,47.5203],[10.26935,47.5203],[10.26945,47.52031],[10.26969,47.52031],[10.27088,47.52033],[10.27104,47.52034],[10.27142,47.52035],[10.27194,47.52036],[10.27218,47.52036],[10.2725,47.52038],[10.27291,47.52039],[10.27416,47.52041],[10.27447,47.52042],[10.27506,47.52043],[10.27548,47.52044],[10.27577,47.52043],[10.27667,47.52041],[10.27669,47.52041],[10.27731,47.52038],[10.27774,47.52033],[10.27808,47.52028],[10.27872,47.52019],[10.27884,47.52017],[10.27917,47.5201],[10.28076,47.5198],[10.28128,47.5197],[10.28138,47.51968],[10.28143,47.51967],[10.28159,47.51955],[10.28167,47.5194],[10.28167,47.51918],[10.28151,47.51879],[10.28142,47.51853],[10.28133,47.51829],[10.28132,47.51826],[10.28131,47.51823],[10.28125,47.51806],[10.28112,47.51771],[10.28102,47.51713],[10.281,47.51665],[10.281,47.51656],[10.28105,47.51637],[10.28116,47.51615],[10.28128,47.51592],[10.28133,47.51578],[10.28132,47.51526],[10.28112,47.51527],[10.28101,47.51528],[10.28097,47.51507]],"type":"LineString"},"properties":{"quelle":"OSRM router.project-osrm.org, Profil driving","von":[47.54853,10.25153],"nach":[47.515,10.281],"distanz_m":5695.7,"dauer_s":527.3,"punkte":212}}
