{"type":"Feature","geometry":{"coordinates":[[10.33527,47.62615],[10.33528,47.62627],[10.3354,47.62637],[10.33574,47.62651],[10.33633,47.62672],[10.33676,47.62692],[10.33705,47.62694],[10.33852,47.627],[10.33972,47.62709],[10.34014,47.62717],[10.34118,47.62742],[10.34142,47.62751],[10.3417,47.6277],[10.34201,47.62783],[10.34299,47.62811],[10.34343,47.62819],[10.34374,47.62823],[10.34379,47.62833],[10.34389,47.62842],[10.34399,47.62846],[10.34409,47.62853],[10.34416,47.62859],[10.3442,47.62868],[10.34437,47.62863],[10.3445,47.6286],[10.3446,47.62856],[10.34471,47.62876],[10.34476,47.62893],[10.34476,47.629],[10.34477,47.62906],[10.34486,47.62913],[10.34503,47.62924],[10.34547,47.6298],[10.34566,47.62995],[10.34586,47.63007],[10.34622,47.63022],[10.34657,47.63031],[10.34707,47.63038],[10.3474,47.63043],[10.34793,47.63049],[10.34836,47.6305],[10.3487,47.63049],[10.34897,47.63046],[10.34936,47.63042],[10.35,47.63038],[10.35035,47.63039],[10.35064,47.6304],[10.35106,47.63044],[10.35144,47.63051],[10.35184,47.6306],[10.3521,47.63067],[10.35248,47.63081],[10.3527,47.6309],[10.35298,47.63103],[10.35318,47.63114],[10.35343,47.6313],[10.35373,47.63152],[10.35396,47.6317],[10.3541,47.63183],[10.35435,47.63204],[10.3546,47.63226],[10.35473,47.63238],[10.35491,47.63251],[10.3551,47.63263],[10.35523,47.6327],[10.35572,47.63287],[10.35557,47.63329],[10.35556,47.63343],[10.35557,47.63356],[10.35569,47.634],[10.35571,47.63421],[10.35571,47.63431],[10.35567,47.63446],[10.35542,47.63507],[10.35538,47.63517],[10.35537,47.63525],[10.35537,47.63538],[10.35541,47.63575],[10.35553,47.63676],[10.35555,47.6369],[10.35553,47.6371],[10.35545,47.63729],[10.35535,47.63748],[10.35506,47.6379],[10.35475,47.63838],[10.35471,47.63851],[10.35469,47.63865],[10.35469,47.63872],[10.35472,47.63882],[10.35478,47.6389],[10.35487,47.63899],[10.35567,47.63971],[10.35581,47.63986],[10.35595,47.64005],[10.35608,47.6403],[10.35617,47.64053],[10.35661,47.64203],[10.35662,47.64216],[10.35663,47.64229],[10.35658,47.64246],[10.35652,47.64253],[10.35645,47.64259],[10.35629,47.6427],[10.35607,47.64277],[10.35582,47.64282],[10.35547,47.64285],[10.35522,47.64287],[10.35398,47.64294],[10.35368,47.64296],[10.35356,47.64297],[10.35339,47.64303],[10.35325,47.6431],[10.35308,47.6432],[10.35295,47.6433],[10.35285,47.64342],[10.35279,47.64351],[10.35275,47.6436],[10.35259,47.6442],[10.35243,47.64486],[10.3524,47.64532],[10.35246,47.64572],[10.35254,47.64603],[10.35263,47.64625],[10.35314,47.6473],[10.35361,47.64831],[10.35366,47.6484],[10.35373,47.64857],[10.35382,47.64879],[10.35387,47.649],[10.35388,47.64932],[10.35392,47.64985],[10.35401,47.6503],[10.35412,47.65085],[10.35423,47.65133],[10.35425,47.65143],[10.35424,47.65151],[10.35422,47.65156],[10.35418,47.65161],[10.35412,47.65165],[10.35405,47.65169],[10.35398,47.65171],[10.35388,47.65172],[10.3538,47.65172],[10.35373,47.65171],[10.35366,47.65169],[10.3536,47.65167],[10.35356,47.65163],[10.3535,47.65157],[10.35344,47.6515],[10.35336,47.6514],[10.35331,47.65133],[10.3532,47.65116],[10.35318,47.65113],[10.35306,47.65099],[10.35288,47.65082],[10.35275,47.65074],[10.35258,47.65065],[10.35229,47.65054],[10.35199,47.65048],[10.35163,47.65044],[10.35128,47.65039],[10.35104,47.65032],[10.35081,47.65023],[10.35049,47.65005],[10.34998,47.64972],[10.34974,47.64957],[10.34961,47.64954],[10.34942,47.64952],[10.34928,47.64954],[10.34914,47.6496],[10.34904,47.64968],[10.34897,47.64977],[10.34894,47.64989],[10.34896,47.65],[10.349,47.65013],[10.34971,47.65152],[10.34991,47.65194],[10.35008,47.6523],[10.3501,47.65238],[10.35012,47.65252],[10.35013,47.65272],[10.35009,47.65284],[10.35001,47.65298],[10.34987,47.65311],[10.34973,47.65322],[10.34957,47.65331],[10.34877,47.65364],[10.34855,47.65375],[10.34841,47.65389],[10.34823,47.65411],[10.34815,47.65424],[10.34811,47.65431],[10.34808,47.65442],[10.34807,47.65454],[10.34806,47.6547],[10.34809,47.65485],[10.34814,47.65498],[10.34821,47.65509],[10.34842,47.65535],[10.34866,47.65563],[10.34875,47.65576],[10.34885,47.65592],[10.34889,47.65603],[10.34891,47.65608],[10.34897,47.65632],[10.34898,47.65641],[10.349,47.65655],[10.34902,47.65666],[10.34904,47.65676],[10.34908,47.65703],[10.34913,47.65718],[10.34915,47.65726],[10.34941,47.65803],[10.34949,47.65823],[10.34952,47.65838],[10.34951,47.65851],[10.34948,47.65866],[10.34945,47.65881],[10.34944,47.65888],[10.34944,47.65897],[10.34946,47.65908],[10.34947,47.65913],[10.34952,47.65925],[10.34962,47.65938],[10.34968,47.65943],[10.34977,47.6595],[10.35007,47.65966],[10.35019,47.65973],[10.35028,47.65979],[10.35036,47.65986],[10.35039,47.6599],[10.35041,47.65995],[10.35042,47.65999],[10.35041,47.66003],[10.35039,47.66014],[10.35038,47.66017],[10.35034,47.66027],[10.35029,47.66034],[10.35025,47.6604],[10.3501,47.66054],[10.34999,47.66062],[10.3498,47.66086],[10.34976,47.66088],[10.3497,47.6609],[10.34965,47.66091],[10.34958,47.66091],[10.34935,47.6609],[10.34925,47.66089],[10.34918,47.66089],[10.34908,47.6609],[10.34887,47.66093],[10.34878,47.66097],[10.34836,47.66113],[10.34806,47.66121],[10.34789,47.66125],[10.34778,47.66126],[10.34743,47.66128],[10.34733,47.66129],[10.34721,47.6613],[10.34709,47.66131],[10.34703,47.66132],[10.34699,47.66134],[10.34691,47.66137],[10.34689,47.66139],[10.34686,47.66141],[10.34681,47.66146],[10.34638,47.66193],[10.34625,47.66207],[10.34606,47.66225],[10.34587,47.66245],[10.3455,47.66279],[10.34496,47.66328],[10.34402,47.66398],[10.34321,47.66461],[10.34291,47.66485],[10.34245,47.66524],[10.34207,47.66557],[10.34195,47.66569],[10.34175,47.6659],[10.34131,47.66639],[10.34114,47.66662],[10.34098,47.66686],[10.34068,47.66738],[10.34055,47.6677],[10.34044,47.668],[10.34031,47.66846],[10.34023,47.66875],[10.34022,47.6688],[10.3401,47.6693],[10.33998,47.66969],[10.33989,47.67001],[10.33971,47.67047],[10.33967,47.67057],[10.33945,47.67102],[10.33928,47.67129],[10.33909,47.67159],[10.33877,47.67199],[10.33851,47.67231],[10.33821,47.67263],[10.33816,47.67268],[10.33785,47.67296],[10.3375,47.67325],[10.33694,47.67367],[10.33685,47.67374],[10.3364,47.67403],[10.33592,47.6743],[10.33556,47.6745],[10.33516,47.6747],[10.33454,47.67495],[10.33442,47.675],[10.334,47.67514],[10.33323,47.67538],[10.33266,47.67555],[10.33242,47.67562],[10.33212,47.67573],[10.33174,47.67591],[10.33133,47.67612],[10.33113,47.67626],[10.3309,47.67644],[10.33068,47.67664],[10.33052,47.67681],[10.33036,47.67702],[10.33016,47.67732],[10.33005,47.67754],[10.33001,47.67764],[10.32997,47.67776],[10.3299,47.67801],[10.32987,47.67813],[10.32974,47.67867],[10.32949,47.68025],[10.32944,47.68057],[10.32943,47.68065],[10.32949,47.68065],[10.32958,47.68067],[10.32963,47.68072],[10.32964,47.68079],[10.32963,47.68087],[10.32956,47.68091],[10.32946,47.68095],[10.32938,47.68094],[10.32937,47.681],[10.32936,47.68105],[10.3293,47.68134],[10.32918,47.68204],[10.32917,47.68207],[10.32914,47.6822],[10.32913,47.68224],[10.32906,47.68258],[10.32897,47.68306],[10.3288,47.68372],[10.32869,47.68415],[10.32868,47.6842],[10.32865,47.68431],[10.32864,47.68434],[10.32856,47.68465],[10.32835,47.68546],[10.32822,47.68598],[10.32816,47.68618],[10.32783,47.6873],[10.32779,47.6875],[10.32776,47.68767],[10.32767,47.6881],[10.32764,47.68841],[10.32766,47.68865],[10.32775,47.689],[10.32785,47.68923],[10.32794,47.68937],[10.32821,47.68979],[10.32832,47.69005],[10.32833,47.69015],[10.32843,47.69017],[10.3285,47.6902],[10.32854,47.69025],[10.32856,47.6903],[10.32854,47.69035],[10.32851,47.69039],[10.32861,47.69046],[10.32892,47.69073],[10.32918,47.69099],[10.3294,47.69114],[10.32971,47.69132],[10.32994,47.69143],[10.33013,47.69151],[10.33078,47.69172],[10.33118,47.69192],[10.3314,47.69204],[10.3316,47.69218],[10.33179,47.69233],[10.33211,47.69265],[10.33226,47.69284],[10.33239,47.69305],[10.3325,47.69326],[10.33267,47.69377],[10.33274,47.69399],[10.33282,47.69428],[10.3329,47.69453],[10.33292,47.69463],[10.33298,47.69463],[10.33304,47.69464],[10.33309,47.69466],[10.33313,47.69469],[10.33316,47.69472],[10.33316,47.69476],[10.33315,47.69481],[10.33312,47.69485],[10.33307,47.69488],[10.33301,47.6949],[10.33303,47.69514],[10.33303,47.69535],[10.333,47.69571],[10.33286,47.6961],[10.33271,47.69639],[10.33247,47.69671],[10.33213,47.69708],[10.3318,47.69745],[10.33164,47.69766],[10.33153,47.69782],[10.3314,47.69806],[10.33134,47.69815],[10.33121,47.69848],[10.33106,47.69893],[10.331,47.69937],[10.33099,47.69949],[10.33099,47.69969],[10.33099,47.69988],[10.33104,47.70015],[10.33111,47.70042],[10.33122,47.70068],[10.33132,47.70087],[10.3314,47.701],[10.33172,47.70134],[10.33192,47.70151],[10.33208,47.70163],[10.33245,47.70185],[10.33315,47.70227],[10.33402,47.70292],[10.33412,47.703],[10.33464,47.70342],[10.33506,47.70376],[10.33595,47.70441],[10.33635,47.70476],[10.33646,47.70485],[10.33657,47.70489],[10.33662,47.70487],[10.3367,47.70485],[10.33678,47.70486],[10.33682,47.70487],[10.33684,47.70488],[10.33687,47.70489],[10.33691,47.70493],[10.33695,47.705],[10.33695,47.70503],[10.33694,47.70507],[10.33691,47.7051],[10.33685,47.70514],[10.33674,47.70517],[10.33665,47.70517],[10.3366,47.70515],[10.33656,47.70523],[10.33643,47.70539],[10.33635,47.70552],[10.3361,47.706],[10.33566,47.70682],[10.33543,47.70711],[10.33516,47.7074],[10.335,47.70755],[10.33498,47.70757],[10.3346,47.70784],[10.33454,47.70788],[10.33435,47.70798],[10.33431,47.70801],[10.33268,47.70871],[10.33207,47.70895],[10.33168,47.70914],[10.33159,47.70918],[10.33146,47.70924],[10.3312,47.70938],[10.33106,47.70948],[10.33084,47.70965],[10.33062,47.70985],[10.33055,47.70991],[10.33042,47.71005],[10.33031,47.71017],[10.3302,47.71028],[10.33014,47.71034],[10.33008,47.71041],[10.32999,47.7105],[10.32985,47.71065],[10.32955,47.71097],[10.32949,47.71102],[10.32939,47.71115],[10.32932,47.71124],[10.32922,47.71139],[10.32919,47.71144],[10.32915,47.71153],[10.32912,47.71161],[10.3291,47.71167],[10.32892,47.71238],[10.32884,47.71261],[10.32876,47.7128],[10.32871,47.7129],[10.32841,47.71332],[10.32836,47.71339],[10.3281,47.71376],[10.32802,47.71391],[10.32794,47.71404],[10.32783,47.71426],[10.32774,47.71442],[10.32763,47.71454],[10.32747,47.71464],[10.3274,47.71467],[10.32658,47.71493],[10.32651,47.71496],[10.32643,47.71499],[10.32636,47.71504],[10.32632,47.71509],[10.32629,47.71513],[10.32626,47.7152],[10.32623,47.71531],[10.32619,47.71541],[10.32617,47.71547],[10.32613,47.71552],[10.32608,47.71558],[10.32601,47.71565],[10.32598,47.71572],[10.32598,47.71578],[10.32602,47.71585],[10.3261,47.71591],[10.32625,47.71595],[10.32647,47.71606],[10.32666,47.71617],[10.32686,47.71627],[10.32692,47.7163],[10.32704,47.71636],[10.32713,47.7164],[10.32727,47.71642],[10.3274,47.71641],[10.32748,47.71637],[10.32751,47.71634],[10.32755,47.71628],[10.32754,47.71618],[10.32747,47.71609],[10.32727,47.71598],[10.32707,47.71594],[10.32665,47.71586],[10.32634,47.7158],[10.32536,47.71562],[10.32498,47.71555],[10.32446,47.71544],[10.32372,47.71531],[10.32349,47.71527],[10.3234,47.71526],[10.32296,47.7152],[10.32272,47.7152],[10.32155,47.71536],[10.32128,47.71541],[10.32099,47.71549],[10.32083,47.71553],[10.32061,47.71567],[10.32051,47.71578],[10.32047,47.71587],[10.32039,47.71592],[10.32029,47.71604],[10.32024,47.71611],[10.32026,47.71625],[10.32026,47.7163],[10.32031,47.71637],[10.32039,47.71642],[10.32052,47.71648],[10.32062,47.71649],[10.32081,47.71651],[10.32104,47.71654],[10.32114,47.71656],[10.32129,47.71658],[10.32139,47.71661],[10.32144,47.71665],[10.32151,47.71672],[10.32154,47.71679],[10.32156,47.7169],[10.32158,47.71727],[10.32157,47.71773],[10.32156,47.71782],[10.32152,47.71808],[10.32142,47.71843],[10.32163,47.71846],[10.3218,47.71848],[10.32204,47.71845],[10.3219,47.71801]],"type":"LineString"},"properties":{"quelle":"OSRM router.project-osrm.org, Profil driving","von":[47.626,10.33461],"nach":[47.718,10.322],"distanz_m":14801.2,"dauer_s":1603.8,"punkte":588}}
