{"type":"Feature","geometry":{"coordinates":[[10.21695,47.55887],[10.21738,47.55879],[10.21733,47.5587],[10.218,47.5586],[10.21829,47.55855],[10.21858,47.55851],[10.2188,47.55847],[10.21922,47.55841],[10.21976,47.55835],[10.22012,47.55834],[10.22048,47.55834],[10.22092,47.55837],[10.22108,47.55837],[10.22138,47.55836],[10.22158,47.55833],[10.22181,47.55827],[10.22189,47.55825],[10.22242,47.55805],[10.22266,47.55794],[10.22272,47.55792],[10.22292,47.55784],[10.22299,47.55782],[10.22329,47.55776],[10.22354,47.55771],[10.22387,47.55768],[10.22439,47.55768],[10.22466,47.55769],[10.22487,47.55767],[10.22513,47.55763],[10.2256,47.55748],[10.22565,47.55746],[10.22575,47.55743],[10.22592,47.55738],[10.22653,47.55719],[10.2266,47.55716],[10.22754,47.55688],[10.22757,47.55686],[10.22842,47.55655],[10.22891,47.55633],[10.2294,47.55599],[10.22951,47.55592],[10.2297,47.55579],[10.22973,47.55577],[10.23007,47.55553],[10.23037,47.55533],[10.23044,47.55527],[10.23052,47.55521],[10.2309,47.55497],[10.231,47.55491],[10.23107,47.55487],[10.23127,47.55476],[10.23133,47.55473],[10.23144,47.55464],[10.2315,47.5546],[10.23152,47.55458],[10.2315,47.55456],[10.23149,47.55454],[10.23149,47.55452],[10.23149,47.5545],[10.2315,47.55448],[10.23151,47.55446],[10.23153,47.55444],[10.23157,47.55442],[10.23161,47.55441],[10.23165,47.55441],[10.23168,47.55441],[10.23171,47.55442],[10.23174,47.55443],[10.23177,47.55444],[10.23179,47.55446],[10.23181,47.55448],[10.23182,47.55451],[10.23182,47.55453],[10.23193,47.55462],[10.23201,47.5547],[10.23249,47.55492],[10.2327,47.55503],[10.23273,47.55504],[10.23386,47.55559],[10.23423,47.55574],[10.23428,47.55575],[10.23457,47.55584],[10.2349,47.55591],[10.2353,47.55598],[10.23587,47.55603],[10.23621,47.55605],[10.23635,47.55606],[10.23668,47.55606],[10.23726,47.55603],[10.2378,47.55597],[10.23841,47.55586],[10.23884,47.55576],[10.239,47.55571],[10.23975,47.55546],[10.24047,47.55519],[10.24107,47.55497],[10.24166,47.55477],[10.24217,47.55464],[10.24276,47.55453],[10.24325,47.55449],[10.24372,47.55448],[10.24403,47.55449],[10.24434,47.55452],[10.24473,47.55456],[10.24516,47.55465],[10.24536,47.55469],[10.24559,47.55476],[10.24615,47.55497],[10.24657,47.55516],[10.24706,47.55545],[10.24752,47.55584],[10.24776,47.55615],[10.2479,47.55631],[10.24797,47.55636],[10.24805,47.55643],[10.24808,47.55646],[10.24814,47.55646],[10.24822,47.55647],[10.24827,47.55649],[10.2483,47.55651],[10.24851,47.55644],[10.2487,47.5564],[10.24889,47.55638],[10.24905,47.5564],[10.24921,47.55647],[10.24949,47.55661],[10.24963,47.55666],[10.24973,47.55666],[10.24987,47.55665],[10.25019,47.55655],[10.25077,47.55616],[10.25113,47.55594],[10.25277,47.55485],[10.25511,47.55332],[10.25553,47.55305],[10.25758,47.55169],[10.25911,47.55069],[10.26146,47.54915],[10.26292,47.54819],[10.26365,47.54768],[10.26427,47.54725],[10.26494,47.54672],[10.26551,47.54621],[10.26597,47.54575],[10.2664,47.54522],[10.2667,47.54478],[10.26701,47.54424],[10.26719,47.54382],[10.26731,47.54348],[10.26741,47.54312],[10.26749,47.54274],[10.26754,47.54235],[10.26756,47.54205],[10.26756,47.54132],[10.2675,47.54062],[10.2674,47.53986],[10.2673,47.5392],[10.26702,47.53737],[10.26689,47.53642],[10.26678,47.53556],[10.26662,47.53407],[10.26658,47.53324],[10.26656,47.53251],[10.26657,47.53164],[10.26667,47.53053],[10.26679,47.52959],[10.26695,47.52869],[10.26705,47.52824],[10.2671,47.52801],[10.26745,47.52648],[10.26759,47.52598],[10.26802,47.52445],[10.26811,47.52413],[10.26839,47.52316],[10.26858,47.52251],[10.26867,47.52219],[10.26872,47.52198],[10.26881,47.52161],[10.26884,47.52144],[10.26889,47.52117],[10.26892,47.5209],[10.26895,47.52055],[10.26899,47.52015],[10.26903,47.51962],[10.26904,47.51949],[10.26906,47.51927],[10.2691,47.51902],[10.26915,47.51879],[10.2692,47.51861],[10.26925,47.51839],[10.26928,47.5183],[10.26933,47.51817],[10.26942,47.51794],[10.26954,47.51766],[10.26975,47.51725],[10.27023,47.51641],[10.27031,47.51626],[10.27038,47.5161],[10.2704,47.51607],[10.27049,47.51586],[10.27059,47.51563],[10.27071,47.51546],[10.27082,47.51512],[10.27092,47.51475],[10.27104,47.5142],[10.27106,47.51412],[10.27119,47.5135],[10.27131,47.51285],[10.27135,47.51262],[10.27146,47.51195],[10.27154,47.51144],[10.2716,47.51102],[10.27166,47.51065],[10.27169,47.51015],[10.27171,47.50991],[10.27171,47.50945],[10.2717,47.50914],[10.2717,47.50909],[10.27168,47.50888],[10.2716,47.50844],[10.27159,47.50836],[10.27151,47.508],[10.27139,47.50752],[10.27117,47.507],[10.27096,47.50653],[10.27083,47.50626],[10.27074,47.50611],[10.2706,47.5059],[10.27045,47.50565],[10.27023,47.50535],[10.27008,47.50514],[10.26976,47.50476],[10.26925,47.50423],[10.2686,47.50358],[10.26836,47.50332],[10.268,47.50293],[10.2676,47.50243],[10.26721,47.50187],[10.26692,47.50141],[10.26676,47.50111],[10.26653,47.50066],[10.26641,47.50039],[10.26633,47.50015],[10.26629,47.50006],[10.26612,47.49955],[10.266,47.49905],[10.26586,47.49842],[10.26567,47.49757],[10.2655,47.49671],[10.26543,47.49632],[10.26543,47.49618],[10.26545,47.49601],[10.26548,47.49588],[10.2655,47.49583],[10.26555,47.49571],[10.26614,47.49455],[10.26653,47.49378],[10.26661,47.49355],[10.26666,47.49332],[10.2667,47.49308],[10.26675,47.4919],[10.26675,47.49167],[10.26669,47.49122],[10.26664,47.49096],[10.26666,47.49068],[10.26685,47.48985],[10.26699,47.48901],[10.26702,47.48886],[10.26706,47.48836],[10.26703,47.48807],[10.26692,47.48761],[10.26691,47.48738],[10.26693,47.48716],[10.26701,47.4869],[10.26715,47.48648],[10.26718,47.48628],[10.26718,47.48607],[10.26712,47.48585],[10.26703,47.48564],[10.26653,47.48498],[10.26641,47.48476],[10.26635,47.48453],[10.26633,47.48421],[10.26633,47.48369],[10.26632,47.48345],[10.2663,47.48321],[10.26624,47.48284],[10.26616,47.48249],[10.26609,47.48218],[10.26601,47.48192],[10.26596,47.4816],[10.26596,47.48133],[10.26598,47.48118],[10.26603,47.48101],[10.26633,47.48047],[10.26661,47.47985],[10.26665,47.47965],[10.26666,47.47939],[10.26666,47.47905],[10.26665,47.47874],[10.26659,47.4782],[10.26657,47.47787],[10.26657,47.4776],[10.26659,47.47728],[10.26665,47.47691],[10.2667,47.47663],[10.26678,47.47632],[10.2668,47.47626],[10.26695,47.47579],[10.26719,47.47513],[10.2675,47.47421],[10.26768,47.4737],[10.26779,47.47329],[10.26786,47.47298],[10.26793,47.47266],[10.26797,47.47229],[10.26798,47.47193],[10.26798,47.47163],[10.26798,47.47147],[10.26799,47.4714],[10.26799,47.47109],[10.268,47.47102],[10.268,47.47091],[10.268,47.46992],[10.268,47.46976],[10.268,47.46964],[10.268,47.46957],[10.268,47.46947],[10.26801,47.46895],[10.26804,47.46861],[10.26808,47.46793],[10.2681,47.46769],[10.26815,47.46689],[10.26837,47.46409],[10.26837,47.46375],[10.26833,47.46335],[10.26823,47.46297],[10.26815,47.46274],[10.26803,47.46247],[10.26791,47.46221],[10.26786,47.46211],[10.26766,47.46175],[10.26749,47.46142],[10.26739,47.46116],[10.26735,47.46108],[10.26726,47.46078],[10.26719,47.46041],[10.26718,47.46039],[10.26716,47.46026],[10.26701,47.46027],[10.26666,47.46032],[10.26628,47.46032],[10.26623,47.46031],[10.2658,47.46025],[10.26559,47.46022],[10.26525,47.46015],[10.26505,47.46009],[10.2637,47.45968],[10.26345,47.45961],[10.26256,47.45935],[10.261,47.45897],[10.26031,47.45884],[10.25906,47.45868],[10.2588,47.45862],[10.2585,47.45855],[10.25821,47.45844],[10.25816,47.45843],[10.25809,47.4584],[10.25797,47.45837],[10.25775,47.45829],[10.25755,47.45822],[10.25639,47.45791],[10.25581,47.45775],[10.25498,47.45753],[10.25453,47.45735],[10.25405,47.4571],[10.25295,47.45654],[10.25229,47.45635],[10.2519,47.45628],[10.25105,47.45613],[10.25064,47.45604],[10.25018,47.45589],[10.24958,47.45566],[10.24935,47.45554],[10.24861,47.45524],[10.24815,47.45507],[10.24775,47.45497],[10.24702,47.45485],[10.24676,47.45481],[10.24639,47.45474],[10.24586,47.45459],[10.24558,47.4545],[10.24531,47.45438],[10.24514,47.45428],[10.24499,47.45417],[10.24494,47.45414],[10.24481,47.45403],[10.24466,47.45385],[10.24451,47.45351],[10.24443,47.45325],[10.24425,47.45268],[10.24415,47.4524],[10.24413,47.45235],[10.24405,47.4522],[10.24388,47.45198],[10.2438,47.45192],[10.24376,47.4519],[10.24354,47.45175],[10.24329,47.45166],[10.24307,47.45159],[10.24266,47.45146],[10.24253,47.45141],[10.24228,47.4513],[10.24201,47.45114],[10.24148,47.45069],[10.24059,47.44994],[10.24049,47.44985],[10.24046,47.44982],[10.2402,47.44962],[10.24001,47.44952],[10.23985,47.44945],[10.23967,47.4494],[10.23958,47.44938],[10.23945,47.44939],[10.23936,47.44938],[10.2392,47.44937],[10.23909,47.44937],[10.23897,47.44937],[10.23876,47.44939],[10.23775,47.44952],[10.23721,47.44953],[10.23691,47.44947],[10.23642,47.44933],[10.23592,47.44924],[10.23568,47.44924],[10.23545,47.44924],[10.23493,47.44923],[10.23424,47.44912],[10.23408,47.44909],[10.2338,47.44903],[10.23357,47.44895],[10.23352,47.44893],[10.23331,47.44881],[10.23285,47.44832],[10.23276,47.44823],[10.23262,47.44811],[10.23233,47.44786],[10.23196,47.44753],[10.2316,47.44729],[10.23145,47.44719],[10.23142,47.44716],[10.23133,47.44709],[10.23118,47.44696],[10.23111,47.4469],[10.23106,47.44683],[10.23102,47.44678],[10.23095,47.44668],[10.23086,47.44653],[10.23077,47.44639],[10.23064,47.44623],[10.23046,47.44607],[10.23037,47.44599],[10.23025,47.44586],[10.2301,47.44571],[10.22998,47.44556],[10.22995,47.44549],[10.22993,47.44545],[10.22988,47.44526],[10.22988,47.44505],[10.22994,47.44469],[10.23001,47.44443],[10.23003,47.44421],[10.23,47.444],[10.22997,47.44382],[10.22981,47.44347],[10.22968,47.44315],[10.22961,47.44287],[10.22959,47.44259],[10.22963,47.44211],[10.22963,47.44197],[10.22959,47.4418],[10.22954,47.44168],[10.22947,47.44161],[10.22936,47.44148],[10.22927,47.44139],[10.22896,47.44114],[10.2286,47.4409],[10.2284,47.44078],[10.22821,47.44068],[10.22812,47.44065],[10.22801,47.44061],[10.22769,47.44052],[10.22746,47.44046],[10.22727,47.44035],[10.22712,47.44026],[10.22697,47.44019],[10.22673,47.44013],[10.22654,47.44012],[10.22609,47.44019],[10.22587,47.44019],[10.22564,47.44013],[10.22548,47.44005],[10.22522,47.43988],[10.22502,47.4398],[10.22487,47.43975],[10.22457,47.43974],[10.22432,47.43973],[10.22412,47.43969],[10.22398,47.43963],[10.22376,47.43947],[10.22358,47.43939],[10.22349,47.43937],[10.2234,47.43936],[10.22316,47.43938],[10.22292,47.43936],[10.22259,47.43932],[10.2224,47.43927],[10.22207,47.43917],[10.22192,47.4391],[10.22176,47.43899],[10.22145,47.43876],[10.22111,47.43858],[10.22041,47.43832],[10.2203,47.43826],[10.22002,47.43811],[10.21978,47.43797],[10.21957,47.43791],[10.2194,47.43788],[10.21926,47.43788],[10.2191,47.4379],[10.21842,47.43809],[10.2172,47.43837],[10.21687,47.43841],[10.21669,47.43843],[10.21658,47.43849],[10.21652,47.43854],[10.21646,47.43864],[10.21649,47.43884],[10.21646,47.43894],[10.21638,47.43903],[10.21623,47.43909],[10.216,47.43913],[10.21584,47.4392],[10.21566,47.43933],[10.21555,47.43938],[10.21543,47.43941],[10.21532,47.43941],[10.21523,47.43939],[10.21512,47.43934],[10.21489,47.43919],[10.21476,47.43913],[10.21461,47.43911],[10.21431,47.43914],[10.21409,47.43911],[10.21383,47.43908],[10.21355,47.43909],[10.2134,47.43908],[10.21328,47.43905],[10.21316,47.439],[10.21298,47.43895],[10.21278,47.43894],[10.21263,47.43896],[10.2125,47.43895],[10.21236,47.43892],[10.21224,47.43883],[10.21213,47.43866],[10.21199,47.4386],[10.21185,47.43853],[10.21176,47.43846],[10.2117,47.43837],[10.21161,47.43824],[10.21154,47.43819],[10.21143,47.43815],[10.21128,47.43814],[10.21096,47.43814],[10.21084,47.43812],[10.2107,47.43808],[10.21058,47.43799],[10.21047,47.43787],[10.21032,47.43766],[10.21022,47.43759],[10.21008,47.43753],[10.20992,47.4375],[10.20959,47.43749],[10.20942,47.43747],[10.20927,47.43743],[10.2091,47.43737],[10.2089,47.43729],[10.2087,47.43725],[10.20849,47.43724],[10.20816,47.43726],[10.20799,47.43724],[10.20786,47.4372],[10.2077,47.43714],[10.20748,47.43707],[10.20733,47.43706],[10.20708,47.43707],[10.20688,47.43707],[10.20672,47.43703],[10.20645,47.43694],[10.20625,47.4369],[10.2061,47.43687],[10.20597,47.43682],[10.20567,47.43665],[10.20542,47.43654],[10.20526,47.43644],[10.20516,47.43635],[10.20496,47.43612],[10.20476,47.43592],[10.20463,47.43578],[10.20453,47.43569],[10.20439,47.43561],[10.20422,47.43554],[10.20403,47.43546],[10.2039,47.43538],[10.20383,47.4353],[10.20373,47.43516],[10.20369,47.43511],[10.20362,47.43505],[10.20347,47.43496],[10.20318,47.43483],[10.20291,47.43466],[10.20252,47.43438],[10.20203,47.43404],[10.20188,47.43398],[10.20173,47.43393],[10.20154,47.4339],[10.20133,47.4339],[10.20111,47.43391],[10.20081,47.43395],[10.20035,47.43404],[10.20026,47.43406],[10.20015,47.43406],[10.20001,47.43403],[10.1995,47.43378],[10.19926,47.43368],[10.19909,47.43363],[10.19886,47.43361],[10.19848,47.43358],[10.19843,47.43358],[10.19825,47.43355],[10.19784,47.43343],[10.19772,47.43341],[10.19759,47.4334],[10.1974,47.4334],[10.19717,47.43344],[10.1967,47.43356],[10.19651,47.43359],[10.19639,47.4336],[10.19611,47.43362],[10.19556,47.4336],[10.19531,47.43361],[10.19509,47.43364],[10.19404,47.43387],[10.1938,47.4339],[10.19363,47.43389],[10.19349,47.43385],[10.19337,47.43378],[10.19329,47.43369],[10.19321,47.43359],[10.19312,47.43347],[10.19299,47.43339],[10.19282,47.43333],[10.19266,47.43331],[10.19219,47.43334],[10.192,47.43331],[10.19182,47.43327],[10.19167,47.43326],[10.19155,47.43325],[10.19142,47.43327],[10.19123,47.43333],[10.19111,47.4334],[10.19099,47.43352],[10.1909,47.43366],[10.19078,47.4338],[10.19069,47.43388],[10.19061,47.43394],[10.19048,47.43401],[10.19025,47.43408],[10.18978,47.43415],[10.18962,47.4342],[10.18941,47.43431],[10.18926,47.43434],[10.18912,47.43433],[10.18903,47.43429],[10.18896,47.43423],[10.18892,47.43411],[10.18885,47.43403],[10.18876,47.43399],[10.18868,47.43398],[10.18856,47.43399],[10.1884,47.43402],[10.18822,47.43405],[10.18806,47.43402],[10.18789,47.43394],[10.18746,47.43365],[10.18731,47.43356],[10.18715,47.43352],[10.18705,47.43352],[10.18695,47.43354],[10.18675,47.4336],[10.18661,47.43363],[10.18648,47.43362],[10.18639,47.4336],[10.18615,47.4335],[10.18602,47.43347],[10.18585,47.43347],[10.1856,47.43352],[10.18547,47.43353],[10.18536,47.43352],[10.18525,47.43349],[10.18502,47.43341],[10.18491,47.4334],[10.18481,47.43342],[10.18472,47.43345],[10.18467,47.43348],[10.18462,47.43354],[10.18459,47.43361],[10.18458,47.43375],[10.18455,47.43384],[10.18452,47.43392],[10.18448,47.43398],[10.18439,47.43406],[10.1842,47.43413],[10.18383,47.43423],[10.18368,47.43428],[10.18358,47.43434],[10.18348,47.43442],[10.18341,47.43449],[10.18328,47.43466],[10.18321,47.43473],[10.18308,47.4348],[10.1829,47.43484],[10.18272,47.43485],[10.18262,47.43482],[10.18216,47.43469],[10.18205,47.43467],[10.18193,47.43465],[10.18172,47.43467],[10.18151,47.43471],[10.18112,47.43474],[10.18075,47.43478],[10.18053,47.43485],[10.18027,47.43494],[10.18,47.435],[10.17976,47.43503],[10.17955,47.43507],[10.17941,47.43511],[10.17924,47.43522],[10.17876,47.43564],[10.17842,47.43583],[10.17804,47.43602],[10.17779,47.43617],[10.17768,47.43627],[10.17758,47.43636],[10.17749,47.43645],[10.17738,47.43659],[10.17728,47.43675],[10.17704,47.43713],[10.17691,47.43728],[10.17678,47.43736],[10.17661,47.43745],[10.17639,47.43752],[10.17601,47.43758],[10.17485,47.43768],[10.17452,47.43771],[10.17439,47.43768],[10.17424,47.43765],[10.17406,47.43758],[10.17396,47.43751],[10.17387,47.43744],[10.17382,47.43736],[10.17378,47.43724],[10.17376,47.43711],[10.17373,47.43698],[10.17372,47.43694],[10.17368,47.43677],[10.17358,47.43656],[10.17347,47.4364],[10.17338,47.43627],[10.17328,47.43607],[10.17323,47.43587],[10.17322,47.43564],[10.17327,47.43527],[10.17324,47.4351],[10.1732,47.435],[10.17315,47.43492],[10.17303,47.43477],[10.17286,47.43466],[10.1727,47.43458],[10.17254,47.4345],[10.17245,47.43444],[10.17236,47.43438],[10.1722,47.43425],[10.17201,47.43413],[10.17183,47.43408],[10.1717,47.43406],[10.17148,47.434],[10.17126,47.43392],[10.17104,47.43386],[10.17075,47.43384],[10.17044,47.43387],[10.17033,47.43388],[10.17016,47.43387],[10.16992,47.43382],[10.16969,47.43378],[10.16948,47.43377],[10.16931,47.43377],[10.16914,47.43375],[10.16896,47.43372],[10.1689,47.4337],[10.1687,47.43363],[10.16854,47.43359],[10.1684,47.43357],[10.1682,47.43355],[10.16799,47.43352],[10.16783,47.43346],[10.16766,47.43336],[10.16754,47.4333],[10.16732,47.43324],[10.16708,47.43322],[10.16689,47.43321],[10.16668,47.43319],[10.16635,47.43314],[10.16614,47.43313],[10.16596,47.43315],[10.16581,47.4332],[10.1657,47.43326],[10.1656,47.43333],[10.16554,47.43341],[10.16545,47.43353],[10.16535,47.43361],[10.16521,47.43367],[10.16508,47.4337],[10.16491,47.43369],[10.16477,47.43365],[10.16454,47.43355],[10.16435,47.4335],[10.16419,47.43349],[10.16406,47.4335],[10.16389,47.43354],[10.16374,47.43356],[10.16361,47.43356],[10.16338,47.43353],[10.16326,47.43351],[10.1631,47.43351],[10.1628,47.43354],[10.16262,47.43351],[10.16246,47.43347],[10.16226,47.43339],[10.16211,47.43335],[10.16199,47.43334],[10.16187,47.43335],[10.16175,47.43338],[10.16162,47.43343],[10.16144,47.43349],[10.16128,47.43352],[10.16104,47.43355],[10.16089,47.43359],[10.16077,47.43366],[10.16068,47.43375],[10.16062,47.43381],[10.16054,47.43387],[10.16037,47.43395],[10.16024,47.434],[10.16005,47.43403],[10.15973,47.43408],[10.15904,47.43424],[10.15824,47.43445],[10.15801,47.43449],[10.15775,47.43447],[10.15748,47.43442],[10.1573,47.43441],[10.15712,47.43442],[10.15696,47.43445],[10.15658,47.43451],[10.15588,47.43451],[10.1549,47.43454],[10.15466,47.43459],[10.15441,47.43467],[10.15396,47.43487],[10.15363,47.43499],[10.15346,47.43501],[10.15248,47.43518],[10.15221,47.43523],[10.15204,47.43528],[10.1519,47.43532],[10.15155,47.43552],[10.15138,47.43559],[10.15125,47.4356],[10.151,47.43559],[10.1505,47.43556],[10.15019,47.43556],[10.14993,47.43559],[10.14972,47.43565],[10.14955,47.43572],[10.14937,47.4358],[10.14919,47.43591],[10.1489,47.4361],[10.14873,47.43619],[10.14852,47.43627],[10.14827,47.43634],[10.14804,47.43637],[10.14782,47.43637],[10.14762,47.43637],[10.14746,47.4364],[10.14731,47.43648],[10.14719,47.43656],[10.14709,47.43663],[10.14693,47.43676],[10.14681,47.43682],[10.14666,47.43687],[10.14645,47.43691],[10.14623,47.43696],[10.14605,47.43703],[10.14585,47.43713],[10.14544,47.43739],[10.14526,47.43753],[10.14517,47.43766],[10.14508,47.43778],[10.14498,47.43791],[10.14487,47.43798],[10.14473,47.43804],[10.14443,47.43816],[10.14408,47.43831],[10.14359,47.43856],[10.14329,47.43874],[10.14296,47.43897],[10.14265,47.43919],[10.14255,47.43926],[10.14196,47.4395],[10.14159,47.43972],[10.1411,47.44013],[10.14077,47.44033],[10.14048,47.44048],[10.14023,47.44062],[10.13998,47.4408],[10.13979,47.44103],[10.13969,47.44115],[10.13955,47.44144],[10.13945,47.44158],[10.13934,47.44171],[10.13916,47.44184],[10.13897,47.44195],[10.13858,47.44214],[10.13846,47.44223],[10.13836,47.44231],[10.13773,47.44305],[10.13764,47.44317],[10.13751,47.44332],[10.13703,47.44394],[10.1369,47.44418],[10.13615,47.44575],[10.13571,47.44663],[10.13545,47.4472],[10.13519,47.44771],[10.13502,47.44799],[10.13478,47.44837],[10.13447,47.44873],[10.13419,47.44906],[10.134,47.44934],[10.13391,47.4495],[10.13375,47.44985],[10.13355,47.45032],[10.13327,47.45103],[10.13306,47.4515],[10.1327,47.45239],[10.13245,47.45299],[10.13212,47.45364],[10.13163,47.45448],[10.13099,47.45555],[10.13061,47.45619],[10.13055,47.45629],[10.13032,47.45667],[10.13018,47.45691],[10.13008,47.45705],[10.13003,47.45714],[10.12984,47.4574],[10.12979,47.45746],[10.12968,47.45759],[10.12964,47.45764],[10.12952,47.45777],[10.12922,47.45806],[10.12904,47.45821],[10.12887,47.45836],[10.12848,47.45863],[10.12814,47.45886],[10.12802,47.45894],[10.12776,47.45911],[10.12733,47.45938],[10.12698,47.45959],[10.1264,47.45993],[10.12595,47.46019],[10.12552,47.46042],[10.12514,47.46061],[10.12507,47.46064],[10.12455,47.46088],[10.12411,47.46103],[10.12371,47.46115],[10.12317,47.46129],[10.12175,47.46165],[10.12064,47.46196],[10.12019,47.4621],[10.11959,47.46229],[10.11901,47.46249],[10.11892,47.46253],[10.11852,47.46268],[10.11811,47.46286],[10.11718,47.46324],[10.11695,47.46334],[10.11664,47.46345],[10.11613,47.46358],[10.11602,47.46361],[10.11578,47.46365],[10.11563,47.46368],[10.11547,47.46371],[10.11501,47.46382],[10.11421,47.46412],[10.11394,47.46421],[10.11354,47.46434],[10.11243,47.46468],[10.11161,47.46493],[10.11108,47.46506],[10.11063,47.46516],[10.11032,47.46522],[10.10958,47.46533],[10.10905,47.46543],[10.10818,47.46563],[10.10752,47.46574],[10.10709,47.4658],[10.10703,47.46581],[10.10687,47.46582],[10.10635,47.46584],[10.10585,47.46583],[10.10567,47.46581],[10.10565,47.46581],[10.10561,47.46581],[10.10548,47.4658],[10.10535,47.46579],[10.1052,47.46578],[10.10516,47.46578],[10.10495,47.46577],[10.10488,47.46578],[10.10481,47.46577],[10.10471,47.46576],[10.10465,47.46575],[10.10425,47.46574],[10.10398,47.46574],[10.10342,47.46576],[10.10326,47.46576],[10.10313,47.46577],[10.10278,47.46579],[10.1023,47.46581],[10.10174,47.46581],[10.10116,47.46583],[10.10084,47.46583],[10.10072,47.46583],[10.10048,47.46582],[10.10018,47.46578],[10.09988,47.46572],[10.09844,47.46531],[10.09835,47.46529],[10.09803,47.46521],[10.09795,47.46519],[10.0977,47.46513],[10.09727,47.46504],[10.09704,47.46499],[10.0965,47.46489],[10.09595,47.4648],[10.09491,47.46464],[10.09454,47.46458],[10.09427,47.46452],[10.09398,47.46443],[10.09375,47.46437],[10.09333,47.46418],[10.09323,47.46413],[10.0932,47.46412],[10.0928,47.46394],[10.09263,47.46387],[10.09244,47.46381],[10.09225,47.46378],[10.09135,47.46366],[10.09115,47.46363],[10.09079,47.46357],[10.09028,47.46352],[10.08939,47.46349],[10.08925,47.46348],[10.08891,47.46347],[10.08859,47.46343],[10.08829,47.46337],[10.08791,47.46325],[10.0875,47.46313],[10.08549,47.46249],[10.08577,47.46226],[10.08582,47.46222],[10.08596,47.46196],[10.08618,47.4617],[10.08656,47.46158],[10.0871,47.46146],[10.08802,47.46141],[10.08864,47.46145],[10.08903,47.46138],[10.08935,47.46125],[10.08959,47.46115],[10.08984,47.46111],[10.09002,47.4611],[10.09014,47.46109],[10.09021,47.46107],[10.09027,47.46104],[10.09033,47.46099],[10.09041,47.46089],[10.0905,47.46072],[10.09052,47.46061],[10.09054,47.46056],[10.09056,47.46046],[10.09059,47.46028],[10.09061,47.46016],[10.09078,47.46005],[10.091,47.45991],[10.09179,47.45935],[10.09196,47.45922],[10.09207,47.45906],[10.09266,47.45836],[10.0929,47.45815],[10.09303,47.45793],[10.09315,47.45783],[10.09329,47.45778],[10.09358,47.45768],[10.09372,47.45756],[10.09378,47.45745],[10.09381,47.45733],[10.09378,47.45703],[10.09365,47.45666],[10.09311,47.45532],[10.09313,47.45516],[10.09319,47.45506],[10.09331,47.45494],[10.09356,47.45482],[10.09389,47.45476],[10.09515,47.45465],[10.09612,47.45457],[10.09642,47.4545],[10.09669,47.45439],[10.09694,47.45412],[10.09706,47.45389],[10.09713,47.45363],[10.09713,47.45211],[10.09737,47.45082],[10.09739,47.45047],[10.0974,47.45024],[10.0969,47.44971],[10.09642,47.4492],[10.09611,47.44848],[10.09606,47.44801],[10.09625,47.44754],[10.09631,47.44726],[10.09619,47.44689],[10.09608,47.44638],[10.0959,47.44611],[10.09563,47.44584],[10.09574,47.44579],[10.09587,47.44577],[10.09609,47.44575],[10.09656,47.44611],[10.09697,47.44637],[10.09707,47.44641],[10.09719,47.44643],[10.09736,47.44638],[10.09738,47.44635],[10.09739,47.44631],[10.09733,47.44613],[10.09715,47.44588],[10.09709,47.4455],[10.09709,47.44537],[10.09717,47.44527],[10.09727,47.44518],[10.09745,47.44511],[10.09763,47.44506],[10.09783,47.44503],[10.09801,47.44503],[10.09834,47.44511],[10.09865,47.44517],[10.09881,47.44522],[10.09899,47.44532],[10.09908,47.44533],[10.09932,47.4453],[10.09941,47.44532],[10.09965,47.44542],[10.09977,47.44541],[10.09987,47.44538],[10.10001,47.44534],[10.10015,47.44523],[10.10022,47.44518],[10.10031,47.44517],[10.10043,47.44519],[10.10055,47.4453],[10.10072,47.44551],[10.10092,47.44561],[10.10127,47.44564],[10.10145,47.44562],[10.10172,47.44562],[10.1018,47.44564],[10.10186,47.44569],[10.10196,47.44601],[10.10195,47.44629],[10.10196,47.44633],[10.10203,47.44636],[10.10209,47.44637],[10.10214,47.44635],[10.10368,47.44565],[10.10379,47.44563],[10.10397,47.44563],[10.10426,47.44561],[10.10439,47.44562],[10.10451,47.44568],[10.10451,47.44568]],"type":"LineString"},"properties":{"quelle":"OSRM router.project-osrm.org, Profil driving","von":[47.559,10.217],"nach":[47.44156,10.10977],"distanz_m":35630.9,"dauer_s":2941.2,"punkte":1216}}
