{"type":"Feature","geometry":{"coordinates":[[10.21695,47.55887],[10.21738,47.55879],[10.21733,47.5587],[10.218,47.5586],[10.21829,47.55855],[10.21858,47.55851],[10.2188,47.55847],[10.21922,47.55841],[10.21976,47.55835],[10.22012,47.55834],[10.22048,47.55834],[10.22092,47.55837],[10.22108,47.55837],[10.22138,47.55836],[10.22158,47.55833],[10.22181,47.55827],[10.22189,47.55825],[10.22242,47.55805],[10.22266,47.55794],[10.22272,47.55792],[10.22292,47.55784],[10.22299,47.55782],[10.22329,47.55776],[10.22354,47.55771],[10.22387,47.55768],[10.22439,47.55768],[10.22466,47.55769],[10.22487,47.55767],[10.22513,47.55763],[10.2256,47.55748],[10.22565,47.55746],[10.22575,47.55743],[10.22592,47.55738],[10.22653,47.55719],[10.2266,47.55716],[10.22754,47.55688],[10.22757,47.55686],[10.22842,47.55655],[10.22891,47.55633],[10.2294,47.55599],[10.22951,47.55592],[10.2297,47.55579],[10.22973,47.55577],[10.23007,47.55553],[10.23037,47.55533],[10.23044,47.55527],[10.23052,47.55521],[10.2309,47.55497],[10.231,47.55491],[10.23107,47.55487],[10.23127,47.55476],[10.23133,47.55473],[10.23144,47.55464],[10.2315,47.5546],[10.23152,47.55458],[10.2315,47.55456],[10.23149,47.55454],[10.23149,47.55452],[10.23149,47.5545],[10.2315,47.55448],[10.23151,47.55446],[10.23153,47.55444],[10.23157,47.55442],[10.23161,47.55441],[10.23165,47.55441],[10.23168,47.55441],[10.23171,47.55442],[10.23174,47.55443],[10.23177,47.55444],[10.23179,47.55446],[10.23181,47.55448],[10.23182,47.55451],[10.23182,47.55453],[10.23193,47.55462],[10.23201,47.5547],[10.23249,47.55492],[10.2327,47.55503],[10.23273,47.55504],[10.23386,47.55559],[10.23423,47.55574],[10.23428,47.55575],[10.23457,47.55584],[10.2349,47.55591],[10.2353,47.55598],[10.23587,47.55603],[10.23621,47.55605],[10.23635,47.55606],[10.23668,47.55606],[10.23726,47.55603],[10.2378,47.55597],[10.23841,47.55586],[10.23884,47.55576],[10.239,47.55571],[10.23975,47.55546],[10.24047,47.55519],[10.24107,47.55497],[10.24166,47.55477],[10.24217,47.55464],[10.24276,47.55453],[10.24325,47.55449],[10.24372,47.55448],[10.24403,47.55449],[10.24434,47.55452],[10.24473,47.55456],[10.24516,47.55465],[10.24536,47.55469],[10.24559,47.55476],[10.24615,47.55497],[10.24657,47.55516],[10.24706,47.55545],[10.24752,47.55584],[10.24776,47.55615],[10.2479,47.55631],[10.24797,47.55636],[10.24805,47.55643],[10.24808,47.55646],[10.24814,47.55646],[10.24822,47.55647],[10.24827,47.55649],[10.2483,47.55651],[10.24851,47.55644],[10.2487,47.5564],[10.24889,47.55638],[10.24905,47.5564],[10.24921,47.55647],[10.24949,47.55661],[10.24963,47.55666],[10.24973,47.55666],[10.24987,47.55665],[10.25019,47.55655],[10.25077,47.55616],[10.25113,47.55594],[10.25277,47.55485],[10.25511,47.55332],[10.25553,47.55305],[10.25758,47.55169],[10.25911,47.55069],[10.26146,47.54915],[10.26292,47.54819],[10.26365,47.54768],[10.26427,47.54725],[10.26494,47.54672],[10.26551,47.54621],[10.26597,47.54575],[10.2664,47.54522],[10.2667,47.54478],[10.26701,47.54424],[10.26719,47.54382],[10.26731,47.54348],[10.26741,47.54312],[10.26749,47.54274],[10.26754,47.54235],[10.26756,47.54205],[10.26756,47.54132],[10.2675,47.54062],[10.2674,47.53986],[10.2673,47.5392],[10.26702,47.53737],[10.26689,47.53642],[10.26678,47.53556],[10.26662,47.53407],[10.26658,47.53324],[10.26656,47.53251],[10.26657,47.53164],[10.26667,47.53053],[10.26679,47.52959],[10.26695,47.52869],[10.26705,47.52824],[10.2671,47.52801],[10.26745,47.52648],[10.26759,47.52598],[10.26802,47.52445],[10.26811,47.52413],[10.26839,47.52316],[10.26858,47.52251],[10.26867,47.52219],[10.26872,47.52198],[10.26881,47.52161],[10.26884,47.52144],[10.26889,47.52117],[10.26892,47.5209],[10.26895,47.52055],[10.26899,47.52015],[10.26903,47.51962],[10.26904,47.51949],[10.26906,47.51927],[10.2691,47.51902],[10.26915,47.51879],[10.2692,47.51861],[10.26925,47.51839],[10.26928,47.5183],[10.26933,47.51817],[10.26942,47.51794],[10.26954,47.51766],[10.26975,47.51725],[10.27023,47.51641],[10.27031,47.51626],[10.27038,47.5161],[10.2704,47.51607],[10.27049,47.51586],[10.27059,47.51563],[10.27071,47.51546],[10.27082,47.51512],[10.27092,47.51475],[10.27104,47.5142],[10.27106,47.51412],[10.27119,47.5135],[10.27131,47.51285],[10.27135,47.51262],[10.27146,47.51195],[10.27154,47.51144],[10.2716,47.51102],[10.27166,47.51065],[10.27169,47.51015],[10.27171,47.50991],[10.27171,47.50945],[10.2717,47.50914],[10.2717,47.50909],[10.27168,47.50888],[10.2716,47.50844],[10.27159,47.50836],[10.27151,47.508],[10.27139,47.50752],[10.27117,47.507],[10.27096,47.50653],[10.27083,47.50626],[10.27074,47.50611],[10.2706,47.5059],[10.27045,47.50565],[10.27023,47.50535],[10.27008,47.50514],[10.26976,47.50476],[10.26925,47.50423],[10.2686,47.50358],[10.26836,47.50332],[10.268,47.50293],[10.2676,47.50243],[10.26721,47.50187],[10.26692,47.50141],[10.26676,47.50111],[10.26653,47.50066],[10.26641,47.50039],[10.26633,47.50015],[10.26629,47.50006],[10.26612,47.49955],[10.266,47.49905],[10.26586,47.49842],[10.26567,47.49757],[10.2655,47.49671],[10.26543,47.49632],[10.26543,47.49618],[10.26545,47.49601],[10.26548,47.49588],[10.2655,47.49583],[10.26555,47.49571],[10.26614,47.49455],[10.26653,47.49378],[10.26661,47.49355],[10.26666,47.49332],[10.2667,47.49308],[10.26675,47.4919],[10.26675,47.49167],[10.26669,47.49122],[10.26664,47.49096],[10.26666,47.49068],[10.26685,47.48985],[10.26699,47.48901],[10.26702,47.48886],[10.26706,47.48836],[10.26703,47.48807],[10.26692,47.48761],[10.26691,47.48738],[10.26693,47.48716],[10.26701,47.4869],[10.26715,47.48648],[10.26718,47.48628],[10.26718,47.48607],[10.26712,47.48585],[10.26703,47.48564],[10.26653,47.48498],[10.26641,47.48476],[10.26635,47.48453],[10.26633,47.48421],[10.26633,47.48369],[10.26632,47.48345],[10.2663,47.48321],[10.26624,47.48284],[10.26616,47.48249],[10.26609,47.48218],[10.26601,47.48192],[10.26596,47.4816],[10.26596,47.48133],[10.26598,47.48118],[10.26603,47.48101],[10.26633,47.48047],[10.26661,47.47985],[10.26665,47.47965],[10.26666,47.47939],[10.26666,47.47905],[10.26665,47.47874],[10.26659,47.4782],[10.26657,47.47787],[10.26657,47.4776],[10.26659,47.47728],[10.26665,47.47691],[10.2667,47.47663],[10.26678,47.47632],[10.2668,47.47626],[10.26695,47.47579],[10.26719,47.47513],[10.2675,47.47421],[10.26768,47.4737],[10.26779,47.47329],[10.26786,47.47298],[10.26793,47.47266],[10.26797,47.47229],[10.26798,47.47193],[10.26798,47.47163],[10.26798,47.47147],[10.26799,47.4714],[10.26799,47.47109],[10.268,47.47102],[10.268,47.47091],[10.268,47.46992],[10.268,47.46976],[10.268,47.46964],[10.268,47.46957],[10.268,47.46947],[10.26801,47.46895],[10.26804,47.46861],[10.26808,47.46793],[10.2681,47.46769],[10.26815,47.46689],[10.26837,47.46409],[10.26837,47.46375],[10.26833,47.46335],[10.26823,47.46297],[10.26815,47.46274],[10.26803,47.46247],[10.26791,47.46221],[10.26786,47.46211],[10.26801,47.46204],[10.26804,47.46203],[10.2684,47.46193],[10.26958,47.46161],[10.26967,47.46158],[10.27009,47.46144],[10.27038,47.46134],[10.27084,47.46117],[10.27124,47.46098],[10.2714,47.46091],[10.27173,47.46075],[10.27198,47.46062],[10.27214,47.46052],[10.27265,47.46022],[10.27284,47.46013],[10.27296,47.46012],[10.27305,47.46012],[10.27308,47.46011],[10.27314,47.46011],[10.27326,47.46009],[10.27332,47.46007],[10.27356,47.45998],[10.27409,47.45977],[10.27419,47.45976],[10.27427,47.45975],[10.27461,47.45976],[10.27479,47.45976],[10.2749,47.45976],[10.27498,47.45976],[10.27543,47.45976],[10.27574,47.45976],[10.27612,47.45977],[10.27637,47.45978],[10.27708,47.45983],[10.2773,47.45985],[10.27755,47.45987],[10.27787,47.4599],[10.27831,47.45993],[10.2784,47.45994],[10.27912,47.45999],[10.2792,47.46],[10.27935,47.46001],[10.27949,47.46003],[10.27962,47.46004],[10.27979,47.46007],[10.28033,47.46014],[10.28036,47.46014],[10.28252,47.46049],[10.28271,47.4602],[10.28276,47.46008],[10.28276,47.45999],[10.28274,47.45985],[10.2826,47.45957],[10.28245,47.45935],[10.28204,47.45891],[10.28195,47.4588],[10.28183,47.45863],[10.28168,47.45844],[10.28128,47.45826],[10.28119,47.45822],[10.28112,47.45816],[10.28108,47.45809],[10.28107,47.45798],[10.28105,47.45773]],"type":"LineString"},"properties":{"quelle":"OSRM router.project-osrm.org, Profil driving","von":[47.559,10.217],"nach":[47.4553,10.27795],"distanz_m":15618,"dauer_s":1048.5,"punkte":405}}
