{"type":"Feature","geometry":{"coordinates":[[10.12612,47.6467],[10.12613,47.64665],[10.12647,47.64675],[10.12666,47.64675],[10.12671,47.64664],[10.1268,47.64641],[10.12684,47.64636],[10.1269,47.64632],[10.127,47.64628],[10.12708,47.64626],[10.12714,47.64626],[10.12722,47.64625],[10.12734,47.64626],[10.12752,47.64629],[10.12762,47.6463],[10.1277,47.64629],[10.12779,47.64626],[10.12788,47.64623],[10.12795,47.64619],[10.12799,47.64613],[10.12804,47.64606],[10.12812,47.64585],[10.12814,47.64577],[10.12814,47.64568],[10.12813,47.64562],[10.12811,47.64555],[10.12803,47.64531],[10.12782,47.64474],[10.12767,47.64438],[10.12752,47.64407],[10.1274,47.6439],[10.12724,47.64373],[10.1271,47.64359],[10.12698,47.64346],[10.12687,47.64334],[10.12678,47.6432],[10.12651,47.64266],[10.1264,47.64254],[10.12619,47.64238],[10.12597,47.64225],[10.1258,47.64232],[10.12574,47.64234],[10.12513,47.64267],[10.12509,47.64257],[10.1249,47.64255],[10.12463,47.64254],[10.12453,47.64252],[10.12441,47.64247],[10.12434,47.64232],[10.12429,47.64227],[10.12414,47.64225],[10.1228,47.64221],[10.1224,47.64215],[10.12208,47.64208],[10.12161,47.64202],[10.12143,47.64201],[10.12129,47.64196],[10.12124,47.64191],[10.12092,47.64199],[10.12074,47.64202],[10.12043,47.64205],[10.12023,47.64205],[10.11989,47.64203],[10.1198,47.64202],[10.1195,47.64198],[10.11899,47.64188],[10.11859,47.64183],[10.11824,47.64183],[10.11795,47.64186],[10.11723,47.64198],[10.11711,47.64198],[10.11701,47.64198],[10.11671,47.64196],[10.11645,47.64191],[10.1163,47.64185],[10.11627,47.64184],[10.11607,47.64174],[10.11593,47.64167],[10.1159,47.64166],[10.11552,47.64148],[10.11527,47.6414],[10.1151,47.64137],[10.11492,47.64133],[10.11434,47.64122],[10.11408,47.64117],[10.113,47.64098],[10.11287,47.64096],[10.11253,47.6409],[10.11221,47.64086],[10.11183,47.64082],[10.11168,47.64088],[10.11155,47.64094],[10.11147,47.64099],[10.11145,47.64108],[10.11141,47.64116],[10.11133,47.64126],[10.1112,47.64143],[10.11072,47.64207],[10.11072,47.64218],[10.11073,47.64227],[10.11075,47.64236],[10.1108,47.64243],[10.11087,47.6425],[10.11097,47.64257],[10.11114,47.64265],[10.11166,47.64285],[10.11211,47.64302],[10.11244,47.64314],[10.11261,47.64326],[10.11376,47.64356],[10.11509,47.64391],[10.11747,47.64455],[10.11784,47.64464],[10.11864,47.64484],[10.11936,47.64502],[10.12031,47.64524],[10.12135,47.64548],[10.12237,47.6457],[10.12332,47.6459],[10.12445,47.64612],[10.12656,47.6465],[10.12686,47.64655],[10.12845,47.64682],[10.12975,47.64704],[10.13155,47.64734],[10.13329,47.64765],[10.13476,47.64792],[10.13668,47.64828],[10.13842,47.64861],[10.13935,47.6488],[10.14026,47.64899],[10.14146,47.64923],[10.1429,47.64954],[10.1455,47.65013],[10.14588,47.65021],[10.14642,47.65035],[10.14854,47.65084],[10.15052,47.65132],[10.15282,47.6519],[10.1532,47.652],[10.15492,47.65246],[10.15627,47.65283],[10.15729,47.65311],[10.15825,47.65339],[10.1605,47.65403],[10.1635,47.65488],[10.16452,47.65518],[10.16482,47.65527],[10.1649,47.65529],[10.16547,47.65546],[10.16577,47.65554],[10.16582,47.65556],[10.16848,47.65632],[10.16921,47.65652],[10.1709,47.65702],[10.17229,47.65747],[10.17331,47.65785],[10.17397,47.65813],[10.17468,47.65843],[10.17536,47.65876],[10.17608,47.65914],[10.17677,47.65953],[10.17743,47.65992],[10.17807,47.66032],[10.17853,47.66065],[10.17928,47.6612],[10.17954,47.6614],[10.18075,47.66235],[10.18212,47.66336],[10.18302,47.66394],[10.18393,47.66446],[10.18451,47.66475],[10.185,47.66499],[10.18548,47.6652],[10.18642,47.66559],[10.18768,47.66601],[10.18809,47.66613],[10.1884,47.66621],[10.189,47.66638],[10.18971,47.66654],[10.19033,47.66665],[10.19104,47.66678],[10.1917,47.66688],[10.19218,47.66696],[10.19273,47.66702],[10.19336,47.66707],[10.19397,47.66711],[10.19517,47.66715],[10.19583,47.66715],[10.19646,47.66713],[10.19722,47.66709],[10.19854,47.667],[10.1992,47.66694],[10.20047,47.66682],[10.20167,47.6667],[10.203,47.66659],[10.20397,47.66652],[10.20428,47.6665],[10.20477,47.66648],[10.20576,47.66646],[10.20693,47.66646],[10.20764,47.66648],[10.20852,47.66652],[10.21005,47.66664],[10.21148,47.66681],[10.21243,47.66695],[10.21335,47.66712],[10.21435,47.66731],[10.21542,47.66756],[10.21592,47.66768],[10.21766,47.66812],[10.2187,47.6684],[10.2202,47.66878],[10.22176,47.66915],[10.22342,47.6695],[10.22478,47.66976],[10.22611,47.66998],[10.22793,47.67025],[10.22958,47.67044],[10.23105,47.67059],[10.23249,47.67069],[10.233,47.67072],[10.2335,47.67074],[10.23451,47.67077],[10.23592,47.67076],[10.23736,47.6707],[10.23809,47.67065],[10.23852,47.67061],[10.23974,47.67048],[10.24051,47.67038],[10.24135,47.67025],[10.2426,47.67002],[10.24385,47.66977],[10.24574,47.66935],[10.24677,47.66913],[10.24721,47.66904],[10.24858,47.66877],[10.25003,47.66853],[10.25094,47.6684],[10.25247,47.66823],[10.25393,47.6681],[10.25533,47.66803],[10.25604,47.66801],[10.25677,47.66801],[10.25866,47.66806],[10.26023,47.66814],[10.26165,47.66826],[10.26294,47.6684],[10.26396,47.66854],[10.26534,47.66878],[10.26629,47.66896],[10.26712,47.66914],[10.26805,47.66937],[10.26896,47.66961],[10.26994,47.66992],[10.2714,47.67042],[10.27204,47.67066],[10.27271,47.67094],[10.27333,47.67121],[10.27397,47.67151],[10.27519,47.67213],[10.27577,47.67247],[10.27639,47.67283],[10.2775,47.67352],[10.27999,47.67514],[10.281,47.67577],[10.28201,47.67636],[10.28307,47.67693],[10.28415,47.67744],[10.28512,47.67787],[10.28546,47.67801],[10.28704,47.67858],[10.28795,47.67889],[10.28858,47.67907],[10.28949,47.67932],[10.29017,47.6795],[10.2915,47.67979],[10.2924,47.67995],[10.29328,47.68009],[10.29417,47.68022],[10.29503,47.68031],[10.29636,47.68042],[10.29789,47.6805],[10.29919,47.68055],[10.3005,47.68057],[10.30081,47.68057],[10.30103,47.68057],[10.30277,47.68055],[10.30373,47.68054],[10.30521,47.68053],[10.30561,47.68046],[10.30604,47.68039],[10.30625,47.68034],[10.30639,47.68027],[10.30646,47.6802],[10.30652,47.68013],[10.30654,47.68002],[10.30653,47.67992],[10.3065,47.67984],[10.30642,47.67977],[10.30627,47.67968],[10.30605,47.67961],[10.30583,47.67957],[10.30551,47.67955],[10.30533,47.67956],[10.30516,47.67958],[10.30493,47.67964],[10.30482,47.67971],[10.30472,47.67981],[10.30466,47.67997],[10.30473,47.68018],[10.30476,47.68028],[10.30482,47.68046],[10.30488,47.68065],[10.30499,47.68091],[10.30508,47.68113],[10.30514,47.68128],[10.30519,47.68141],[10.30523,47.68149],[10.30527,47.68158],[10.3053,47.68166],[10.3054,47.68192],[10.30546,47.68206],[10.30582,47.68282],[10.30593,47.683],[10.30609,47.68318],[10.30631,47.6834],[10.30652,47.6836],[10.30734,47.68418],[10.30747,47.68427],[10.30768,47.68445],[10.30771,47.68447],[10.30778,47.68454],[10.30786,47.68462],[10.30807,47.68484],[10.30822,47.68503],[10.30841,47.68527],[10.30864,47.68565],[10.30873,47.6858],[10.30898,47.6862],[10.30911,47.68636],[10.30922,47.6865],[10.30924,47.68653],[10.30931,47.68663],[10.30936,47.6867],[10.30942,47.68677],[10.3097,47.68715],[10.30979,47.68727],[10.30984,47.68734],[10.31007,47.68767],[10.31035,47.68818],[10.31058,47.6887],[10.31069,47.68912],[10.31072,47.68935],[10.31071,47.68962],[10.3106,47.69043],[10.31058,47.69091],[10.31059,47.69113],[10.3106,47.69132],[10.31077,47.69194],[10.31089,47.69219],[10.31129,47.69295],[10.31135,47.69305],[10.3114,47.69313],[10.31152,47.69333],[10.31155,47.69338],[10.3121,47.69425],[10.31221,47.69456],[10.31227,47.69502],[10.31228,47.69587],[10.31229,47.69602],[10.31231,47.69618],[10.31234,47.69634],[10.31239,47.69647],[10.31245,47.6966],[10.31257,47.69683],[10.31268,47.69704],[10.31279,47.69722],[10.31292,47.69745],[10.31294,47.69751],[10.313,47.69763],[10.31307,47.6978],[10.3131,47.69793],[10.31312,47.69804],[10.31315,47.69826],[10.31315,47.69851],[10.31314,47.69881],[10.31309,47.69923],[10.31298,47.70011],[10.31291,47.70079],[10.31289,47.70112],[10.31288,47.70143],[10.31288,47.70175],[10.31289,47.70196],[10.3129,47.7022],[10.31291,47.70253],[10.31292,47.70267],[10.31292,47.70284],[10.31292,47.70287],[10.31293,47.70318],[10.31291,47.70357],[10.31287,47.70392],[10.31283,47.70417],[10.31281,47.70427],[10.31278,47.70439],[10.31275,47.7045],[10.31259,47.70492],[10.31244,47.70533],[10.31229,47.70588],[10.3121,47.70629],[10.31203,47.70643],[10.31197,47.70656],[10.31189,47.70672],[10.31184,47.70685],[10.31177,47.70712],[10.31174,47.70729],[10.31169,47.70763],[10.3117,47.70799],[10.31172,47.70815],[10.31176,47.7083],[10.31178,47.70834],[10.31192,47.7086],[10.31216,47.70891],[10.31249,47.70927],[10.31271,47.70949],[10.31313,47.70992],[10.31325,47.71004],[10.31344,47.71022],[10.31366,47.71043],[10.31385,47.7106],[10.31405,47.71081],[10.31418,47.71095],[10.31435,47.71117],[10.31446,47.71131],[10.31472,47.7117],[10.31492,47.71211],[10.31508,47.71253],[10.31521,47.71314],[10.31527,47.71375],[10.31526,47.71401],[10.31526,47.71408],[10.31524,47.71417],[10.31519,47.71449],[10.31514,47.71472],[10.31517,47.7148],[10.31518,47.71491],[10.31519,47.71499],[10.31521,47.71504],[10.31525,47.7151],[10.3154,47.71522],[10.31545,47.71528],[10.31592,47.71544],[10.31677,47.71567],[10.31713,47.71574],[10.3172,47.71576],[10.31734,47.71577],[10.31757,47.7158],[10.31778,47.71582],[10.31803,47.71583],[10.31829,47.71583],[10.31863,47.71582],[10.31898,47.71578],[10.31932,47.71572],[10.31964,47.71566],[10.31989,47.71562],[10.32017,47.71556],[10.32035,47.71552],[10.32039,47.71563],[10.32041,47.71569],[10.32041,47.71574],[10.32039,47.71592],[10.32029,47.71604],[10.32024,47.71611],[10.32026,47.71625],[10.32026,47.7163],[10.32031,47.71637],[10.32039,47.71642],[10.32052,47.71648],[10.32062,47.71649],[10.32081,47.71651],[10.32104,47.71654],[10.32114,47.71656],[10.32129,47.71658],[10.32139,47.71661],[10.32144,47.71665],[10.32151,47.71672],[10.32154,47.71679],[10.32156,47.7169],[10.32158,47.71727],[10.32157,47.71773],[10.32156,47.71782],[10.32152,47.71808],[10.32142,47.71843],[10.32163,47.71846],[10.3218,47.71848],[10.32204,47.71845],[10.3219,47.71801]],"type":"LineString"},"properties":{"quelle":"OSRM router.project-osrm.org, Profil driving","von":[47.6467,10.12609],"nach":[47.718,10.322],"distanz_m":23142.9,"dauer_s":1281,"punkte":497}}
