{
 "type": "Feature",
 "geometry": {
  "coordinates": [
   [
    10.336366,
    47.521882
   ],
   [
    10.336354,
    47.521846
   ],
   [
    10.33635,
    47.52175
   ],
   [
    10.336391,
    47.521575
   ],
   [
    10.336503,
    47.521409
   ],
   [
    10.336694,
    47.521234
   ],
   [
    10.336877,
    47.521042
   ],
   [
    10.336941,
    47.520903
   ],
   [
    10.33699,
    47.520764
   ],
   [
    10.337072,
    47.520092
   ],
   [
    10.337027,
    47.519976
   ],
   [
    10.336934,
    47.519875
   ],
   [
    10.336601,
    47.519721
   ],
   [
    10.336395,
    47.519708
   ],
   [
    10.336208,
    47.519731
   ],
   [
    10.335766,
    47.51986
   ],
   [
    10.335494,
    47.519882
   ],
   [
    10.335284,
    47.519842
   ],
   [
    10.334753,
    47.519645
   ],
   [
    10.3343,
    47.519461
   ],
   [
    10.334023,
    47.519304
   ],
   [
    10.333907,
    47.519236
   ],
   [
    10.333854,
    47.519231
   ],
   [
    10.333772,
    47.519239
   ],
   [
    10.333512,
    47.519251
   ],
   [
    10.333223,
    47.519275
   ],
   [
    10.332928,
    47.519287
   ],
   [
    10.332778,
    47.519287
   ],
   [
    10.332638,
    47.519281
   ],
   [
    10.331865,
    47.519308
   ],
   [
    10.331586,
    47.519268
   ],
   [
    10.331493,
    47.519224
   ],
   [
    10.331355,
    47.519107
   ],
   [
    10.331273,
    47.519006
   ],
   [
    10.331226,
    47.518825
   ],
   [
    10.331282,
    47.518542
   ],
   [
    10.331342,
    47.518317
   ],
   [
    10.331388,
    47.518086
   ],
   [
    10.331386,
    47.517976
   ],
   [
    10.331377,
    47.517822
   ],
   [
    10.33138,
    47.517811
   ],
   [
    10.331407,
    47.517742
   ],
   [
    10.331442,
    47.517683
   ],
   [
    10.331536,
    47.517624
   ],
   [
    10.332202,
    47.517278
   ],
   [
    10.332762,
    47.51698
   ],
   [
    10.332879,
    47.516928
   ],
   [
    10.33325,
    47.516797
   ],
   [
    10.333652,
    47.516674
   ],
   [
    10.333785,
    47.516607
   ],
   [
    10.333893,
    47.516522
   ],
   [
    10.333932,
    47.516435
   ],
   [
    10.333902,
    47.516376
   ],
   [
    10.33385,
    47.516303
   ],
   [
    10.333722,
    47.516217
   ],
   [
    10.333484,
    47.516081
   ],
   [
    10.333063,
    47.51593
   ],
   [
    10.332514,
    47.515808
   ],
   [
    10.332153,
    47.515791
   ],
   [
    10.331389,
    47.515779
   ],
   [
    10.330917,
    47.515773
   ],
   [
    10.330608,
    47.515773
   ],
   [
    10.330282,
    47.515797
   ],
   [
    10.329698,
    47.515849
   ],
   [
    10.329243,
    47.51586
   ],
   [
    10.328823,
    47.515911
   ],
   [
    10.3288,
    47.515915
   ],
   [
    10.328571,
    47.515961
   ],
   [
    10.328436,
    47.515991
   ],
   [
    10.328267,
    47.51604
   ],
   [
    10.328085,
    47.516069
   ],
   [
    10.327934,
    47.516094
   ],
   [
    10.327779,
    47.51612
   ],
   [
    10.327537,
    47.516145
   ],
   [
    10.327184,
    47.51615
   ],
   [
    10.326588,
    47.516174
   ],
   [
    10.326008,
    47.516359
   ],
   [
    10.325721,
    47.516382
   ],
   [
    10.325578,
    47.516302
   ],
   [
    10.325527,
    47.516178
   ],
   [
    10.325609,
    47.515969
   ],
   [
    10.325948,
    47.515594
   ],
   [
    10.326214,
    47.515431
   ],
   [
    10.326394,
    47.515373
   ],
   [
    10.326669,
    47.515171
   ],
   [
    10.326703,
    47.515084
   ],
   [
    10.326664,
    47.515014
   ],
   [
    10.326557,
    47.514947
   ],
   [
    10.326471,
    47.514928
   ],
   [
    10.325843,
    47.514711
   ],
   [
    10.325252,
    47.514417
   ],
   [
    10.325067,
    47.514346
   ],
   [
    10.324803,
    47.514298
   ],
   [
    10.324458,
    47.51427
   ],
   [
    10.323845,
    47.514272
   ],
   [
    10.323649,
    47.51429
   ],
   [
    10.323386,
    47.514325
   ],
   [
    10.32284,
    47.514365
   ],
   [
    10.322131,
    47.514383
   ],
   [
    10.321815,
    47.514347
   ],
   [
    10.321366,
    47.514345
   ],
   [
    10.321226,
    47.514343
   ],
   [
    10.321028,
    47.514398
   ],
   [
    10.320119,
    47.514759
   ],
   [
    10.319734,
    47.514889
   ],
   [
    10.319462,
    47.514966
   ],
   [
    10.319153,
    47.515026
   ],
   [
    10.318696,
    47.515099
   ],
   [
    10.317821,
    47.515225
   ],
   [
    10.317643,
    47.515253
   ],
   [
    10.317483,
    47.515308
   ],
   [
    10.317133,
    47.515468
   ],
   [
    10.316729,
    47.515612
   ],
   [
    10.316598,
    47.515659
   ],
   [
    10.316454,
    47.51572
   ],
   [
    10.316278,
    47.515766
   ],
   [
    10.316099,
    47.515805
   ],
   [
    10.315899,
    47.515841
   ],
   [
    10.315741,
    47.515867
   ],
   [
    10.315591,
    47.515875
   ],
   [
    10.315418,
    47.515892
   ],
   [
    10.315256,
    47.515898
   ],
   [
    10.315069,
    47.515883
   ],
   [
    10.314821,
    47.515826
   ],
   [
    10.314747,
    47.515819
   ],
   [
    10.314669,
    47.515827
   ],
   [
    10.314638,
    47.515863
   ],
   [
    10.314638,
    47.515897
   ],
   [
    10.314678,
    47.515939
   ],
   [
    10.314712,
    47.515958
   ],
   [
    10.315023,
    47.516039
   ],
   [
    10.315399,
    47.516167
   ],
   [
    10.315525,
    47.516226
   ],
   [
    10.315614,
    47.516289
   ],
   [
    10.315658,
    47.516344
   ],
   [
    10.315667,
    47.516397
   ],
   [
    10.315634,
    47.516498
   ],
   [
    10.315615,
    47.516535
   ],
   [
    10.315584,
    47.516578
   ],
   [
    10.315515,
    47.516631
   ],
   [
    10.315422,
    47.516639
   ],
   [
    10.315395,
    47.51664
   ],
   [
    10.314938,
    47.516643
   ],
   [
    10.314832,
    47.516645
   ],
   [
    10.314691,
    47.516646
   ],
   [
    10.313877,
    47.516654
   ],
   [
    10.312542,
    47.516656
   ],
   [
    10.312254,
    47.51665
   ],
   [
    10.311749,
    47.516627
   ],
   [
    10.311357,
    47.516567
   ],
   [
    10.310966,
    47.516465
   ],
   [
    10.310481,
    47.516291
   ],
   [
    10.310315,
    47.516206
   ],
   [
    10.310192,
    47.516113
   ],
   [
    10.310092,
    47.515984
   ],
   [
    10.309959,
    47.515758
   ],
   [
    10.309876,
    47.515591
   ],
   [
    10.309819,
    47.515428
   ],
   [
    10.30978,
    47.515135
   ],
   [
    10.309977,
    47.514942
   ],
   [
    10.310248,
    47.514697
   ],
   [
    10.310385,
    47.514594
   ],
   [
    10.310477,
    47.51449
   ],
   [
    10.310555,
    47.514384
   ],
   [
    10.310566,
    47.51428
   ],
   [
    10.310532,
    47.514169
   ],
   [
    10.310385,
    47.513949
   ],
   [
    10.31031,
    47.513849
   ],
   [
    10.310279,
    47.513721
   ],
   [
    10.310291,
    47.513603
   ],
   [
    10.310348,
    47.513481
   ],
   [
    10.310581,
    47.513183
   ],
   [
    10.310672,
    47.513059
   ],
   [
    10.310704,
    47.512966
   ],
   [
    10.310661,
    47.512884
   ],
   [
    10.310587,
    47.512829
   ],
   [
    10.310495,
    47.512812
   ],
   [
    10.310366,
    47.512828
   ],
   [
    10.309296,
    47.513021
   ],
   [
    10.30903,
    47.513067
   ],
   [
    10.308922,
    47.513079
   ],
   [
    10.30846,
    47.513154
   ],
   [
    10.307667,
    47.513211
   ],
   [
    10.306516,
    47.513322
   ],
   [
    10.306147,
    47.513317
   ],
   [
    10.306063,
    47.513314
   ],
   [
    10.305297,
    47.513302
   ],
   [
    10.304961,
    47.513345
   ],
   [
    10.30473,
    47.513407
   ],
   [
    10.30405,
    47.513601
   ],
   [
    10.303423,
    47.513788
   ],
   [
    10.302946,
    47.513935
   ],
   [
    10.30225,
    47.514157
   ],
   [
    10.302009,
    47.514251
   ],
   [
    10.301762,
    47.514404
   ],
   [
    10.301468,
    47.51459
   ],
   [
    10.301214,
    47.51478
   ],
   [
    10.301073,
    47.514938
   ],
   [
    10.300955,
    47.515099
   ],
   [
    10.300788,
    47.515291
   ],
   [
    10.300681,
    47.515386
   ],
   [
    10.300488,
    47.515541
   ],
   [
    10.300289,
    47.515655
   ],
   [
    10.300171,
    47.515722
   ],
   [
    10.299978,
    47.515828
   ],
   [
    10.299916,
    47.515839
   ],
   [
    10.299821,
    47.515835
   ],
   [
    10.298872,
    47.515595
   ],
   [
    10.298641,
    47.515549
   ],
   [
    10.298491,
    47.515522
   ],
   [
    10.298368,
    47.515513
   ],
   [
    10.298207,
    47.515509
   ],
   [
    10.298104,
    47.515513
   ],
   [
    10.297925,
    47.515522
   ],
   [
    10.297778,
    47.515545
   ],
   [
    10.297533,
    47.515591
   ],
   [
    10.297343,
    47.515637
   ],
   [
    10.295299,
    47.516239
   ],
   [
    10.294261,
    47.51653
   ],
   [
    10.293763,
    47.516657
   ],
   [
    10.293658,
    47.516688
   ],
   [
    10.293559,
    47.516702
   ],
   [
    10.293107,
    47.516746
   ],
   [
    10.292718,
    47.51674
   ],
   [
    10.292353,
    47.516796
   ],
   [
    10.292244,
    47.516849
   ],
   [
    10.292167,
    47.516791
   ],
   [
    10.29179,
    47.516505
   ],
   [
    10.291758,
    47.516484
   ],
   [
    10.291553,
    47.516362
   ],
   [
    10.291199,
    47.51613
   ],
   [
    10.290787,
    47.515874
   ],
   [
    10.290546,
    47.515755
   ],
   [
    10.290511,
    47.515737
   ],
   [
    10.290445,
    47.515704
   ],
   [
    10.290338,
    47.515649
   ],
   [
    10.290298,
    47.515628
   ],
   [
    10.289791,
    47.515369
   ],
   [
    10.289712,
    47.515329
   ],
   [
    10.288513,
    47.51478
   ],
   [
    10.28795,
    47.514511
   ],
   [
    10.287662,
    47.514423
   ],
   [
    10.287499,
    47.514365
   ],
   [
    10.287134,
    47.514334
   ],
   [
    10.286885,
    47.514336
   ],
   [
    10.286543,
    47.514356
   ],
   [
    10.285903,
    47.51441
   ],
   [
    10.285172,
    47.514466
   ],
   [
    10.28474,
    47.514508
   ],
   [
    10.284149,
    47.514564
   ],
   [
    10.283617,
    47.514592
   ],
   [
    10.283497,
    47.514589
   ],
   [
    10.283342,
    47.51459
   ],
   [
    10.28263,
    47.514575
   ],
   [
    10.282144,
    47.514568
   ],
   [
    10.281991,
    47.514566
   ],
   [
    10.281765,
    47.514564
   ],
   [
    10.281598,
    47.514569
   ],
   [
    10.281235,
    47.514571
   ],
   [
    10.281264,
    47.514765
   ],
   [
    10.281282,
    47.514931
   ],
   [
    10.281299,
    47.515121
   ],
   [
    10.281317,
    47.515261
   ],
   [
    10.281121,
    47.515271
   ],
   [
    10.281013,
    47.515277
   ],
   [
    10.280969,
    47.515073
   ]
  ],
  "type": "LineString"
 },
 "properties": {
  "quelle": "OSRM router.project-osrm.org, Profil driving",
  "von": [
   47.525,
   10.33
  ],
  "nach": [
   47.515,
   10.281
  ],
  "distanz_m": 6441.6,
  "dauer_s": 1114.5,
  "punkte": 266
 }
}
