{
 "type": "Feature",
 "geometry": {
  "coordinates": [
   [
    10.280969,
    47.515073
   ],
   [
    10.281013,
    47.515277
   ],
   [
    10.281121,
    47.515271
   ],
   [
    10.281317,
    47.515261
   ],
   [
    10.281332,
    47.515784
   ],
   [
    10.281276,
    47.515923
   ],
   [
    10.281164,
    47.516149
   ],
   [
    10.281053,
    47.516375
   ],
   [
    10.281002,
    47.516557
   ],
   [
    10.280996,
    47.516648
   ],
   [
    10.281015,
    47.517127
   ],
   [
    10.281124,
    47.517712
   ],
   [
    10.28125,
    47.518062
   ],
   [
    10.281296,
    47.518192
   ],
   [
    10.281309,
    47.518228
   ],
   [
    10.281318,
    47.518255
   ],
   [
    10.28133,
    47.518286
   ],
   [
    10.281418,
    47.518533
   ],
   [
    10.281511,
    47.518795
   ],
   [
    10.281674,
    47.519181
   ],
   [
    10.281779,
    47.519595
   ],
   [
    10.281433,
    47.519673
   ],
   [
    10.281382,
    47.519683
   ],
   [
    10.281275,
    47.519703
   ],
   [
    10.280757,
    47.519802
   ],
   [
    10.279174,
    47.520103
   ],
   [
    10.278841,
    47.520168
   ],
   [
    10.278724,
    47.520188
   ],
   [
    10.278081,
    47.52028
   ],
   [
    10.277745,
    47.52033
   ],
   [
    10.277312,
    47.520383
   ],
   [
    10.276689,
    47.520412
   ],
   [
    10.276669,
    47.520412
   ],
   [
    10.275771,
    47.520435
   ],
   [
    10.275478,
    47.520438
   ],
   [
    10.275065,
    47.520429
   ],
   [
    10.274474,
    47.520418
   ],
   [
    10.274156,
    47.520412
   ],
   [
    10.272909,
    47.520389
   ],
   [
    10.272499,
    47.52038
   ],
   [
    10.272183,
    47.520365
   ],
   [
    10.271942,
    47.520364
   ],
   [
    10.27142,
    47.52035
   ],
   [
    10.271044,
    47.520337
   ],
   [
    10.270882,
    47.520328
   ],
   [
    10.270752,
    47.520357
   ],
   [
    10.270562,
    47.520387
   ],
   [
    10.270436,
    47.520425
   ],
   [
    10.270358,
    47.520456
   ],
   [
    10.270295,
    47.520491
   ],
   [
    10.27025,
    47.520529
   ],
   [
    10.27021,
    47.520575
   ],
   [
    10.270175,
    47.52064
   ],
   [
    10.270154,
    47.520706
   ],
   [
    10.270119,
    47.52077
   ],
   [
    10.270096,
    47.520848
   ],
   [
    10.270066,
    47.520912
   ],
   [
    10.270037,
    47.520957
   ],
   [
    10.270007,
    47.520997
   ],
   [
    10.269959,
    47.521032
   ],
   [
    10.269913,
    47.52106
   ],
   [
    10.269858,
    47.52108
   ],
   [
    10.269679,
    47.521108
   ],
   [
    10.26959,
    47.521133
   ],
   [
    10.269517,
    47.521146
   ],
   [
    10.269429,
    47.521167
   ],
   [
    10.269357,
    47.521195
   ],
   [
    10.269301,
    47.521225
   ],
   [
    10.269235,
    47.521268
   ],
   [
    10.269191,
    47.521304
   ],
   [
    10.269154,
    47.521343
   ],
   [
    10.269106,
    47.521405
   ],
   [
    10.269065,
    47.521465
   ],
   [
    10.269045,
    47.521511
   ],
   [
    10.268981,
    47.521564
   ],
   [
    10.268866,
    47.522048
   ],
   [
    10.268773,
    47.522407
   ],
   [
    10.268672,
    47.522749
   ],
   [
    10.268553,
    47.523149
   ],
   [
    10.268273,
    47.52415
   ],
   [
    10.268187,
    47.524439
   ],
   [
    10.267932,
    47.525303
   ],
   [
    10.267749,
    47.525983
   ],
   [
    10.267612,
    47.526473
   ],
   [
    10.267271,
    47.52798
   ],
   [
    10.267204,
    47.528258
   ],
   [
    10.267117,
    47.528672
   ],
   [
    10.266949,
    47.529582
   ],
   [
    10.266824,
    47.530501
   ],
   [
    10.266773,
    47.531058
   ],
   [
    10.266726,
    47.531628
   ],
   [
    10.266723,
    47.53252
   ],
   [
    10.266737,
    47.533236
   ],
   [
    10.266779,
    47.534075
   ],
   [
    10.266934,
    47.535558
   ],
   [
    10.267042,
    47.536459
   ],
   [
    10.267168,
    47.537381
   ],
   [
    10.267459,
    47.539191
   ],
   [
    10.267559,
    47.539847
   ],
   [
    10.267651,
    47.540577
   ],
   [
    10.267707,
    47.541315
   ],
   [
    10.267722,
    47.541692
   ],
   [
    10.26772,
    47.542059
   ],
   [
    10.267693,
    47.542356
   ],
   [
    10.267639,
    47.542728
   ],
   [
    10.267573,
    47.543081
   ],
   [
    10.26746,
    47.543505
   ],
   [
    10.267309,
    47.543911
   ],
   [
    10.267127,
    47.544297
   ],
   [
    10.266894,
    47.544733
   ],
   [
    10.266541,
    47.545253
   ],
   [
    10.266131,
    47.545764
   ],
   [
    10.265648,
    47.546259
   ],
   [
    10.265342,
    47.546542
   ],
   [
    10.265086,
    47.546765
   ],
   [
    10.264408,
    47.547299
   ],
   [
    10.263795,
    47.547737
   ],
   [
    10.263086,
    47.548221
   ],
   [
    10.261635,
    47.549186
   ],
   [
    10.260583,
    47.54987
   ],
   [
    10.257911,
    47.551624
   ],
   [
    10.254953,
    47.553569
   ],
   [
    10.25355,
    47.554496
   ],
   [
    10.251827,
    47.555621
   ],
   [
    10.251432,
    47.555882
   ],
   [
    10.251183,
    47.556048
   ],
   [
    10.250338,
    47.556596
   ],
   [
    10.249834,
    47.556926
   ],
   [
    10.249446,
    47.557194
   ],
   [
    10.248859,
    47.557563
   ],
   [
    10.247615,
    47.55839
   ],
   [
    10.246702,
    47.55899
   ],
   [
    10.245612,
    47.559713
   ],
   [
    10.244982,
    47.560144
   ],
   [
    10.244544,
    47.560462
   ],
   [
    10.243992,
    47.560882
   ],
   [
    10.243672,
    47.561147
   ],
   [
    10.243193,
    47.56157
   ],
   [
    10.242787,
    47.561964
   ],
   [
    10.242636,
    47.562124
   ],
   [
    10.242458,
    47.562312
   ],
   [
    10.242076,
    47.562761
   ],
   [
    10.241832,
    47.563114
   ],
   [
    10.24164,
    47.563419
   ],
   [
    10.241461,
    47.563751
   ],
   [
    10.241262,
    47.56421
   ],
   [
    10.241126,
    47.564612
   ],
   [
    10.241047,
    47.565006
   ],
   [
    10.241001,
    47.565266
   ],
   [
    10.240981,
    47.565607
   ],
   [
    10.240991,
    47.566018
   ],
   [
    10.241027,
    47.566366
   ],
   [
    10.241096,
    47.566695
   ],
   [
    10.24115,
    47.56691
   ],
   [
    10.241255,
    47.567208
   ],
   [
    10.241366,
    47.567492
   ],
   [
    10.241501,
    47.567766
   ],
   [
    10.241662,
    47.568065
   ],
   [
    10.24172,
    47.568163
   ],
   [
    10.241874,
    47.568391
   ],
   [
    10.242107,
    47.568708
   ],
   [
    10.242423,
    47.569054
   ],
   [
    10.242693,
    47.569331
   ],
   [
    10.242918,
    47.569534
   ],
   [
    10.243141,
    47.569713
   ],
   [
    10.243599,
    47.570052
   ],
   [
    10.243938,
    47.570279
   ],
   [
    10.244329,
    47.57052
   ],
   [
    10.244702,
    47.570724
   ],
   [
    10.245127,
    47.570925
   ],
   [
    10.24577,
    47.571203
   ],
   [
    10.246873,
    47.571722
   ],
   [
    10.247369,
    47.572002
   ],
   [
    10.247748,
    47.572259
   ],
   [
    10.248093,
    47.572521
   ],
   [
    10.248564,
    47.572957
   ],
   [
    10.248962,
    47.573387
   ],
   [
    10.249196,
    47.573703
   ],
   [
    10.249426,
    47.574065
   ],
   [
    10.249546,
    47.574293
   ],
   [
    10.249694,
    47.57465
   ],
   [
    10.249792,
    47.574938
   ],
   [
    10.249943,
    47.57581
   ],
   [
    10.249954,
    47.57604
   ],
   [
    10.24996,
    47.576158
   ],
   [
    10.249943,
    47.576321
   ],
   [
    10.24989,
    47.576859
   ],
   [
    10.249805,
    47.577746
   ],
   [
    10.249805,
    47.578147
   ],
   [
    10.249831,
    47.578531
   ],
   [
    10.249892,
    47.578963
   ],
   [
    10.249975,
    47.579275
   ],
   [
    10.250071,
    47.579594
   ],
   [
    10.250233,
    47.580012
   ],
   [
    10.250403,
    47.580349
   ],
   [
    10.250605,
    47.580704
   ],
   [
    10.250798,
    47.581031
   ],
   [
    10.250985,
    47.581295
   ],
   [
    10.251082,
    47.581409
   ],
   [
    10.251385,
    47.581785
   ],
   [
    10.25194,
    47.582417
   ],
   [
    10.252532,
    47.583052
   ],
   [
    10.25336,
    47.583952
   ],
   [
    10.254236,
    47.584878
   ],
   [
    10.257104,
    47.587962
   ],
   [
    10.258451,
    47.589395
   ],
   [
    10.2594,
    47.590413
   ],
   [
    10.260677,
    47.591783
   ],
   [
    10.261631,
    47.592809
   ],
   [
    10.262132,
    47.593337
   ],
   [
    10.262553,
    47.593787
   ],
   [
    10.2629,
    47.594139
   ],
   [
    10.263322,
    47.594548
   ],
   [
    10.263689,
    47.594884
   ],
   [
    10.264113,
    47.595237
   ],
   [
    10.264979,
    47.595907
   ],
   [
    10.265944,
    47.596548
   ],
   [
    10.267303,
    47.597415
   ],
   [
    10.267831,
    47.597775
   ],
   [
    10.268698,
    47.598428
   ],
   [
    10.269109,
    47.598755
   ],
   [
    10.269543,
    47.599137
   ],
   [
    10.270261,
    47.599838
   ],
   [
    10.270721,
    47.600324
   ],
   [
    10.271084,
    47.600738
   ],
   [
    10.271328,
    47.601054
   ],
   [
    10.271556,
    47.601383
   ],
   [
    10.271761,
    47.601673
   ],
   [
    10.271976,
    47.602001
   ],
   [
    10.272229,
    47.60242
   ],
   [
    10.272512,
    47.602979
   ],
   [
    10.272825,
    47.603644
   ],
   [
    10.272997,
    47.60408
   ],
   [
    10.273152,
    47.604534
   ],
   [
    10.273284,
    47.605007
   ],
   [
    10.273343,
    47.605344
   ],
   [
    10.273472,
    47.606002
   ],
   [
    10.273637,
    47.607304
   ],
   [
    10.273644,
    47.607459
   ],
   [
    10.273694,
    47.608058
   ],
   [
    10.273736,
    47.608488
   ],
   [
    10.273814,
    47.609319
   ],
   [
    10.273907,
    47.610298
   ],
   [
    10.273962,
    47.610817
   ],
   [
    10.274052,
    47.611288
   ],
   [
    10.274133,
    47.611707
   ],
   [
    10.274224,
    47.612073
   ],
   [
    10.27446,
    47.612809
   ],
   [
    10.27484,
    47.613828
   ],
   [
    10.275006,
    47.614273
   ],
   [
    10.275259,
    47.614965
   ],
   [
    10.275569,
    47.615903
   ],
   [
    10.275708,
    47.616451
   ],
   [
    10.2758,
    47.616895
   ],
   [
    10.275916,
    47.617568
   ],
   [
    10.27594,
    47.617707
   ],
   [
    10.275994,
    47.618122
   ],
   [
    10.276044,
    47.618601
   ],
   [
    10.276179,
    47.619847
   ],
   [
    10.27631,
    47.620823
   ],
   [
    10.276534,
    47.622119
   ],
   [
    10.27668,
    47.622726
   ],
   [
    10.276882,
    47.623459
   ],
   [
    10.277142,
    47.624288
   ],
   [
    10.277295,
    47.624704
   ],
   [
    10.277544,
    47.625349
   ],
   [
    10.277825,
    47.62601
   ],
   [
    10.278235,
    47.62686
   ],
   [
    10.278435,
    47.627263
   ],
   [
    10.278735,
    47.627818
   ],
   [
    10.279205,
    47.628621
   ],
   [
    10.279567,
    47.629209
   ],
   [
    10.279742,
    47.629494
   ],
   [
    10.280316,
    47.630427
   ],
   [
    10.281023,
    47.63156
   ],
   [
    10.281571,
    47.632438
   ],
   [
    10.282054,
    47.633182
   ],
   [
    10.282263,
    47.633484
   ],
   [
    10.282489,
    47.63378
   ],
   [
    10.282885,
    47.634233
   ],
   [
    10.283232,
    47.63459
   ],
   [
    10.283629,
    47.634985
   ],
   [
    10.284393,
    47.635667
   ],
   [
    10.285375,
    47.636586
   ],
   [
    10.285587,
    47.636789
   ],
   [
    10.285802,
    47.637023
   ],
   [
    10.285977,
    47.637233
   ],
   [
    10.286143,
    47.63746
   ],
   [
    10.2863,
    47.637705
   ],
   [
    10.286421,
    47.637926
   ],
   [
    10.286532,
    47.63815
   ],
   [
    10.286646,
    47.638432
   ],
   [
    10.286732,
    47.638675
   ],
   [
    10.286817,
    47.639028
   ],
   [
    10.286892,
    47.639388
   ],
   [
    10.287009,
    47.640033
   ],
   [
    10.287067,
    47.640274
   ],
   [
    10.287161,
    47.640595
   ],
   [
    10.287314,
    47.641043
   ],
   [
    10.287458,
    47.641361
   ],
   [
    10.287569,
    47.641593
   ],
   [
    10.287739,
    47.641891
   ],
   [
    10.287914,
    47.642167
   ],
   [
    10.288072,
    47.642394
   ],
   [
    10.288515,
    47.642938
   ],
   [
    10.289044,
    47.64349
   ],
   [
    10.289326,
    47.643747
   ],
   [
    10.289783,
    47.644099
   ],
   [
    10.289846,
    47.644146
   ],
   [
    10.290389,
    47.644551
   ],
   [
    10.291137,
    47.645069
   ],
   [
    10.291952,
    47.645602
   ],
   [
    10.292776,
    47.646163
   ],
   [
    10.29359,
    47.64674
   ],
   [
    10.293886,
    47.646988
   ],
   [
    10.29413,
    47.647191
   ],
   [
    10.294382,
    47.64742
   ],
   [
    10.29458,
    47.647607
   ],
   [
    10.294807,
    47.647853
   ],
   [
    10.294821,
    47.64787
   ],
   [
    10.295223,
    47.648371
   ],
   [
    10.295299,
    47.648483
   ],
   [
    10.295507,
    47.648836
   ],
   [
    10.295685,
    47.649205
   ],
   [
    10.295766,
    47.649418
   ],
   [
    10.295867,
    47.649682
   ],
   [
    10.295957,
    47.650129
   ],
   [
    10.296007,
    47.650649
   ],
   [
    10.295965,
    47.65219
   ],
   [
    10.296003,
    47.652734
   ],
   [
    10.296097,
    47.653236
   ],
   [
    10.296238,
    47.653654
   ],
   [
    10.296423,
    47.654051
   ],
   [
    10.296747,
    47.654582
   ],
   [
    10.297348,
    47.655403
   ],
   [
    10.297736,
    47.65596
   ],
   [
    10.297908,
    47.656247
   ],
   [
    10.298069,
    47.656539
   ],
   [
    10.298204,
    47.656846
   ],
   [
    10.2984,
    47.657362
   ],
   [
    10.298543,
    47.657874
   ],
   [
    10.298611,
    47.658222
   ],
   [
    10.298659,
    47.658575
   ],
   [
    10.298679,
    47.659148
   ],
   [
    10.298678,
    47.659734
   ],
   [
    10.298666,
    47.660665
   ],
   [
    10.298705,
    47.661346
   ],
   [
    10.298754,
    47.661717
   ],
   [
    10.298914,
    47.6624
   ],
   [
    10.299149,
    47.663284
   ],
   [
    10.299244,
    47.66378
   ],
   [
    10.299302,
    47.664147
   ],
   [
    10.299298,
    47.664722
   ],
   [
    10.299252,
    47.665207
   ],
   [
    10.299135,
    47.665696
   ],
   [
    10.29883,
    47.666441
   ],
   [
    10.298678,
    47.666793
   ],
   [
    10.29842,
    47.667334
   ],
   [
    10.298378,
    47.667418
   ],
   [
    10.298259,
    47.667749
   ],
   [
    10.298188,
    47.66801
   ],
   [
    10.298126,
    47.668355
   ],
   [
    10.2981,
    47.668725
   ],
   [
    10.298115,
    47.669096
   ],
   [
    10.298154,
    47.669334
   ],
   [
    10.298252,
    47.669628
   ],
   [
    10.298461,
    47.670168
   ],
   [
    10.298679,
    47.670539
   ],
   [
    10.298951,
    47.670904
   ],
   [
    10.29926,
    47.671235
   ],
   [
    10.299827,
    47.671731
   ],
   [
    10.300175,
    47.672013
   ],
   [
    10.300558,
    47.672343
   ],
   [
    10.300798,
    47.672592
   ],
   [
    10.300996,
    47.672819
   ],
   [
    10.301183,
    47.673075
   ],
   [
    10.301346,
    47.673367
   ],
   [
    10.301463,
    47.673621
   ],
   [
    10.301531,
    47.673827
   ],
   [
    10.30161,
    47.674088
   ],
   [
    10.301662,
    47.674317
   ],
   [
    10.301825,
    47.675286
   ],
   [
    10.301867,
    47.675442
   ],
   [
    10.301927,
    47.675665
   ],
   [
    10.301981,
    47.675829
   ],
   [
    10.302103,
    47.676095
   ],
   [
    10.302215,
    47.676265
   ],
   [
    10.302323,
    47.676419
   ],
   [
    10.302553,
    47.67671
   ],
   [
    10.30274,
    47.676924
   ],
   [
    10.302921,
    47.677092
   ],
   [
    10.303495,
    47.677597
   ],
   [
    10.303699,
    47.677811
   ],
   [
    10.303903,
    47.678019
   ],
   [
    10.30411,
    47.678285
   ],
   [
    10.304264,
    47.678559
   ],
   [
    10.304324,
    47.678667
   ],
   [
    10.304374,
    47.67879
   ],
   [
    10.304411,
    47.678882
   ],
   [
    10.304438,
    47.678957
   ],
   [
    10.304516,
    47.679213
   ],
   [
    10.30457,
    47.679447
   ],
   [
    10.304542,
    47.679614
   ],
   [
    10.304659,
    47.679966
   ],
   [
    10.304731,
    47.680177
   ],
   [
    10.304763,
    47.680276
   ],
   [
    10.30482,
    47.680464
   ],
   [
    10.304882,
    47.68065
   ],
   [
    10.304985,
    47.680911
   ],
   [
    10.305081,
    47.681133
   ],
   [
    10.305142,
    47.681279
   ],
   [
    10.305195,
    47.681409
   ],
   [
    10.305232,
    47.681488
   ],
   [
    10.305269,
    47.681581
   ],
   [
    10.3053,
    47.68166
   ],
   [
    10.305403,
    47.681925
   ],
   [
    10.305462,
    47.682056
   ],
   [
    10.30582,
    47.682824
   ],
   [
    10.305928,
    47.683
   ],
   [
    10.306088,
    47.683182
   ],
   [
    10.306312,
    47.683404
   ],
   [
    10.306519,
    47.683603
   ],
   [
    10.307338,
    47.684178
   ],
   [
    10.307472,
    47.684269
   ],
   [
    10.307684,
    47.684453
   ],
   [
    10.307708,
    47.684474
   ],
   [
    10.307784,
    47.68454
   ],
   [
    10.307859,
    47.684619
   ],
   [
    10.30807,
    47.684842
   ],
   [
    10.308224,
    47.685033
   ],
   [
    10.308405,
    47.685268
   ],
   [
    10.308639,
    47.685648
   ],
   [
    10.308734,
    47.685803
   ],
   [
    10.308979,
    47.686197
   ],
   [
    10.309113,
    47.686363
   ],
   [
    10.309216,
    47.686501
   ],
   [
    10.309236,
    47.686528
   ],
   [
    10.309311,
    47.686629
   ],
   [
    10.309364,
    47.686698
   ],
   [
    10.309419,
    47.686771
   ],
   [
    10.309704,
    47.687153
   ],
   [
    10.309786,
    47.687267
   ],
   [
    10.309838,
    47.687336
   ],
   [
    10.31007,
    47.687672
   ],
   [
    10.31035,
    47.68818
   ],
   [
    10.310581,
    47.688701
   ],
   [
    10.310693,
    47.689122
   ],
   [
    10.310718,
    47.689347
   ],
   [
    10.310708,
    47.689624
   ],
   [
    10.310599,
    47.690433
   ],
   [
    10.310578,
    47.690915
   ],
   [
    10.310587,
    47.691133
   ],
   [
    10.310598,
    47.691322
   ],
   [
    10.310771,
    47.691936
   ],
   [
    10.310892,
    47.692191
   ],
   [
    10.31129,
    47.692955
   ],
   [
    10.311346,
    47.693048
   ],
   [
    10.311396,
    47.693128
   ],
   [
    10.311518,
    47.69333
   ],
   [
    10.311548,
    47.693385
   ],
   [
    10.312097,
    47.69425
   ],
   [
    10.31221,
    47.694564
   ],
   [
    10.312266,
    47.695019
   ],
   [
    10.312277,
    47.69587
   ],
   [
    10.312293,
    47.696022
   ],
   [
    10.312306,
    47.696178
   ],
   [
    10.312343,
    47.696338
   ],
   [
    10.312387,
    47.696468
   ],
   [
    10.312449,
    47.696596
   ],
   [
    10.312571,
    47.69683
   ],
   [
    10.312683,
    47.697044
   ],
   [
    10.312786,
    47.697222
   ],
   [
    10.312919,
    47.697454
   ],
   [
    10.312945,
    47.697509
   ],
   [
    10.313002,
    47.697631
   ],
   [
    10.31307,
    47.697801
   ],
   [
    10.313102,
    47.697929
   ],
   [
    10.313124,
    47.698044
   ],
   [
    10.313148,
    47.698261
   ],
   [
    10.313154,
    47.698511
   ],
   [
    10.313135,
    47.698814
   ],
   [
    10.313091,
    47.699228
   ],
   [
    10.312984,
    47.700105
   ],
   [
    10.312909,
    47.700788
   ],
   [
    10.312889,
    47.701115
   ],
   [
    10.312881,
    47.701429
   ],
   [
    10.312885,
    47.701747
   ],
   [
    10.312888,
    47.701961
   ],
   [
    10.312902,
    47.702205
   ],
   [
    10.312914,
    47.702531
   ],
   [
    10.312917,
    47.702668
   ],
   [
    10.31292,
    47.702842
   ],
   [
    10.312919,
    47.702868
   ],
   [
    10.312927,
    47.703185
   ],
   [
    10.31291,
    47.703571
   ],
   [
    10.312865,
    47.703925
   ],
   [
    10.312825,
    47.704173
   ],
   [
    10.312806,
    47.704272
   ],
   [
    10.312779,
    47.704391
   ],
   [
    10.312746,
    47.704504
   ],
   [
    10.312594,
    47.704919
   ],
   [
    10.31244,
    47.705328
   ],
   [
    10.31229,
    47.705876
   ],
   [
    10.312103,
    47.706285
   ],
   [
    10.312032,
    47.70643
   ],
   [
    10.311969,
    47.706558
   ],
   [
    10.311885,
    47.706716
   ],
   [
    10.311835,
    47.706854
   ],
   [
    10.311773,
    47.707115
   ],
   [
    10.311737,
    47.70729
   ],
   [
    10.311693,
    47.707628
   ],
   [
    10.311699,
    47.707989
   ],
   [
    10.311718,
    47.708147
   ],
   [
    10.311756,
    47.708297
   ],
   [
    10.311777,
    47.708341
   ],
   [
    10.311919,
    47.708602
   ],
   [
    10.312157,
    47.708914
   ],
   [
    10.312493,
    47.709267
   ],
   [
    10.31271,
    47.709485
   ],
   [
    10.313134,
    47.709922
   ],
   [
    10.313249,
    47.71004
   ],
   [
    10.31344,
    47.710221
   ],
   [
    10.31366,
    47.710429
   ],
   [
    10.313846,
    47.710602
   ],
   [
    10.314053,
    47.710807
   ],
   [
    10.314175,
    47.710954
   ],
   [
    10.314348,
    47.711173
   ],
   [
    10.314459,
    47.711315
   ],
   [
    10.314723,
    47.711701
   ],
   [
    10.314924,
    47.712114
   ],
   [
    10.315079,
    47.712531
   ],
   [
    10.315213,
    47.713142
   ],
   [
    10.315267,
    47.713751
   ],
   [
    10.315263,
    47.714006
   ],
   [
    10.315259,
    47.714084
   ],
   [
    10.315244,
    47.714173
   ],
   [
    10.315236,
    47.714222
   ],
   [
    10.315191,
    47.714485
   ],
   [
    10.315145,
    47.71472
   ],
   [
    10.315174,
    47.7148
   ],
   [
    10.315176,
    47.714915
   ],
   [
    10.315191,
    47.714987
   ],
   [
    10.315213,
    47.715039
   ],
   [
    10.315252,
    47.715098
   ],
   [
    10.315397,
    47.715215
   ],
   [
    10.315453,
    47.715283
   ],
   [
    10.315918,
    47.715442
   ],
   [
    10.316774,
    47.71567
   ],
   [
    10.317126,
    47.715744
   ],
   [
    10.3172,
    47.71576
   ],
   [
    10.317344,
    47.715774
   ],
   [
    10.317573,
    47.715797
   ],
   [
    10.317776,
    47.715817
   ],
   [
    10.318029,
    47.71583
   ],
   [
    10.318293,
    47.715834
   ],
   [
    10.318628,
    47.715819
   ],
   [
    10.318983,
    47.715781
   ],
   [
    10.319323,
    47.715722
   ],
   [
    10.319645,
    47.715661
   ],
   [
    10.319887,
    47.715617
   ],
   [
    10.32017,
    47.71556
   ],
   [
    10.320355,
    47.715522
   ],
   [
    10.320395,
    47.715631
   ],
   [
    10.320406,
    47.715687
   ],
   [
    10.320412,
    47.715739
   ],
   [
    10.320386,
    47.715915
   ],
   [
    10.320292,
    47.716042
   ],
   [
    10.320243,
    47.716108
   ],
   [
    10.320256,
    47.716247
   ],
   [
    10.320263,
    47.716295
   ],
   [
    10.320314,
    47.716367
   ],
   [
    10.320386,
    47.716416
   ],
   [
    10.320523,
    47.716475
   ],
   [
    10.320625,
    47.716487
   ],
   [
    10.320809,
    47.716511
   ],
   [
    10.321036,
    47.716544
   ],
   [
    10.321138,
    47.716557
   ],
   [
    10.32129,
    47.71658
   ],
   [
    10.321393,
    47.716606
   ],
   [
    10.321443,
    47.716649
   ],
   [
    10.321506,
    47.716723
   ],
   [
    10.321539,
    47.716785
   ],
   [
    10.321557,
    47.716901
   ],
   [
    10.321581,
    47.717271
   ],
   [
    10.321573,
    47.717731
   ],
   [
    10.321563,
    47.717818
   ],
   [
    10.321525,
    47.718079
   ],
   [
    10.321418,
    47.718432
   ],
   [
    10.321632,
    47.718459
   ],
   [
    10.321796,
    47.718479
   ],
   [
    10.32204,
    47.718454
   ],
   [
    10.321901,
    47.718014
   ]
  ],
  "type": "LineString"
 },
 "properties": {
  "quelle": "OSRM router.project-osrm.org, Profil driving",
  "von": [
   47.515,
   10.281
  ],
  "nach": [
   47.718,
   10.322
  ],
  "distanz_m": 26369.5,
  "dauer_s": 1347.4,
  "punkte": 592
 }
}
