{"type":"Feature","geometry":{"coordinates":[[10.21695,47.55887],[10.21738,47.55879],[10.21733,47.5587],[10.218,47.5586],[10.21829,47.55855],[10.21858,47.55851],[10.2188,47.55847],[10.21922,47.55841],[10.21976,47.55835],[10.22012,47.55834],[10.22048,47.55834],[10.22092,47.55837],[10.22108,47.55837],[10.22138,47.55836],[10.22158,47.55833],[10.22181,47.55827],[10.22189,47.55825],[10.22242,47.55805],[10.22266,47.55794],[10.22272,47.55792],[10.22292,47.55784],[10.22299,47.55782],[10.22329,47.55776],[10.22354,47.55771],[10.22387,47.55768],[10.22439,47.55768],[10.22466,47.55769],[10.22487,47.55767],[10.22513,47.55763],[10.2256,47.55748],[10.22565,47.55746],[10.22575,47.55743],[10.22592,47.55738],[10.22653,47.55719],[10.2266,47.55716],[10.22754,47.55688],[10.22757,47.55686],[10.22842,47.55655],[10.22891,47.55633],[10.2294,47.55599],[10.22951,47.55592],[10.2297,47.55579],[10.22973,47.55577],[10.23007,47.55553],[10.23037,47.55533],[10.23044,47.55527],[10.23052,47.55521],[10.2309,47.55497],[10.231,47.55491],[10.23107,47.55487],[10.23127,47.55476],[10.23133,47.55473],[10.23144,47.55464],[10.2315,47.5546],[10.23152,47.55458],[10.2315,47.55456],[10.23149,47.55454],[10.23149,47.55452],[10.23149,47.5545],[10.2315,47.55448],[10.23143,47.55443],[10.23131,47.55434],[10.23092,47.55414],[10.2308,47.55404],[10.23069,47.55395],[10.23062,47.55381],[10.23058,47.55365],[10.23053,47.55355],[10.23052,47.55353],[10.23048,47.55346],[10.23046,47.55345],[10.23044,47.55344],[10.23042,47.55343],[10.2304,47.55342],[10.23039,47.5534],[10.23038,47.55338],[10.23038,47.55336],[10.23038,47.55333],[10.2304,47.55331],[10.23042,47.55329],[10.23045,47.55327],[10.23049,47.55326],[10.23053,47.55326],[10.23057,47.55326],[10.23068,47.55322],[10.23085,47.55316],[10.23093,47.55311],[10.23111,47.553],[10.23115,47.55298],[10.2315,47.55282],[10.23165,47.55275],[10.23176,47.55271],[10.2321,47.55259],[10.23242,47.55249],[10.23278,47.55238],[10.23292,47.55233],[10.2333,47.55221],[10.2337,47.55208],[10.23383,47.55203],[10.23403,47.55196],[10.23425,47.55187],[10.23432,47.55185],[10.23512,47.55155],[10.23586,47.55126],[10.23669,47.55098],[10.23686,47.55092],[10.23742,47.5508],[10.2382,47.55067],[10.23874,47.55061],[10.23922,47.55059],[10.23957,47.55059],[10.23978,47.55058],[10.24004,47.55058],[10.24005,47.55053],[10.2401,47.55038],[10.24011,47.55037],[10.24016,47.55021],[10.24024,47.55008],[10.24027,47.54992],[10.24026,47.54975],[10.24019,47.54959],[10.24013,47.54942],[10.2401,47.54931],[10.24009,47.54913],[10.24016,47.549],[10.24028,47.54888],[10.24039,47.54883],[10.24053,47.54878],[10.2409,47.54871],[10.24127,47.54867],[10.24142,47.54868],[10.24157,47.54871],[10.24172,47.5487],[10.24182,47.54869],[10.24189,47.54864],[10.24191,47.54857],[10.24186,47.54849],[10.24174,47.54837],[10.24149,47.54814],[10.24143,47.54801],[10.24147,47.54791],[10.24155,47.54787],[10.24167,47.54785],[10.2418,47.54785],[10.24184,47.54785],[10.24198,47.54788],[10.24216,47.5479],[10.2423,47.5479],[10.2424,47.54787],[10.24246,47.54782],[10.24256,47.5477],[10.24268,47.54752],[10.24283,47.54739],[10.24288,47.54736],[10.24316,47.5472],[10.24331,47.54711],[10.24355,47.54695],[10.24398,47.54666],[10.24448,47.54632],[10.24463,47.54621],[10.24474,47.54611],[10.24502,47.54579],[10.24514,47.5457],[10.24525,47.54564],[10.24542,47.54559],[10.24563,47.54553],[10.2459,47.54543],[10.24614,47.54536],[10.24638,47.54532],[10.24699,47.54522],[10.2472,47.54517],[10.24738,47.54512],[10.24754,47.54505],[10.24766,47.54499],[10.24786,47.54487],[10.24806,47.54473],[10.2482,47.54462],[10.24814,47.54444],[10.24806,47.54421],[10.24824,47.544],[10.2483,47.54393],[10.24838,47.54378],[10.24836,47.54366],[10.24827,47.54348],[10.24819,47.54329],[10.24818,47.54326],[10.24819,47.54314],[10.24831,47.54291],[10.24836,47.54278],[10.24835,47.54274],[10.24835,47.54272],[10.24825,47.5426],[10.24815,47.54251],[10.24811,47.54243],[10.24813,47.54233],[10.24816,47.54223],[10.24825,47.54209],[10.2473,47.54198]],"type":"LineString"},"properties":{"quelle":"OSRM router.project-osrm.org, Profil driving","von":[47.559,10.217],"nach":[47.54209,10.24727],"distanz_m":3671.8,"dauer_s":367.9,"punkte":198}}
