{"type":"Feature","geometry":{"coordinates":[[10.28447,47.51232],[10.2843,47.5123],[10.28408,47.51228],[10.28386,47.51228],[10.28371,47.51224],[10.28364,47.51222],[10.28355,47.51217],[10.28348,47.51223],[10.28327,47.51239],[10.28312,47.51252],[10.28277,47.51282],[10.28262,47.5129],[10.28246,47.51296],[10.28232,47.51299],[10.2821,47.51303],[10.28187,47.51306],[10.28103,47.51308],[10.28088,47.51308],[10.28089,47.51325],[10.28092,47.51341],[10.28097,47.51367],[10.2811,47.51408],[10.28115,47.5142],[10.28119,47.51439],[10.28124,47.51457],[10.28126,47.51476],[10.28128,47.51493],[10.2813,47.51512],[10.28132,47.51526],[10.28112,47.51527],[10.28101,47.51528],[10.28097,47.51507]],"type":"LineString"},"properties":{"quelle":"OSRM router.project-osrm.org, Profil driving","von":[47.51183,10.28461],"nach":[47.515,10.281],"distanz_m":605.4,"dauer_s":99.3,"punkte":32}}
