{
 "type": "Feature",
 "geometry": {
  "coordinates": [
   [
    10.340433,
    47.480273
   ],
   [
    10.340433,
    47.480273
   ],
   [
    10.340067,
    47.480511
   ],
   [
    10.339089,
    47.481074
   ],
   [
    10.338152,
    47.481506
   ],
   [
    10.336987,
    47.482041
   ],
   [
    10.335523,
    47.482485
   ],
   [
    10.334992,
    47.482726
   ],
   [
    10.334241,
    47.483163
   ],
   [
    10.332969,
    47.484264
   ],
   [
    10.33273,
    47.484401
   ],
   [
    10.331596,
    47.484796
   ],
   [
    10.331448,
    47.484815
   ],
   [
    10.33133,
    47.484807
   ],
   [
    10.331211,
    47.484763
   ],
   [
    10.331086,
    47.484662
   ],
   [
    10.330583,
    47.484253
   ],
   [
    10.330045,
    47.48411
   ],
   [
    10.329678,
    47.48412
   ],
   [
    10.328051,
    47.484381
   ],
   [
    10.327914,
    47.484535
   ],
   [
    10.328022,
    47.484633
   ],
   [
    10.328666,
    47.484966
   ],
   [
    10.328877,
    47.485127
   ],
   [
    10.328883,
    47.485186
   ],
   [
    10.328888,
    47.485243
   ],
   [
    10.328833,
    47.485329
   ],
   [
    10.328268,
    47.485783
   ],
   [
    10.327647,
    47.48619
   ],
   [
    10.326863,
    47.486618
   ],
   [
    10.326289,
    47.487057
   ],
   [
    10.325971,
    47.487401
   ],
   [
    10.325876,
    47.48745
   ],
   [
    10.325842,
    47.487466
   ],
   [
    10.325706,
    47.487479
   ],
   [
    10.325481,
    47.487401
   ],
   [
    10.324926,
    47.487006
   ],
   [
    10.324649,
    47.486913
   ],
   [
    10.324417,
    47.48698
   ],
   [
    10.323902,
    47.48761
   ],
   [
    10.323716,
    47.487633
   ],
   [
    10.323518,
    47.487513
   ],
   [
    10.323037,
    47.486871
   ],
   [
    10.322906,
    47.486765
   ],
   [
    10.322738,
    47.486735
   ],
   [
    10.322534,
    47.486761
   ],
   [
    10.322427,
    47.486799
   ],
   [
    10.322283,
    47.486994
   ],
   [
    10.322083,
    47.487044
   ],
   [
    10.321919,
    47.486958
   ],
   [
    10.321858,
    47.486815
   ],
   [
    10.32183,
    47.486632
   ],
   [
    10.321855,
    47.486501
   ],
   [
    10.321829,
    47.486311
   ],
   [
    10.321769,
    47.486202
   ],
   [
    10.321675,
    47.486151
   ],
   [
    10.32159,
    47.486134
   ],
   [
    10.321451,
    47.486125
   ],
   [
    10.321357,
    47.486143
   ],
   [
    10.321104,
    47.486406
   ],
   [
    10.320815,
    47.486515
   ],
   [
    10.319926,
    47.486358
   ],
   [
    10.319635,
    47.486312
   ],
   [
    10.318782,
    47.485991
   ],
   [
    10.318553,
    47.485889
   ],
   [
    10.318068,
    47.485582
   ],
   [
    10.317778,
    47.48544
   ],
   [
    10.317523,
    47.485345
   ],
   [
    10.317331,
    47.485297
   ],
   [
    10.317174,
    47.485306
   ],
   [
    10.317001,
    47.485354
   ],
   [
    10.315377,
    47.485956
   ],
   [
    10.314226,
    47.486227
   ],
   [
    10.31387,
    47.486245
   ],
   [
    10.313264,
    47.486142
   ],
   [
    10.31309,
    47.486087
   ],
   [
    10.312912,
    47.486038
   ],
   [
    10.31257,
    47.48599
   ],
   [
    10.312218,
    47.486054
   ],
   [
    10.311727,
    47.486236
   ],
   [
    10.310308,
    47.486774
   ],
   [
    10.310134,
    47.486803
   ],
   [
    10.309664,
    47.486801
   ],
   [
    10.309482,
    47.486807
   ],
   [
    10.309354,
    47.486837
   ],
   [
    10.309063,
    47.486961
   ],
   [
    10.308898,
    47.487007
   ],
   [
    10.308684,
    47.487015
   ],
   [
    10.307883,
    47.487028
   ],
   [
    10.307585,
    47.487069
   ],
   [
    10.307221,
    47.487166
   ],
   [
    10.306685,
    47.487339
   ],
   [
    10.306519,
    47.48737
   ],
   [
    10.306367,
    47.487356
   ],
   [
    10.305828,
    47.487207
   ],
   [
    10.30562,
    47.487194
   ],
   [
    10.305372,
    47.487256
   ],
   [
    10.304977,
    47.487391
   ],
   [
    10.304465,
    47.487561
   ],
   [
    10.304007,
    47.487166
   ],
   [
    10.303863,
    47.487047
   ],
   [
    10.303712,
    47.486996
   ],
   [
    10.303553,
    47.486995
   ],
   [
    10.303282,
    47.487033
   ],
   [
    10.302214,
    47.487302
   ],
   [
    10.30199,
    47.487316
   ],
   [
    10.301591,
    47.487277
   ],
   [
    10.301348,
    47.487254
   ],
   [
    10.301171,
    47.487199
   ],
   [
    10.300448,
    47.486732
   ],
   [
    10.300281,
    47.486661
   ],
   [
    10.299949,
    47.486536
   ],
   [
    10.29975,
    47.486407
   ],
   [
    10.29904,
    47.485857
   ],
   [
    10.298933,
    47.485803
   ],
   [
    10.298683,
    47.48581
   ],
   [
    10.298397,
    47.485967
   ],
   [
    10.298348,
    47.486005
   ],
   [
    10.297871,
    47.486375
   ],
   [
    10.297635,
    47.486965
   ],
   [
    10.297544,
    47.487126
   ],
   [
    10.297449,
    47.487253
   ],
   [
    10.297351,
    47.487344
   ],
   [
    10.29706,
    47.487429
   ],
   [
    10.296867,
    47.487466
   ],
   [
    10.296558,
    47.487508
   ],
   [
    10.296143,
    47.487637
   ],
   [
    10.295872,
    47.487674
   ],
   [
    10.295819,
    47.487676
   ],
   [
    10.295538,
    47.48757
   ],
   [
    10.295515,
    47.487562
   ],
   [
    10.295368,
    47.487437
   ],
   [
    10.295217,
    47.487285
   ],
   [
    10.295024,
    47.4872
   ],
   [
    10.294737,
    47.487111
   ],
   [
    10.294472,
    47.487077
   ],
   [
    10.294238,
    47.486971
   ],
   [
    10.293701,
    47.486321
   ],
   [
    10.293599,
    47.4862
   ],
   [
    10.293471,
    47.486081
   ],
   [
    10.29303,
    47.485779
   ],
   [
    10.292827,
    47.485593
   ],
   [
    10.292639,
    47.48547
   ],
   [
    10.292406,
    47.485353
   ],
   [
    10.292186,
    47.48525
   ],
   [
    10.292009,
    47.485224
   ],
   [
    10.291577,
    47.485214
   ],
   [
    10.291349,
    47.485185
   ],
   [
    10.290702,
    47.485083
   ],
   [
    10.290078,
    47.484962
   ],
   [
    10.289884,
    47.484895
   ],
   [
    10.289786,
    47.484818
   ],
   [
    10.289723,
    47.484728
   ],
   [
    10.289694,
    47.4846
   ],
   [
    10.289732,
    47.484242
   ],
   [
    10.289743,
    47.484051
   ],
   [
    10.289701,
    47.483932
   ],
   [
    10.289638,
    47.483843
   ],
   [
    10.289511,
    47.483747
   ],
   [
    10.289451,
    47.483788
   ],
   [
    10.289202,
    47.483933
   ],
   [
    10.28897,
    47.484072
   ],
   [
    10.288661,
    47.48424
   ],
   [
    10.28855,
    47.48433
   ],
   [
    10.288446,
    47.484432
   ],
   [
    10.288326,
    47.484617
   ],
   [
    10.288206,
    47.484913
   ],
   [
    10.288119,
    47.485056
   ],
   [
    10.288034,
    47.485139
   ],
   [
    10.287906,
    47.485238
   ],
   [
    10.287708,
    47.485313
   ],
   [
    10.287496,
    47.485362
   ],
   [
    10.287464,
    47.485369
   ],
   [
    10.287355,
    47.485382
   ],
   [
    10.287251,
    47.48539
   ],
   [
    10.287196,
    47.485433
   ],
   [
    10.286893,
    47.48547
   ],
   [
    10.286681,
    47.485517
   ],
   [
    10.286571,
    47.485569
   ],
   [
    10.286482,
    47.485638
   ],
   [
    10.286412,
    47.485719
   ],
   [
    10.286363,
    47.4858
   ],
   [
    10.286335,
    47.485882
   ],
   [
    10.286307,
    47.486074
   ],
   [
    10.286027,
    47.486136
   ],
   [
    10.285872,
    47.486173
   ],
   [
    10.28576,
    47.486226
   ],
   [
    10.285652,
    47.486218
   ],
   [
    10.285532,
    47.486212
   ],
   [
    10.285158,
    47.486421
   ],
   [
    10.285077,
    47.486448
   ],
   [
    10.284993,
    47.48646
   ],
   [
    10.284899,
    47.486466
   ],
   [
    10.284747,
    47.486468
   ],
   [
    10.284744,
    47.486544
   ],
   [
    10.284735,
    47.486606
   ],
   [
    10.284717,
    47.486673
   ],
   [
    10.284703,
    47.486722
   ],
   [
    10.284631,
    47.486916
   ],
   [
    10.284538,
    47.48708
   ],
   [
    10.28445,
    47.487224
   ],
   [
    10.284305,
    47.487441
   ],
   [
    10.284205,
    47.48759
   ],
   [
    10.284077,
    47.487768
   ],
   [
    10.283781,
    47.488239
   ],
   [
    10.283648,
    47.488526
   ],
   [
    10.283627,
    47.488637
   ],
   [
    10.283577,
    47.488866
   ],
   [
    10.283416,
    47.489574
   ],
   [
    10.283405,
    47.489632
   ],
   [
    10.283396,
    47.48968
   ],
   [
    10.283389,
    47.489723
   ],
   [
    10.283375,
    47.489805
   ],
   [
    10.283362,
    47.489878
   ],
   [
    10.283344,
    47.489982
   ],
   [
    10.28334,
    47.489995
   ],
   [
    10.283207,
    47.490464
   ],
   [
    10.283053,
    47.491017
   ],
   [
    10.283032,
    47.491062
   ],
   [
    10.283022,
    47.491083
   ],
   [
    10.282982,
    47.491172
   ],
   [
    10.282958,
    47.491257
   ],
   [
    10.282945,
    47.491321
   ],
   [
    10.282926,
    47.491405
   ],
   [
    10.282802,
    47.491812
   ],
   [
    10.282223,
    47.493622
   ],
   [
    10.282101,
    47.494131
   ],
   [
    10.282038,
    47.494535
   ],
   [
    10.282075,
    47.495166
   ],
   [
    10.282139,
    47.495533
   ],
   [
    10.282303,
    47.496341
   ],
   [
    10.282285,
    47.496509
   ],
   [
    10.282217,
    47.496687
   ],
   [
    10.282056,
    47.49695
   ],
   [
    10.281794,
    47.497397
   ],
   [
    10.281743,
    47.497717
   ],
   [
    10.281784,
    47.498919
   ],
   [
    10.281818,
    47.499456
   ],
   [
    10.281919,
    47.500192
   ],
   [
    10.281968,
    47.500493
   ],
   [
    10.281966,
    47.500811
   ],
   [
    10.281961,
    47.501004
   ],
   [
    10.281949,
    47.501193
   ],
   [
    10.281886,
    47.501549
   ],
   [
    10.281743,
    47.502291
   ],
   [
    10.281587,
    47.503019
   ],
   [
    10.281577,
    47.503091
   ],
   [
    10.281573,
    47.50312
   ],
   [
    10.281569,
    47.503273
   ],
   [
    10.28157,
    47.503366
   ],
   [
    10.281569,
    47.50351
   ],
   [
    10.28157,
    47.503587
   ],
   [
    10.281574,
    47.503795
   ],
   [
    10.281588,
    47.504054
   ],
   [
    10.281577,
    47.5041
   ],
   [
    10.281554,
    47.504135
   ],
   [
    10.2815,
    47.504163
   ],
   [
    10.281422,
    47.504187
   ],
   [
    10.281325,
    47.504188
   ],
   [
    10.281191,
    47.504163
   ],
   [
    10.281008,
    47.504115
   ],
   [
    10.2807,
    47.504016
   ],
   [
    10.280637,
    47.503994
   ],
   [
    10.280122,
    47.503815
   ],
   [
    10.279859,
    47.50372
   ],
   [
    10.279614,
    47.50363
   ],
   [
    10.279574,
    47.503679
   ],
   [
    10.278903,
    47.504502
   ],
   [
    10.278221,
    47.505522
   ],
   [
    10.278123,
    47.505676
   ],
   [
    10.277491,
    47.50663
   ],
   [
    10.277272,
    47.506964
   ],
   [
    10.277087,
    47.507246
   ],
   [
    10.277037,
    47.507323
   ],
   [
    10.276908,
    47.507519
   ],
   [
    10.276796,
    47.507691
   ],
   [
    10.276278,
    47.508508
   ],
   [
    10.276322,
    47.508536
   ],
   [
    10.27635,
    47.508572
   ],
   [
    10.276359,
    47.508612
   ],
   [
    10.276348,
    47.508652
   ],
   [
    10.276319,
    47.508688
   ],
   [
    10.276274,
    47.508715
   ],
   [
    10.276218,
    47.50873
   ],
   [
    10.276186,
    47.508734
   ],
   [
    10.27607,
    47.508882
   ],
   [
    10.275753,
    47.509457
   ],
   [
    10.275677,
    47.509594
   ],
   [
    10.275528,
    47.510036
   ],
   [
    10.275452,
    47.510312
   ],
   [
    10.275431,
    47.510387
   ],
   [
    10.275361,
    47.510897
   ],
   [
    10.275445,
    47.511284
   ],
   [
    10.275529,
    47.511672
   ],
   [
    10.27577,
    47.512716
   ],
   [
    10.275946,
    47.512985
   ],
   [
    10.276058,
    47.513206
   ],
   [
    10.276199,
    47.513443
   ],
   [
    10.276301,
    47.513819
   ],
   [
    10.276412,
    47.514161
   ],
   [
    10.276458,
    47.514305
   ],
   [
    10.276703,
    47.514289
   ],
   [
    10.276827,
    47.514281
   ],
   [
    10.277289,
    47.514245
   ],
   [
    10.277843,
    47.514213
   ],
   [
    10.277899,
    47.51421
   ],
   [
    10.278404,
    47.51418
   ],
   [
    10.279121,
    47.514137
   ],
   [
    10.279376,
    47.514144
   ],
   [
    10.279593,
    47.514329
   ],
   [
    10.280453,
    47.515196
   ],
   [
    10.280761,
    47.515517
   ],
   [
    10.28087,
    47.515739
   ],
   [
    10.280919,
    47.515839
   ],
   [
    10.281053,
    47.516375
   ],
   [
    10.281002,
    47.516557
   ],
   [
    10.280996,
    47.516648
   ],
   [
    10.281015,
    47.517127
   ],
   [
    10.281124,
    47.517712
   ],
   [
    10.28125,
    47.518062
   ],
   [
    10.281296,
    47.518192
   ],
   [
    10.281309,
    47.518228
   ],
   [
    10.281318,
    47.518255
   ],
   [
    10.28133,
    47.518286
   ],
   [
    10.281418,
    47.518533
   ],
   [
    10.281511,
    47.518795
   ],
   [
    10.281674,
    47.519181
   ],
   [
    10.281779,
    47.519595
   ],
   [
    10.281867,
    47.519927
   ],
   [
    10.281887,
    47.520001
   ],
   [
    10.281929,
    47.520208
   ],
   [
    10.281965,
    47.52042
   ],
   [
    10.282006,
    47.520739
   ],
   [
    10.282007,
    47.520769
   ],
   [
    10.282016,
    47.520925
   ],
   [
    10.282033,
    47.521233
   ],
   [
    10.282041,
    47.521378
   ],
   [
    10.282032,
    47.521656
   ],
   [
    10.282026,
    47.521824
   ],
   [
    10.282019,
    47.522012
   ],
   [
    10.282015,
    47.522145
   ],
   [
    10.281994,
    47.52248
   ],
   [
    10.281987,
    47.522612
   ],
   [
    10.281983,
    47.522702
   ],
   [
    10.281973,
    47.522903
   ],
   [
    10.281952,
    47.523051
   ],
   [
    10.281937,
    47.523134
   ],
   [
    10.281908,
    47.523203
   ],
   [
    10.281864,
    47.523304
   ],
   [
    10.281836,
    47.523369
   ],
   [
    10.281676,
    47.523591
   ],
   [
    10.281625,
    47.523693
   ],
   [
    10.281591,
    47.523793
   ],
   [
    10.28157,
    47.523881
   ],
   [
    10.281568,
    47.524059
   ],
   [
    10.281609,
    47.524265
   ],
   [
    10.281628,
    47.52438
   ],
   [
    10.281633,
    47.524454
   ],
   [
    10.281625,
    47.524521
   ],
   [
    10.28162,
    47.524557
   ],
   [
    10.281583,
    47.524699
   ],
   [
    10.281526,
    47.524819
   ],
   [
    10.281076,
    47.52557
   ],
   [
    10.280811,
    47.526229
   ],
   [
    10.280668,
    47.526737
   ],
   [
    10.280645,
    47.527076
   ],
   [
    10.280643,
    47.527452
   ],
   [
    10.280653,
    47.527537
   ],
   [
    10.280679,
    47.527777
   ],
   [
    10.280743,
    47.528065
   ],
   [
    10.280862,
    47.528372
   ],
   [
    10.281048,
    47.528777
   ],
   [
    10.281465,
    47.52944
   ],
   [
    10.281911,
    47.530147
   ],
   [
    10.281963,
    47.530241
   ],
   [
    10.282568,
    47.531348
   ],
   [
    10.282606,
    47.531421
   ],
   [
    10.28321,
    47.532568
   ],
   [
    10.283387,
    47.532866
   ],
   [
    10.28362,
    47.533247
   ],
   [
    10.283784,
    47.533517
   ],
   [
    10.283827,
    47.533577
   ],
   [
    10.285462,
    47.533232
   ],
   [
    10.286028,
    47.533094
   ],
   [
    10.286482,
    47.532913
   ],
   [
    10.2867,
    47.532746
   ],
   [
    10.286936,
    47.532566
   ],
   [
    10.287339,
    47.53215
   ]
  ],
  "type": "LineString"
 },
 "properties": {
  "quelle": "OSRM router.project-osrm.org, Profil driving",
  "von": [
   47.485,
   10.348
  ],
  "nach": [
   47.532,
   10.287
  ],
  "distanz_m": 11905.7,
  "dauer_s": 1852.6,
  "punkte": 388
 }
}
