{"type":"Feature","geometry":{"coordinates":[[10.28557,47.53321],[10.28546,47.53323],[10.28558,47.53347],[10.28532,47.53362],[10.28495,47.53386],[10.28491,47.53388],[10.2847,47.53409],[10.28454,47.53427],[10.28444,47.5344],[10.28452,47.5345],[10.28475,47.53483],[10.28482,47.53495],[10.28508,47.53552],[10.28511,47.53561],[10.28523,47.53586],[10.28524,47.5359],[10.28543,47.53624],[10.28546,47.53628],[10.2856,47.5365],[10.28571,47.53666],[10.28573,47.53679],[10.28571,47.53689],[10.28569,47.53697],[10.28563,47.53707],[10.28558,47.53714],[10.28545,47.53736],[10.28544,47.53741],[10.28542,47.53748],[10.28539,47.53759],[10.28536,47.53776],[10.28538,47.53795],[10.28539,47.53808],[10.28543,47.53818],[10.28549,47.53824],[10.28557,47.53838],[10.28561,47.53843],[10.28571,47.53863],[10.28572,47.53879],[10.28566,47.53906],[10.28565,47.53909],[10.28564,47.53911],[10.28561,47.53923],[10.28561,47.53936],[10.28561,47.53941],[10.28562,47.53959],[10.28563,47.53962],[10.28565,47.53973],[10.28568,47.53988],[10.28583,47.5402],[10.28599,47.54053],[10.28601,47.54063],[10.286,47.5407],[10.28594,47.54081],[10.28584,47.54092],[10.2857,47.541],[10.28549,47.54107],[10.28506,47.54118],[10.28465,47.54128],[10.28445,47.54135],[10.28437,47.54139],[10.28425,47.54149],[10.28415,47.54162],[10.28411,47.5417],[10.2841,47.54173],[10.28391,47.54218],[10.2838,47.54246],[10.28375,47.54254],[10.28363,47.54266],[10.28316,47.54303],[10.28308,47.54309],[10.28269,47.54336],[10.28247,47.54348],[10.28214,47.54366],[10.28201,47.54376],[10.28197,47.5438],[10.28186,47.54391],[10.28178,47.54404],[10.28166,47.54421],[10.28161,47.54436],[10.28158,47.54448],[10.28157,47.54459],[10.28161,47.54491],[10.28169,47.5451],[10.28182,47.54535],[10.28186,47.54547],[10.2819,47.54561],[10.28191,47.54568],[10.28192,47.54573],[10.2819,47.54595],[10.28189,47.54604],[10.28187,47.54612],[10.28178,47.54631],[10.28171,47.54641],[10.28164,47.54651],[10.28124,47.54703],[10.28094,47.54741],[10.28082,47.54758],[10.28079,47.54767],[10.28078,47.54782],[10.2808,47.54834],[10.28082,47.5487],[10.28084,47.54888],[10.2808,47.54894],[10.28066,47.54913],[10.28009,47.54989],[10.2797,47.55031],[10.27964,47.55038],[10.27957,47.55046],[10.27952,47.55053],[10.27946,47.55062],[10.27943,47.55074],[10.27944,47.55085],[10.27947,47.55096],[10.27956,47.55109],[10.27968,47.55123],[10.27978,47.55139],[10.27985,47.55161],[10.27989,47.55187],[10.27992,47.55206],[10.27995,47.55219],[10.27998,47.55229],[10.28012,47.55266],[10.28018,47.55282],[10.2802,47.55293],[10.28021,47.55304],[10.28018,47.5532],[10.28005,47.55354],[10.27993,47.55384],[10.27986,47.55396],[10.27979,47.55407],[10.27951,47.55444],[10.2793,47.5547],[10.2791,47.555],[10.2787,47.55576],[10.27865,47.556],[10.27862,47.55646],[10.27861,47.5568],[10.27857,47.55702],[10.27852,47.55717],[10.27843,47.55739],[10.27831,47.55765],[10.27814,47.55793],[10.27727,47.55925],[10.27704,47.5596],[10.27697,47.55971],[10.27684,47.55991],[10.27679,47.56008],[10.27677,47.56015],[10.27677,47.56018],[10.27681,47.56022],[10.27683,47.56027],[10.27684,47.56032],[10.27683,47.56036],[10.27679,47.56041],[10.27675,47.56044],[10.2767,47.56046],[10.27664,47.56048],[10.27657,47.56048],[10.2765,47.56048],[10.27645,47.56046],[10.2764,47.56044],[10.27636,47.56041],[10.27633,47.56037],[10.27631,47.56033],[10.27631,47.56028],[10.27623,47.56021],[10.2761,47.56013],[10.2758,47.56007],[10.27566,47.56005],[10.27531,47.56],[10.27482,47.55998],[10.27382,47.55992],[10.2693,47.55968],[10.26342,47.55936],[10.26138,47.55922],[10.26059,47.55915],[10.26042,47.55914],[10.25961,47.55908],[10.25832,47.55899],[10.2553,47.55878],[10.25467,47.55874],[10.25387,47.55868],[10.25323,47.55864],[10.25286,47.55861],[10.25225,47.55855],[10.25165,47.55847],[10.2513,47.55841],[10.25055,47.55822],[10.25024,47.55813],[10.25013,47.55809],[10.24985,47.5581],[10.24969,47.55811],[10.24964,47.55812],[10.24953,47.55818],[10.24941,47.55822],[10.24913,47.55842],[10.249,47.55848],[10.24889,47.5585],[10.24882,47.5585],[10.24872,47.5585],[10.2486,47.55847],[10.2485,47.55843],[10.24821,47.55834],[10.24805,47.55832],[10.2479,47.55833],[10.24761,47.55839],[10.2467,47.55899],[10.24561,47.55971],[10.24498,47.56014],[10.24454,47.56046],[10.24399,47.56088],[10.24367,47.56115],[10.24319,47.56157],[10.24279,47.56196],[10.24264,47.56212],[10.24246,47.56231],[10.24208,47.56276],[10.24183,47.56311],[10.24164,47.56342],[10.24146,47.56375],[10.24126,47.56421],[10.24113,47.56461],[10.24105,47.56501],[10.241,47.56527],[10.24098,47.56561],[10.24099,47.56602],[10.24103,47.56637],[10.2411,47.5667],[10.24115,47.56691],[10.24126,47.56721],[10.24137,47.56749],[10.2415,47.56777],[10.24166,47.56806],[10.24172,47.56816],[10.24187,47.56839],[10.24211,47.56871],[10.24242,47.56905],[10.24269,47.56933],[10.24292,47.56953],[10.24314,47.56971],[10.2436,47.57005],[10.24394,47.57028],[10.24433,47.57052],[10.2447,47.57072],[10.24513,47.57093],[10.24577,47.5712],[10.24687,47.57172],[10.24737,47.572],[10.24775,47.57226],[10.24809,47.57252],[10.24856,47.57296],[10.24896,47.57339],[10.2492,47.5737],[10.24943,47.57406],[10.24955,47.57429],[10.24969,47.57465],[10.24979,47.57494],[10.24994,47.57581],[10.24995,47.57604],[10.24996,47.57616],[10.24994,47.57632],[10.24989,47.57686],[10.24981,47.57775],[10.24981,47.57815],[10.24983,47.57853],[10.24989,47.57896],[10.24997,47.57928],[10.25007,47.57959],[10.25023,47.58001],[10.2504,47.58035],[10.25061,47.5807],[10.2508,47.58103],[10.25099,47.58129],[10.25108,47.58141],[10.25139,47.58179],[10.25194,47.58242],[10.25253,47.58305],[10.25336,47.58395],[10.25424,47.58488],[10.2571,47.58796],[10.25845,47.5894],[10.2594,47.59041],[10.26068,47.59178],[10.26163,47.59281],[10.26213,47.59334],[10.26255,47.59379],[10.2629,47.59414],[10.26332,47.59455],[10.26369,47.59488],[10.26411,47.59524],[10.26498,47.59591],[10.26594,47.59655],[10.2673,47.59741],[10.26783,47.59777],[10.2687,47.59843],[10.26911,47.59875],[10.26954,47.59914],[10.27026,47.59984],[10.27072,47.60032],[10.27108,47.60074],[10.27133,47.60105],[10.27156,47.60138],[10.27176,47.60167],[10.27198,47.602],[10.27223,47.60242],[10.27251,47.60298],[10.27282,47.60364],[10.273,47.60408],[10.27315,47.60453],[10.27328,47.60501],[10.27334,47.60534],[10.27347,47.606],[10.27364,47.6073],[10.27364,47.60746],[10.27369,47.60806],[10.27374,47.60849],[10.27381,47.60932],[10.27391,47.6103],[10.27396,47.61082],[10.27405,47.61129],[10.27413,47.61171],[10.27422,47.61207],[10.27446,47.61281],[10.27484,47.61383],[10.27501,47.61427],[10.27526,47.61496],[10.27557,47.6159],[10.27571,47.61645],[10.2758,47.61689],[10.27592,47.61757],[10.27594,47.61771],[10.27599,47.61812],[10.27604,47.6186],[10.27618,47.61985],[10.27631,47.62082],[10.27653,47.62212],[10.27668,47.62273],[10.27688,47.62346],[10.27714,47.62429],[10.2773,47.6247],[10.27754,47.62535],[10.27782,47.62601],[10.27824,47.62686],[10.27843,47.62726],[10.27873,47.62782],[10.2792,47.62862],[10.27957,47.62921],[10.27974,47.62949],[10.28032,47.63043],[10.28102,47.63156],[10.28157,47.63244],[10.28205,47.63318],[10.28226,47.63348],[10.28249,47.63378],[10.28289,47.63423],[10.28323,47.63459],[10.28363,47.63499],[10.28439,47.63567],[10.28538,47.63659],[10.28559,47.63679],[10.2858,47.63702],[10.28598,47.63723],[10.28614,47.63746],[10.2863,47.6377],[10.28642,47.63793],[10.28653,47.63815],[10.28665,47.63843],[10.28673,47.63867],[10.28682,47.63903],[10.28689,47.63939],[10.28701,47.64003],[10.28707,47.64027],[10.28716,47.64059],[10.28731,47.64104],[10.28746,47.64136],[10.28757,47.64159],[10.28774,47.64189],[10.28791,47.64217],[10.28807,47.64239],[10.28852,47.64294],[10.28904,47.64349],[10.28933,47.64375],[10.28978,47.6441],[10.28985,47.64415],[10.29039,47.64455],[10.29114,47.64507],[10.29195,47.6456],[10.29278,47.64616],[10.29359,47.64674],[10.29389,47.64699],[10.29413,47.64719],[10.29438,47.64742],[10.29458,47.64761],[10.29481,47.64785],[10.29482,47.64787],[10.29522,47.64837],[10.2953,47.64848],[10.29551,47.64884],[10.29569,47.64921],[10.29577,47.64942],[10.29587,47.64968],[10.29596,47.65013],[10.29601,47.65065],[10.29597,47.65219],[10.296,47.65273],[10.2961,47.65324],[10.29624,47.65365],[10.29642,47.65405],[10.29675,47.65458],[10.29735,47.6554],[10.29774,47.65596],[10.29791,47.65625],[10.29807,47.65654],[10.2982,47.65685],[10.2984,47.65736],[10.29854,47.65787],[10.29861,47.65822],[10.29866,47.65857],[10.29868,47.65915],[10.29868,47.65973],[10.29867,47.66067],[10.2987,47.66135],[10.29875,47.66172],[10.29891,47.6624],[10.29915,47.66328],[10.29924,47.66378],[10.2993,47.66415],[10.2993,47.66472],[10.29925,47.66521],[10.29913,47.6657],[10.29883,47.66644],[10.29868,47.66679],[10.29842,47.66733],[10.29838,47.66742],[10.29826,47.66775],[10.29819,47.66801],[10.29813,47.66835],[10.2981,47.66873],[10.29811,47.6691],[10.29815,47.66933],[10.29825,47.66963],[10.29846,47.67017],[10.29868,47.67054],[10.29895,47.6709],[10.29926,47.67124],[10.29983,47.67173],[10.30017,47.67201],[10.30056,47.67234],[10.3008,47.67259],[10.301,47.67282],[10.30118,47.67307],[10.30135,47.67337],[10.30146,47.67362],[10.30153,47.67383],[10.30161,47.67409],[10.30166,47.67432],[10.30182,47.67529],[10.30187,47.67544],[10.30193,47.67567],[10.30198,47.67583],[10.3021,47.67609],[10.30222,47.67627],[10.30232,47.67642],[10.30255,47.67671],[10.30274,47.67692],[10.30292,47.67709],[10.30349,47.6776],[10.3037,47.67781],[10.3039,47.67802],[10.30411,47.67829],[10.30426,47.67856],[10.30432,47.67867],[10.30437,47.67879],[10.30441,47.67888],[10.30444,47.67896],[10.30452,47.67921],[10.30457,47.67945],[10.30454,47.67961],[10.30466,47.67997],[10.30473,47.68018],[10.30476,47.68028],[10.30482,47.68046],[10.30488,47.68065],[10.30499,47.68091],[10.30508,47.68113],[10.30514,47.68128],[10.30519,47.68141],[10.30523,47.68149],[10.30527,47.68158],[10.3053,47.68166],[10.3054,47.68192],[10.30546,47.68206],[10.30582,47.68282],[10.30593,47.683],[10.30609,47.68318],[10.30631,47.6834],[10.30652,47.6836],[10.30734,47.68418],[10.30747,47.68427],[10.30768,47.68445],[10.30771,47.68447],[10.30778,47.68454],[10.30786,47.68462],[10.30807,47.68484],[10.30822,47.68503],[10.30841,47.68527],[10.30864,47.68565],[10.30873,47.6858],[10.30898,47.6862],[10.30911,47.68636],[10.30922,47.6865],[10.30924,47.68653],[10.30931,47.68663],[10.30936,47.6867],[10.30942,47.68677],[10.3097,47.68715],[10.30979,47.68727],[10.30984,47.68734],[10.31007,47.68767],[10.31035,47.68818],[10.31058,47.6887],[10.31069,47.68912],[10.31072,47.68935],[10.31071,47.68962],[10.3106,47.69043],[10.31058,47.69091],[10.31059,47.69113],[10.3106,47.69132],[10.31077,47.69194],[10.31089,47.69219],[10.31129,47.69295],[10.31135,47.69305],[10.3114,47.69313],[10.31152,47.69333],[10.31155,47.69338],[10.3121,47.69425],[10.31221,47.69456],[10.31227,47.69502],[10.31228,47.69587],[10.31229,47.69602],[10.31231,47.69618],[10.31234,47.69634],[10.31239,47.69647],[10.31245,47.6966],[10.31257,47.69683],[10.31268,47.69704],[10.31279,47.69722],[10.31292,47.69745],[10.31294,47.69751],[10.313,47.69763],[10.31307,47.6978],[10.3131,47.69793],[10.31312,47.69804],[10.31315,47.69826],[10.31315,47.69851],[10.31314,47.69881],[10.31309,47.69923],[10.31298,47.70011],[10.31291,47.70079],[10.31289,47.70112],[10.31288,47.70143],[10.31288,47.70175],[10.31289,47.70196],[10.3129,47.7022],[10.31291,47.70253],[10.31292,47.70267],[10.31292,47.70284],[10.31292,47.70287],[10.31293,47.70318],[10.31291,47.70357],[10.31287,47.70392],[10.31283,47.70417],[10.31281,47.70427],[10.31278,47.70439],[10.31275,47.7045],[10.31259,47.70492],[10.31244,47.70533],[10.31229,47.70588],[10.3121,47.70629],[10.31203,47.70643],[10.31197,47.70656],[10.31189,47.70672],[10.31184,47.70685],[10.31177,47.70712],[10.31174,47.70729],[10.31169,47.70763],[10.3117,47.70799],[10.31172,47.70815],[10.31176,47.7083],[10.31178,47.70834],[10.31192,47.7086],[10.31216,47.70891],[10.31249,47.70927],[10.31271,47.70949],[10.31313,47.70992],[10.31325,47.71004],[10.31344,47.71022],[10.31366,47.71043],[10.31385,47.7106],[10.31405,47.71081],[10.31418,47.71095],[10.31435,47.71117],[10.31446,47.71131],[10.31472,47.7117],[10.31492,47.71211],[10.31508,47.71253],[10.31521,47.71314],[10.31527,47.71375],[10.31526,47.71401],[10.31526,47.71408],[10.31524,47.71417],[10.31519,47.71449],[10.31514,47.71472],[10.31517,47.7148],[10.31518,47.71491],[10.31519,47.71499],[10.31521,47.71504],[10.31525,47.7151],[10.3154,47.71522],[10.31545,47.71528],[10.31592,47.71544],[10.31677,47.71567],[10.31713,47.71574],[10.3172,47.71576],[10.31734,47.71577],[10.31757,47.7158],[10.31778,47.71582],[10.31803,47.71583],[10.31829,47.71583],[10.31863,47.71582],[10.31898,47.71578],[10.31932,47.71572],[10.31964,47.71566],[10.31989,47.71562],[10.32017,47.71556],[10.32035,47.71552],[10.32039,47.71563],[10.32041,47.71569],[10.32041,47.71574],[10.32039,47.71592],[10.32029,47.71604],[10.32024,47.71611],[10.32026,47.71625],[10.32026,47.7163],[10.32031,47.71637],[10.32039,47.71642],[10.32052,47.71648],[10.32062,47.71649],[10.32081,47.71651],[10.32104,47.71654],[10.32114,47.71656],[10.32129,47.71658],[10.32139,47.71661],[10.32144,47.71665],[10.32151,47.71672],[10.32154,47.71679],[10.32156,47.7169],[10.32158,47.71727],[10.32157,47.71773],[10.32156,47.71782],[10.32152,47.71808],[10.32142,47.71843],[10.32163,47.71846],[10.3218,47.71848],[10.32204,47.71845],[10.3219,47.71801]],"type":"LineString"},"properties":{"quelle":"OSRM router.project-osrm.org, Profil driving","von":[47.53266,10.28528],"nach":[47.718,10.322],"distanz_m":25682.9,"dauer_s":1383.5,"punkte":666}}
