{"type":"Feature","geometry":{"coordinates":[[10.28097,47.51507],[10.28101,47.51528],[10.28112,47.51527],[10.28132,47.51526],[10.28133,47.51578],[10.28128,47.51592],[10.28116,47.51615],[10.28105,47.51637],[10.281,47.51656],[10.281,47.51665],[10.28102,47.51713],[10.28112,47.51771],[10.28125,47.51806],[10.28131,47.51823],[10.28132,47.51826],[10.28133,47.51829],[10.28142,47.51853],[10.28151,47.51879],[10.28167,47.51918],[10.28178,47.5196],[10.28143,47.51967],[10.28138,47.51968],[10.28128,47.5197],[10.28076,47.5198],[10.27917,47.5201],[10.27884,47.52017],[10.27872,47.52019],[10.27808,47.52028],[10.27774,47.52033],[10.27731,47.52038],[10.27669,47.52041],[10.27667,47.52041],[10.27577,47.52043],[10.27548,47.52044],[10.27506,47.52043],[10.27447,47.52042],[10.27416,47.52041],[10.27291,47.52039],[10.2725,47.52038],[10.27218,47.52036],[10.27194,47.52036],[10.27142,47.52035],[10.27104,47.52034],[10.27088,47.52033],[10.27075,47.52036],[10.27056,47.52039],[10.27044,47.52043],[10.27036,47.52046],[10.2703,47.52049],[10.27025,47.52053],[10.27021,47.52058],[10.27018,47.52064],[10.27015,47.52071],[10.27012,47.52077],[10.2701,47.52085],[10.27007,47.52091],[10.27004,47.52096],[10.27001,47.521],[10.26996,47.52103],[10.26991,47.52106],[10.26986,47.52108],[10.26968,47.52111],[10.26959,47.52113],[10.26952,47.52115],[10.26943,47.52117],[10.26936,47.52119],[10.2693,47.52123],[10.26924,47.52127],[10.26919,47.5213],[10.26915,47.52134],[10.26911,47.52141],[10.26906,47.52146],[10.26905,47.52151],[10.26898,47.52156],[10.26887,47.52205],[10.26877,47.52241],[10.26867,47.52275],[10.26855,47.52315],[10.26827,47.52415],[10.26819,47.52444],[10.26793,47.5253],[10.26775,47.52598],[10.26761,47.52647],[10.26727,47.52798],[10.2672,47.52826],[10.26712,47.52867],[10.26695,47.52958],[10.26682,47.5305],[10.26677,47.53106],[10.26673,47.53163],[10.26672,47.53252],[10.26674,47.53324],[10.26678,47.53408],[10.26693,47.53556],[10.26704,47.53646],[10.26717,47.53738],[10.26746,47.53919],[10.26756,47.53985],[10.26765,47.54058],[10.26771,47.54131],[10.26772,47.54169],[10.26772,47.54206],[10.26769,47.54236],[10.26764,47.54273],[10.26757,47.54308],[10.26746,47.54351],[10.26731,47.54391],[10.26713,47.5443],[10.26689,47.54473],[10.26654,47.54525],[10.26613,47.54576],[10.26565,47.54626],[10.26534,47.54654],[10.26509,47.54677],[10.26441,47.5473],[10.2638,47.54774],[10.26309,47.54822],[10.26164,47.54919],[10.26058,47.54987],[10.25791,47.55162],[10.25495,47.55357],[10.25355,47.5545],[10.25183,47.55562],[10.25143,47.55588],[10.25118,47.55605],[10.25034,47.5566],[10.24983,47.55693],[10.24945,47.55719],[10.24886,47.55756],[10.24761,47.55839],[10.2467,47.55899],[10.24561,47.55971],[10.24498,47.56014],[10.24454,47.56046],[10.24399,47.56088],[10.24367,47.56115],[10.24319,47.56157],[10.24279,47.56196],[10.24264,47.56212],[10.24246,47.56231],[10.24208,47.56276],[10.24183,47.56311],[10.24164,47.56342],[10.24146,47.56375],[10.24126,47.56421],[10.24113,47.56461],[10.24105,47.56501],[10.241,47.56527],[10.24098,47.56561],[10.24099,47.56602],[10.24103,47.56637],[10.2411,47.5667],[10.24115,47.56691],[10.24126,47.56721],[10.24137,47.56749],[10.2415,47.56777],[10.24166,47.56806],[10.24179,47.56815],[10.24199,47.56836],[10.24213,47.56847],[10.24248,47.56865],[10.24289,47.5688],[10.24305,47.56884],[10.24353,47.56895],[10.24363,47.56899],[10.24376,47.56903],[10.24392,47.56911],[10.24401,47.56917],[10.24422,47.56933],[10.24434,47.56951],[10.24441,47.56972],[10.24441,47.5699],[10.24436,47.57009],[10.24423,47.5703],[10.24395,47.57058],[10.24366,47.57083],[10.24338,47.57104],[10.24307,47.57126],[10.24233,47.57167],[10.24164,47.57195],[10.24118,47.57211],[10.24012,47.57233],[10.23967,47.5724],[10.23917,47.57245],[10.23794,47.5725],[10.23771,47.57256],[10.23737,47.57265],[10.23731,47.57267],[10.23731,47.5727],[10.2373,47.57274],[10.23728,47.57277],[10.23726,47.5728],[10.23728,47.57291],[10.23732,47.57298],[10.23739,47.57307],[10.2374,47.57311],[10.23751,47.57317],[10.23762,47.57323],[10.23775,47.57329],[10.23795,47.57338],[10.23813,47.57349],[10.23837,47.57374],[10.23862,47.57411],[10.23888,47.57452],[10.23947,47.57541],[10.23966,47.57569],[10.23991,47.57608],[10.23995,47.57614],[10.24001,47.57623],[10.24045,47.57693],[10.24051,47.57701],[10.24076,47.57736],[10.24098,47.57771],[10.24107,47.57786],[10.24118,47.57802],[10.24127,47.57817],[10.24141,47.57842],[10.24157,47.5788],[10.24162,47.57898],[10.24164,47.57904],[10.24167,47.57921],[10.2417,47.57949],[10.24169,47.57981],[10.24168,47.58014],[10.2416,47.5806],[10.24147,47.58112],[10.24138,47.58139],[10.24122,47.58177],[10.24092,47.58242],[10.24086,47.58258],[10.2408,47.58276],[10.24075,47.58307],[10.24075,47.58337],[10.24079,47.58367],[10.24089,47.58398],[10.241,47.58423],[10.24115,47.58445],[10.24135,47.58471],[10.24162,47.58501],[10.24212,47.58554],[10.2423,47.58573],[10.24215,47.58579],[10.24199,47.58583],[10.24193,47.58585],[10.24178,47.58589],[10.2415,47.58593],[10.24047,47.58605],[10.24025,47.58609],[10.24009,47.58612],[10.23991,47.58615],[10.23949,47.58625],[10.23924,47.58635],[10.23895,47.58651],[10.2384,47.58684],[10.23806,47.58705],[10.23792,47.5871],[10.23777,47.58714],[10.23749,47.58721],[10.23714,47.58728],[10.23638,47.58743],[10.23609,47.58752],[10.23583,47.58761],[10.23577,47.58764],[10.23567,47.58771],[10.2355,47.58786],[10.23528,47.58809],[10.23489,47.58838],[10.23463,47.58855],[10.23434,47.58869],[10.23402,47.58881],[10.23378,47.58886],[10.2335,47.58888],[10.23327,47.58886],[10.23308,47.58884],[10.23265,47.58876],[10.23198,47.58861],[10.23034,47.58822],[10.22996,47.58815],[10.22966,47.58811],[10.22931,47.5881],[10.22897,47.58813],[10.22869,47.58818],[10.22825,47.58827],[10.22791,47.58834],[10.22749,47.58841],[10.22709,47.58846],[10.22679,47.58849],[10.22644,47.5885],[10.22574,47.58846],[10.22514,47.58843],[10.22417,47.58831],[10.22352,47.58819],[10.22281,47.58803],[10.22244,47.58795],[10.22207,47.58785],[10.22063,47.58747],[10.2203,47.58745],[10.21996,47.5875],[10.21967,47.58761],[10.21941,47.58777],[10.21875,47.58834],[10.21827,47.58875],[10.21805,47.58894],[10.21773,47.58916],[10.21747,47.58933],[10.21719,47.58946],[10.21666,47.58967],[10.21465,47.59031],[10.2143,47.59042],[10.214,47.59051],[10.21335,47.59064],[10.21214,47.59076],[10.21188,47.59083],[10.21167,47.59093],[10.21154,47.59102],[10.21146,47.59112],[10.21144,47.59115],[10.21138,47.59126],[10.21135,47.59138],[10.21137,47.59179],[10.21079,47.59178],[10.21046,47.59174],[10.20805,47.59132],[10.20734,47.59119],[10.20688,47.59111],[10.20511,47.59081],[10.20453,47.59071],[10.20419,47.59068],[10.20387,47.59069],[10.20322,47.59078],[10.20278,47.59078],[10.2025,47.59074],[10.20218,47.59067],[10.20188,47.59056],[10.2016,47.59041],[10.20132,47.59026],[10.20065,47.58991],[10.20034,47.58976],[10.19997,47.58962],[10.19941,47.58944],[10.199,47.58934],[10.19861,47.58928],[10.19807,47.58923],[10.19726,47.5892],[10.19682,47.58916],[10.19643,47.5891],[10.19607,47.58902],[10.19544,47.58885],[10.19496,47.58875],[10.19439,47.58868],[10.19371,47.58865],[10.19335,47.5886],[10.19312,47.58852],[10.19305,47.58848],[10.19291,47.5884],[10.1927,47.5885],[10.19239,47.58861],[10.19195,47.5887],[10.19122,47.58879],[10.19084,47.58882],[10.19028,47.58884],[10.19002,47.58884],[10.18973,47.58884],[10.1891,47.58882],[10.18852,47.58878],[10.18788,47.5887],[10.18766,47.58867],[10.18761,47.58866],[10.18699,47.58857],[10.18632,47.58846],[10.18614,47.58842],[10.18602,47.58837],[10.18588,47.58827],[10.18579,47.58818],[10.18571,47.58808],[10.18566,47.58804],[10.1856,47.58801],[10.18553,47.58798],[10.18545,47.58797],[10.18537,47.58798],[10.18531,47.588],[10.18522,47.58806],[10.18518,47.58812],[10.18517,47.58818],[10.18519,47.58826],[10.18525,47.58832],[10.18546,47.58843],[10.18567,47.58855],[10.18578,47.58861],[10.18585,47.58871],[10.18587,47.58877],[10.18588,47.58884],[10.18586,47.58892],[10.18566,47.58922],[10.18563,47.58931],[10.18564,47.58943],[10.18566,47.5895],[10.1857,47.58958],[10.18576,47.58971],[10.18582,47.58988],[10.18583,47.58996],[10.18582,47.59006],[10.18578,47.59014],[10.18572,47.59024],[10.18565,47.5903],[10.1855,47.59043],[10.18531,47.59056],[10.18517,47.59069],[10.18508,47.59082],[10.18498,47.59109],[10.1849,47.59128],[10.18475,47.59146],[10.18454,47.59163],[10.18434,47.59175],[10.18406,47.59186],[10.18366,47.59193],[10.18335,47.59195],[10.1827,47.59193],[10.18186,47.59188],[10.18112,47.59183],[10.18068,47.59178],[10.18036,47.59171],[10.18002,47.59163],[10.17992,47.5916],[10.17973,47.59156],[10.17954,47.59152],[10.17935,47.59149],[10.17915,47.59146],[10.17893,47.59143],[10.17853,47.59142],[10.17827,47.59143],[10.17795,47.59147],[10.17762,47.59153],[10.17729,47.59162],[10.17703,47.59172],[10.17676,47.59185],[10.17639,47.59206],[10.17605,47.59228],[10.17571,47.59244],[10.17536,47.59256],[10.17502,47.59262],[10.17466,47.59265],[10.1745,47.59265],[10.17427,47.59264],[10.17374,47.59258],[10.17296,47.59243],[10.17259,47.59236],[10.17209,47.59231],[10.17135,47.59226],[10.17104,47.59219],[10.17071,47.59209],[10.17037,47.59193],[10.16976,47.59155],[10.16955,47.5914],[10.16941,47.5913],[10.16906,47.59109],[10.16875,47.59093],[10.16832,47.59079],[10.16787,47.59073],[10.16735,47.59071],[10.16658,47.59074],[10.165,47.59079],[10.16445,47.59085],[10.16404,47.59092],[10.16356,47.59101],[10.16326,47.59103],[10.16293,47.59103],[10.16287,47.59103],[10.16279,47.59103],[10.16171,47.59098],[10.1604,47.59092],[10.16009,47.59091],[10.15965,47.59091],[10.15918,47.59094],[10.15868,47.59102],[10.15821,47.59111],[10.15775,47.59125],[10.15764,47.59129],[10.15714,47.59145],[10.15672,47.59157],[10.15649,47.59162],[10.15617,47.59168],[10.15585,47.59172],[10.1554,47.59173],[10.15482,47.59173],[10.15415,47.5917],[10.15366,47.59169],[10.15315,47.59171],[10.15263,47.59175],[10.15216,47.59182],[10.1513,47.59193],[10.15081,47.59198],[10.15038,47.592],[10.1492,47.59203],[10.14813,47.59204],[10.14624,47.59203],[10.14594,47.59203],[10.1456,47.59205],[10.14445,47.59212],[10.14237,47.59225],[10.14159,47.59229],[10.14091,47.59231],[10.14019,47.59234],[10.13892,47.5924],[10.13816,47.59243],[10.13798,47.59244],[10.13739,47.59246],[10.13678,47.59248],[10.13645,47.5925],[10.13608,47.59256],[10.13579,47.59262],[10.13555,47.59268],[10.13508,47.59283],[10.13447,47.59306],[10.13373,47.59336],[10.13326,47.59352],[10.13276,47.59365],[10.13214,47.59376],[10.13181,47.59379],[10.13129,47.59385],[10.13096,47.59391],[10.13063,47.59399],[10.13029,47.59412],[10.12996,47.59425],[10.12982,47.59432],[10.12995,47.59441],[10.13008,47.59446],[10.13022,47.59448],[10.13046,47.59447],[10.13077,47.59446],[10.13097,47.59449],[10.13125,47.59462],[10.13133,47.59468],[10.13144,47.59482],[10.13148,47.59493],[10.1315,47.59501],[10.13149,47.59504],[10.13149,47.59514],[10.13144,47.59526],[10.13141,47.59531],[10.13127,47.59544],[10.13068,47.59566],[10.13053,47.59575],[10.13042,47.59586],[10.13038,47.59601],[10.13038,47.59618],[10.13043,47.59624],[10.13049,47.59627],[10.13059,47.59627],[10.13091,47.59625],[10.13125,47.59621],[10.13155,47.59613],[10.13186,47.59599],[10.13218,47.59579],[10.13235,47.59562],[10.13238,47.5956],[10.13251,47.59561],[10.13261,47.59568],[10.13265,47.59579],[10.13264,47.59594]],"type":"LineString"},"properties":{"quelle":"OSRM router.project-osrm.org, Profil driving","von":[47.515,10.281],"nach":[47.596,10.133],"distanz_m":20181.9,"dauer_s":1211.3,"punkte":560}}
