{"type":"Feature","geometry":{"coordinates":[[10.30833,47.66283],[10.30829,47.6629],[10.30828,47.66296],[10.30829,47.66303],[10.30814,47.66303],[10.30804,47.66302],[10.30796,47.66298],[10.30779,47.66289],[10.3077,47.66292],[10.30754,47.66294],[10.3074,47.66295],[10.30728,47.66295],[10.30706,47.66296],[10.30696,47.66297],[10.3068,47.66299],[10.30665,47.66302],[10.30579,47.66326],[10.3057,47.66332],[10.30565,47.66341],[10.30565,47.66353],[10.3057,47.66375],[10.30576,47.66397],[10.30597,47.6647],[10.30598,47.66489],[10.30596,47.66501],[10.30587,47.66514],[10.30572,47.66526],[10.30565,47.66531],[10.30554,47.66537],[10.30537,47.66547],[10.30528,47.66552],[10.30489,47.66577],[10.30485,47.66587],[10.30488,47.66597],[10.305,47.66608],[10.30563,47.66657],[10.30576,47.66667],[10.30583,47.66672],[10.30591,47.66679],[10.30592,47.6668],[10.30623,47.66708],[10.3063,47.66715],[10.30631,47.66723],[10.3063,47.66728],[10.30625,47.66733],[10.30617,47.66737],[10.30601,47.66747],[10.30589,47.66754],[10.30582,47.66761],[10.30578,47.66769],[10.30576,47.66778],[10.30576,47.66783],[10.30577,47.66788],[10.30578,47.66791],[10.30582,47.66801],[10.30598,47.66821],[10.3062,47.66844],[10.30644,47.66869],[10.3065,47.66878],[10.30654,47.66887],[10.30656,47.66895],[10.30657,47.66899],[10.30656,47.66906],[10.30655,47.66913],[10.30653,47.6692],[10.30652,47.66925],[10.30648,47.66932],[10.30644,47.66938],[10.3064,47.66943],[10.30637,47.66946],[10.30632,47.66951],[10.3062,47.66959],[10.30584,47.66975],[10.30571,47.66982],[10.30535,47.67],[10.30515,47.6701],[10.30412,47.67066],[10.30404,47.67072],[10.304,47.67077],[10.30399,47.67079],[10.30396,47.67084],[10.30395,47.67091],[10.30391,47.671],[10.30384,47.67105],[10.30381,47.67106],[10.30376,47.67107],[10.30363,47.67105],[10.30351,47.67103],[10.30341,47.67105],[10.30335,47.67112],[10.30329,47.67122],[10.30327,47.6713],[10.30323,47.67155],[10.30325,47.67185],[10.30326,47.67195],[10.30327,47.67201],[10.30332,47.67238],[10.30342,47.67314],[10.30345,47.67338],[10.30363,47.67462],[10.30377,47.67555],[10.30389,47.67636],[10.304,47.67704],[10.3041,47.67737],[10.30425,47.6777],[10.30444,47.67801],[10.30466,47.67827],[10.30493,47.67853],[10.30523,47.67877],[10.30553,47.67897],[10.30565,47.67903],[10.30596,47.6792],[10.30639,47.67941],[10.30661,47.67953],[10.30679,47.67965],[10.3069,47.67976],[10.30701,47.6799],[10.30708,47.68002],[10.30713,47.68016],[10.30715,47.68031],[10.30715,47.68042],[10.30712,47.68057],[10.30705,47.68071],[10.307,47.68078],[10.30695,47.68086],[10.30683,47.68098],[10.3067,47.68108],[10.30653,47.68118],[10.30641,47.68124],[10.30621,47.68131],[10.30598,47.68138],[10.30573,47.68146],[10.30553,47.68151],[10.30547,47.68161],[10.30543,47.68169],[10.3054,47.68192],[10.30546,47.68206],[10.30582,47.68282],[10.30593,47.683],[10.30609,47.68318],[10.30631,47.6834],[10.30652,47.6836],[10.30734,47.68418],[10.30747,47.68427],[10.30768,47.68445],[10.30771,47.68447],[10.30778,47.68454],[10.30786,47.68462],[10.30807,47.68484],[10.30822,47.68503],[10.30841,47.68527],[10.30864,47.68565],[10.30873,47.6858],[10.30898,47.6862],[10.30911,47.68636],[10.30922,47.6865],[10.30924,47.68653],[10.30931,47.68663],[10.30936,47.6867],[10.30942,47.68677],[10.3097,47.68715],[10.30979,47.68727],[10.30984,47.68734],[10.31007,47.68767],[10.31035,47.68818],[10.31058,47.6887],[10.31069,47.68912],[10.31072,47.68935],[10.31071,47.68962],[10.3106,47.69043],[10.31058,47.69091],[10.31059,47.69113],[10.3106,47.69132],[10.31077,47.69194],[10.31089,47.69219],[10.31129,47.69295],[10.31135,47.69305],[10.3114,47.69313],[10.31152,47.69333],[10.31155,47.69338],[10.3121,47.69425],[10.31221,47.69456],[10.31227,47.69502],[10.31228,47.69587],[10.31229,47.69602],[10.31231,47.69618],[10.31234,47.69634],[10.31239,47.69647],[10.31245,47.6966],[10.31257,47.69683],[10.31268,47.69704],[10.31279,47.69722],[10.31292,47.69745],[10.31294,47.69751],[10.313,47.69763],[10.31307,47.6978],[10.3131,47.69793],[10.31312,47.69804],[10.31315,47.69826],[10.31315,47.69851],[10.31314,47.69881],[10.31309,47.69923],[10.31298,47.70011],[10.31291,47.70079],[10.31289,47.70112],[10.31288,47.70143],[10.31288,47.70175],[10.31289,47.70196],[10.3129,47.7022],[10.31291,47.70253],[10.31292,47.70267],[10.31292,47.70284],[10.31292,47.70287],[10.31293,47.70318],[10.31291,47.70357],[10.31287,47.70392],[10.31283,47.70417],[10.31281,47.70427],[10.31278,47.70439],[10.31275,47.7045],[10.31259,47.70492],[10.31244,47.70533],[10.31229,47.70588],[10.3121,47.70629],[10.31203,47.70643],[10.31197,47.70656],[10.31189,47.70672],[10.31184,47.70685],[10.31177,47.70712],[10.31174,47.70729],[10.31169,47.70763],[10.3117,47.70799],[10.31172,47.70815],[10.31176,47.7083],[10.31178,47.70834],[10.31192,47.7086],[10.31216,47.70891],[10.31249,47.70927],[10.31271,47.70949],[10.31313,47.70992],[10.31325,47.71004],[10.31344,47.71022],[10.31366,47.71043],[10.31385,47.7106],[10.31405,47.71081],[10.31418,47.71095],[10.31435,47.71117],[10.31446,47.71131],[10.31472,47.7117],[10.31492,47.71211],[10.31508,47.71253],[10.31521,47.71314],[10.31527,47.71375],[10.31526,47.71401],[10.31526,47.71408],[10.31524,47.71417],[10.31519,47.71449],[10.31514,47.71472],[10.31517,47.7148],[10.31518,47.71491],[10.31519,47.71499],[10.31521,47.71504],[10.31525,47.7151],[10.3154,47.71522],[10.31545,47.71528],[10.31592,47.71544],[10.31677,47.71567],[10.31713,47.71574],[10.3172,47.71576],[10.31734,47.71577],[10.31757,47.7158],[10.31778,47.71582],[10.31803,47.71583],[10.31829,47.71583],[10.31863,47.71582],[10.31898,47.71578],[10.31932,47.71572],[10.31964,47.71566],[10.31989,47.71562],[10.32017,47.71556],[10.32035,47.71552],[10.32039,47.71563],[10.32041,47.71569],[10.32041,47.71574],[10.32039,47.71592],[10.32029,47.71604],[10.32024,47.71611],[10.32026,47.71625],[10.32026,47.7163],[10.32031,47.71637],[10.32039,47.71642],[10.32052,47.71648],[10.32062,47.71649],[10.32081,47.71651],[10.32104,47.71654],[10.32114,47.71656],[10.32129,47.71658],[10.32139,47.71661],[10.32144,47.71665],[10.32151,47.71672],[10.32154,47.71679],[10.32156,47.7169],[10.32158,47.71727],[10.32157,47.71773],[10.32156,47.71782],[10.32152,47.71808],[10.32142,47.71843],[10.32163,47.71846],[10.3218,47.71848],[10.32204,47.71845],[10.3219,47.71801]],"type":"LineString"},"properties":{"quelle":"OSRM router.project-osrm.org, Profil driving","von":[47.66261,10.30881],"nach":[47.718,10.322],"distanz_m":7487,"dauer_s":648.3,"punkte":311}}
