{"type":"Feature","geometry":{"coordinates":[[10.21695,47.55887],[10.21738,47.55879],[10.21733,47.5587],[10.218,47.5586],[10.21829,47.55855],[10.21858,47.55851],[10.2188,47.55847],[10.21922,47.55841],[10.21976,47.55835],[10.22012,47.55834],[10.22048,47.55834],[10.22092,47.55837],[10.22108,47.55837],[10.22138,47.55836],[10.22158,47.55833],[10.22181,47.55827],[10.22189,47.55825],[10.22242,47.55805],[10.22266,47.55794],[10.22272,47.55792],[10.22292,47.55784],[10.22299,47.55782],[10.22329,47.55776],[10.22354,47.55771],[10.22387,47.55768],[10.22439,47.55768],[10.22466,47.55769],[10.22487,47.55767],[10.22513,47.55763],[10.2256,47.55748],[10.22565,47.55746],[10.22575,47.55743],[10.22592,47.55738],[10.22653,47.55719],[10.2266,47.55716],[10.22754,47.55688],[10.22757,47.55686],[10.22842,47.55655],[10.22891,47.55633],[10.2294,47.55599],[10.22951,47.55592],[10.2297,47.55579],[10.22973,47.55577],[10.23007,47.55553],[10.23037,47.55533],[10.23044,47.55527],[10.23052,47.55521],[10.2309,47.55497],[10.231,47.55491],[10.23107,47.55487],[10.23127,47.55476],[10.23133,47.55473],[10.23144,47.55464],[10.2315,47.5546],[10.23152,47.55458],[10.2315,47.55456],[10.23149,47.55454],[10.23149,47.55452],[10.23149,47.5545],[10.2315,47.55448],[10.23151,47.55446],[10.23153,47.55444],[10.23157,47.55442],[10.23161,47.55441],[10.23165,47.55441],[10.23168,47.55441],[10.23171,47.55442],[10.23174,47.55443],[10.23177,47.55444],[10.23179,47.55446],[10.23181,47.55448],[10.23182,47.55451],[10.23182,47.55453],[10.23193,47.55462],[10.23201,47.5547],[10.23249,47.55492],[10.2327,47.55503],[10.23273,47.55504],[10.23386,47.55559],[10.23423,47.55574],[10.23428,47.55575],[10.23457,47.55584],[10.2349,47.55591],[10.2353,47.55598],[10.23587,47.55603],[10.23621,47.55605],[10.23635,47.55606],[10.23668,47.55606],[10.23726,47.55603],[10.2378,47.55597],[10.23841,47.55586],[10.23884,47.55576],[10.239,47.55571],[10.23975,47.55546],[10.24047,47.55519],[10.24107,47.55497],[10.24166,47.55477],[10.24217,47.55464],[10.24276,47.55453],[10.24325,47.55449],[10.24372,47.55448],[10.24403,47.55449],[10.24434,47.55452],[10.24473,47.55456],[10.24516,47.55465],[10.24536,47.55469],[10.24559,47.55476],[10.24615,47.55497],[10.24657,47.55516],[10.24706,47.55545],[10.24752,47.55584],[10.24776,47.55615],[10.2479,47.55631],[10.24797,47.55636],[10.24805,47.55643],[10.24808,47.55646],[10.24814,47.55646],[10.24822,47.55647],[10.24827,47.55649],[10.2483,47.55651],[10.24833,47.55654],[10.24835,47.55658],[10.24835,47.55663],[10.24833,47.55667],[10.24829,47.55671],[10.24832,47.55677],[10.24842,47.55691],[10.24846,47.55704],[10.24872,47.55729],[10.2489,47.55743],[10.24922,47.55765],[10.24935,47.55774],[10.24945,47.55779],[10.24973,47.55793],[10.24992,47.55801],[10.25013,47.55809],[10.25024,47.55813],[10.25055,47.55822],[10.2513,47.55841],[10.25165,47.55847],[10.25225,47.55855],[10.25286,47.55861],[10.25323,47.55864],[10.25387,47.55868],[10.25467,47.55874],[10.2553,47.55878],[10.25832,47.55899],[10.25961,47.55908],[10.26042,47.55914],[10.26059,47.55915],[10.26138,47.55922],[10.26342,47.55936],[10.2693,47.55968],[10.27382,47.55992],[10.27482,47.55998],[10.27531,47.56],[10.27566,47.56005],[10.2758,47.56007],[10.2761,47.56013],[10.27626,47.56015],[10.27637,47.56016],[10.2764,47.56017],[10.27645,47.56014],[10.27651,47.56013],[10.27658,47.56012],[10.27664,47.56013],[10.27671,47.56015],[10.27677,47.56018],[10.27681,47.56022],[10.27683,47.56027],[10.27684,47.56032],[10.27683,47.56036],[10.27679,47.56041],[10.27683,47.56053],[10.27687,47.56066],[10.27697,47.56076],[10.27717,47.56099],[10.27817,47.56216],[10.27911,47.56319],[10.28004,47.56417],[10.28021,47.56435],[10.28069,47.56484],[10.28106,47.56517],[10.28124,47.56533],[10.2817,47.56567],[10.2822,47.56599],[10.28265,47.56624],[10.28309,47.56643],[10.28346,47.56657],[10.2837,47.56666],[10.28387,47.56673],[10.28399,47.56678],[10.28466,47.56706],[10.28492,47.56721],[10.28517,47.56738],[10.28556,47.56776],[10.28572,47.568],[10.28584,47.56823],[10.28593,47.56853],[10.28598,47.56881],[10.28599,47.56941],[10.28598,47.57036],[10.286,47.5708],[10.28605,47.57105],[10.28614,47.57123],[10.28623,47.5714],[10.28637,47.57157],[10.28652,47.57171],[10.28664,47.57181],[10.28686,47.57196],[10.28701,47.57205],[10.28717,47.57213],[10.28729,47.57217],[10.28754,47.57223],[10.28781,47.57224],[10.28803,47.57221],[10.28826,47.57215],[10.28844,47.5721],[10.28859,47.57209],[10.28876,47.5721],[10.28887,47.57213],[10.28894,47.57217],[10.28908,47.57226],[10.28917,47.57238],[10.28919,47.57246],[10.28919,47.57254],[10.28917,47.57276],[10.28912,47.57306],[10.28904,47.57351],[10.28905,47.57357],[10.2891,47.57363],[10.28919,47.57369],[10.2893,47.57373],[10.28962,47.57385],[10.29017,47.57406],[10.29024,47.57408],[10.29031,47.57411],[10.29036,47.57414],[10.29039,47.57419],[10.2904,47.57424],[10.29042,47.57434],[10.29043,47.5744],[10.29047,47.57461],[10.29049,47.57468],[10.29055,47.57476],[10.29072,47.57495],[10.29073,47.57496],[10.29102,47.57531],[10.29109,47.57536],[10.29119,47.57538],[10.29129,47.5754],[10.29141,47.5754],[10.2915,47.57539],[10.29166,47.57536],[10.29183,47.5753],[10.2921,47.57521],[10.29228,47.57514],[10.29252,47.57502],[10.29276,47.57491],[10.29287,47.57487],[10.29298,47.57485],[10.29332,47.57481],[10.29374,47.57477],[10.29416,47.57475],[10.29451,47.57477],[10.2949,47.57487],[10.29531,47.57502],[10.29541,47.57505],[10.29571,47.57518],[10.296,47.57528],[10.29615,47.57532],[10.2962,47.57533],[10.29637,47.57537],[10.29652,47.57541],[10.29683,47.57545],[10.29738,47.57547],[10.29765,47.57549],[10.29782,47.57552],[10.29804,47.57557],[10.29819,47.57561],[10.29839,47.5757],[10.29894,47.57597],[10.2995,47.5763],[10.30022,47.57661],[10.30093,47.57685],[10.30135,47.57705],[10.30161,47.57722],[10.30181,47.57738],[10.30239,47.57788],[10.30301,47.5784],[10.3035,47.57877],[10.30378,47.57895],[10.30408,47.57911],[10.3046,47.57932],[10.30513,47.5795],[10.3056,47.57965],[10.30577,47.57969],[10.30596,47.57974],[10.30706,47.58006],[10.30782,47.58029],[10.30847,47.58052],[10.30881,47.58069],[10.30975,47.58118],[10.30995,47.58129],[10.31033,47.58143],[10.31078,47.58154],[10.31105,47.58158],[10.3113,47.58161],[10.31191,47.58164],[10.31275,47.58167],[10.31338,47.58174],[10.31393,47.58184],[10.31445,47.58196],[10.31493,47.5821],[10.3152,47.5822],[10.31573,47.58239],[10.31644,47.58267],[10.31764,47.58317],[10.3179,47.58326],[10.31835,47.5834],[10.31894,47.58356],[10.31952,47.58369],[10.31982,47.58376],[10.3199,47.58377],[10.32002,47.58381],[10.32017,47.58386],[10.32028,47.5839],[10.32036,47.58393],[10.3206,47.58405],[10.32093,47.58423],[10.32126,47.58444],[10.32154,47.58462],[10.32189,47.58484],[10.32207,47.58492],[10.32224,47.58497],[10.32241,47.585],[10.32259,47.58503],[10.32307,47.58513],[10.32355,47.58521],[10.32389,47.58524],[10.32393,47.58524],[10.32409,47.58524],[10.32427,47.58523],[10.32437,47.58523],[10.32442,47.58521],[10.32455,47.58516],[10.32463,47.58511],[10.32476,47.58508],[10.32489,47.58507],[10.325,47.58509],[10.32518,47.58518],[10.32528,47.58529],[10.32529,47.58532],[10.32532,47.58543],[10.32534,47.58551],[10.32561,47.58575],[10.3263,47.5863],[10.3268,47.58667],[10.32702,47.58683],[10.32728,47.58699],[10.3276,47.58717],[10.32796,47.58734],[10.32835,47.5875],[10.32912,47.58777],[10.33019,47.58811],[10.33126,47.58845],[10.33233,47.58879],[10.33304,47.58903],[10.33358,47.58922],[10.33457,47.58952],[10.33508,47.58964],[10.33527,47.58967],[10.33544,47.58968],[10.33556,47.58965],[10.33565,47.58959],[10.3357,47.58953],[10.33571,47.58945],[10.33569,47.58937],[10.33555,47.58927],[10.33437,47.58874],[10.33424,47.58866],[10.33417,47.58859],[10.33414,47.5885],[10.33415,47.58842],[10.33422,47.58834],[10.33431,47.58828],[10.33442,47.58825],[10.33457,47.58825],[10.33474,47.58827],[10.3356,47.5885],[10.33623,47.58867],[10.33661,47.58876],[10.33685,47.58881],[10.33702,47.58882],[10.33715,47.5888],[10.33729,47.58875],[10.33738,47.5887],[10.33751,47.58862],[10.3378,47.58837],[10.33809,47.58813],[10.33845,47.58783],[10.3386,47.58773],[10.33892,47.58759],[10.33915,47.58752],[10.33937,47.58747],[10.33969,47.58743],[10.34038,47.58741],[10.34212,47.58742],[10.34289,47.58746],[10.34398,47.58746],[10.34452,47.58745],[10.34484,47.58749],[10.34516,47.58754],[10.34543,47.58756],[10.34576,47.58753],[10.34614,47.5875],[10.34675,47.58745],[10.34787,47.58735],[10.34861,47.58731],[10.3504,47.58735],[10.351,47.58738],[10.35142,47.58744],[10.35197,47.58756],[10.35258,47.5877],[10.35315,47.58782],[10.35349,47.58787],[10.3539,47.58792],[10.35439,47.58794],[10.35485,47.58793],[10.35524,47.5879],[10.35549,47.58787],[10.35583,47.58782],[10.35633,47.58771],[10.35737,47.58743],[10.35809,47.58723],[10.35888,47.58695],[10.35981,47.58661],[10.36075,47.58626],[10.36111,47.58613],[10.3613,47.58608],[10.36144,47.58606],[10.36166,47.58606],[10.36185,47.58606],[10.36228,47.58607],[10.36546,47.58615],[10.3664,47.58616],[10.36701,47.58617],[10.36751,47.58615],[10.36755,47.58615],[10.36825,47.58609],[10.36997,47.58597],[10.37092,47.5859],[10.37134,47.58587],[10.37196,47.58578],[10.3726,47.58568],[10.37339,47.58555],[10.37382,47.58553],[10.37409,47.58552],[10.37439,47.58553],[10.37468,47.58556],[10.37499,47.5856],[10.3754,47.58569],[10.37593,47.5858],[10.37686,47.58601],[10.37727,47.58613],[10.37776,47.58626],[10.37837,47.58635],[10.3792,47.58651],[10.37983,47.58663],[10.3805,47.58674],[10.38073,47.58678],[10.38103,47.58685],[10.38145,47.58695],[10.38184,47.58707],[10.38235,47.58728],[10.38274,47.58748],[10.38378,47.58803],[10.38447,47.58838],[10.38484,47.58857],[10.3858,47.58903],[10.38672,47.58947],[10.38744,47.58978],[10.38824,47.59013],[10.38922,47.59054],[10.39024,47.59097],[10.39139,47.5915],[10.39182,47.59171],[10.39231,47.59199],[10.39275,47.59226],[10.39361,47.59282],[10.3947,47.59354],[10.39656,47.59457],[10.39664,47.59461],[10.39691,47.59479],[10.39719,47.59502],[10.39761,47.59545],[10.3979,47.5957],[10.39817,47.59588],[10.39856,47.59607],[10.3988,47.59616],[10.39903,47.59622],[10.39913,47.59625],[10.39997,47.59644],[10.4004,47.59652],[10.40047,47.59646],[10.40056,47.59643],[10.40061,47.59642],[10.40075,47.59644],[10.40083,47.59648],[10.40088,47.59653],[10.4009,47.5966],[10.40088,47.59667],[10.40096,47.59668],[10.40184,47.59688],[10.40503,47.5976],[10.40583,47.59772],[10.40634,47.59777],[10.40682,47.59778],[10.40729,47.59776],[10.40775,47.59771],[10.40861,47.59758],[10.40981,47.5974],[10.41132,47.59717],[10.41165,47.59713],[10.41199,47.59712],[10.41245,47.59714],[10.41325,47.5972],[10.41373,47.59718],[10.41422,47.59714],[10.41464,47.59706],[10.41507,47.59695],[10.41587,47.59669],[10.41616,47.59659],[10.41653,47.59646],[10.41689,47.59634],[10.41695,47.59632],[10.41709,47.59658],[10.41717,47.59673],[10.41737,47.59719],[10.41753,47.59773],[10.41766,47.59806],[10.41779,47.59834],[10.41792,47.5986],[10.41817,47.59901],[10.41838,47.59932],[10.4187,47.59976],[10.41902,47.60017],[10.41927,47.60046],[10.41948,47.60066],[10.42017,47.60138],[10.4203,47.60151],[10.42049,47.6017],[10.42034,47.6018],[10.42021,47.60185],[10.42007,47.60189],[10.41988,47.60193],[10.41959,47.60195],[10.41896,47.60191],[10.41833,47.60187],[10.41774,47.60189],[10.41758,47.60189],[10.4168,47.60198],[10.41527,47.60213],[10.41501,47.60216],[10.41491,47.60189],[10.41477,47.60145],[10.41452,47.60071],[10.4138,47.6009],[10.41315,47.60103],[10.41343,47.60068],[10.41366,47.60047],[10.41381,47.60039],[10.41413,47.60026],[10.41443,47.60008],[10.41467,47.59979],[10.41469,47.59976],[10.41488,47.59954],[10.41493,47.59949],[10.41501,47.5994],[10.41524,47.59911],[10.41546,47.59882],[10.41592,47.59828],[10.41603,47.5981],[10.41606,47.59797],[10.41606,47.59776],[10.41605,47.5976],[10.416,47.59748],[10.41592,47.59734],[10.41583,47.59725],[10.41573,47.59716],[10.41551,47.59707],[10.41529,47.59701],[10.41503,47.59695],[10.41467,47.59689],[10.41438,47.59684],[10.41393,47.59677],[10.41197,47.59658],[10.412,47.59644],[10.41205,47.59636],[10.41217,47.59628],[10.41238,47.59623],[10.41255,47.59617],[10.41264,47.59608],[10.41265,47.59603],[10.41256,47.59598]],"type":"LineString"},"properties":{"quelle":"OSRM router.project-osrm.org, Profil driving","von":[47.559,10.217],"nach":[47.59593,10.41262],"distanz_m":20346.9,"dauer_s":1346.5,"punkte":605}}
