{"type":"Feature","geometry":{"coordinates":[[10.28327,47.45193],[10.2831,47.45143],[10.28312,47.45131],[10.28317,47.4512],[10.28335,47.45109],[10.28356,47.45103],[10.2836,47.45088],[10.28359,47.45079],[10.28356,47.45059],[10.2836,47.45038],[10.28354,47.45021],[10.28339,47.44995],[10.28335,47.44967],[10.28341,47.44926],[10.28346,47.449],[10.28356,47.44897],[10.28364,47.44899],[10.28368,47.4492],[10.28383,47.44943],[10.28402,47.44968],[10.28411,47.44994],[10.2845,47.45033],[10.28482,47.45085],[10.28488,47.45093],[10.28495,47.45097],[10.28502,47.451],[10.28512,47.45102],[10.28522,47.45103],[10.28529,47.45102],[10.28559,47.45095],[10.2857,47.4509],[10.28596,47.45076],[10.28607,47.45071],[10.2862,47.45067],[10.28654,47.4506],[10.287,47.45052],[10.28704,47.4505],[10.28709,47.45045],[10.28711,47.45044],[10.28712,47.45042],[10.28719,47.45036],[10.2873,47.45023],[10.2874,47.45016],[10.28751,47.45014],[10.28757,47.45011],[10.28785,47.44997],[10.28893,47.44929],[10.28902,47.44923],[10.28911,47.44917],[10.28927,47.44899],[10.28976,47.44828],[10.28993,47.44801],[10.29007,47.44771],[10.29016,47.44755],[10.29026,47.44747],[10.29039,47.44738],[10.29061,47.44728],[10.29118,47.44709],[10.29126,47.44705],[10.29132,47.447],[10.29136,47.44693],[10.29151,47.44649],[10.29163,47.44621],[10.29171,47.44606],[10.29177,47.44599],[10.29189,47.4459],[10.29214,47.44577],[10.29224,47.44571],[10.29256,47.44542],[10.29266,47.44525],[10.29312,47.44502],[10.29346,47.44487],[10.29364,47.44475],[10.29374,47.44462],[10.29376,47.44454],[10.29376,47.44445],[10.29377,47.44442],[10.29383,47.44436],[10.29402,47.44454],[10.29408,47.44462],[10.29417,47.44472],[10.29428,47.44484],[10.29441,47.44501],[10.29451,47.44519],[10.2946,47.44535],[10.29467,47.44552],[10.29476,47.44582],[10.29485,47.44623],[10.2949,47.44641],[10.29498,47.44658],[10.29507,47.44674],[10.29532,47.44705],[10.29548,47.44728],[10.29553,47.4474],[10.29559,47.44762],[10.29562,47.44778],[10.29565,47.44788],[10.29567,47.44797],[10.29571,47.44809],[10.29572,47.44812],[10.29578,47.44822],[10.2959,47.44837],[10.29606,47.44859],[10.29615,47.44873],[10.29621,47.44884],[10.29624,47.44897],[10.29626,47.44913],[10.29628,47.44944],[10.29631,47.44971],[10.29636,47.44996],[10.29639,47.45011],[10.29642,47.45034],[10.29645,47.45158],[10.29656,47.45242],[10.29666,47.45288],[10.29673,47.45315],[10.29691,47.45372],[10.29705,47.45408],[10.29772,47.45566],[10.29795,47.45628],[10.29817,47.45691],[10.29825,47.4572],[10.29835,47.45762],[10.2984,47.45785],[10.29845,47.45815],[10.2985,47.4585],[10.29852,47.4589],[10.29853,47.45918],[10.29851,47.45945],[10.29847,47.45973],[10.29845,47.45993],[10.29839,47.46017],[10.29835,47.46035],[10.29826,47.46064],[10.29821,47.4608],[10.29814,47.46096],[10.29811,47.46104],[10.29802,47.46126],[10.29798,47.46135],[10.29779,47.46169],[10.29763,47.46195],[10.29728,47.46246],[10.29674,47.46313],[10.2962,47.46377],[10.29596,47.46406],[10.29563,47.46449],[10.29535,47.46488],[10.29486,47.46568],[10.29472,47.46605],[10.29457,47.46647],[10.29448,47.46691],[10.29444,47.46724],[10.2944,47.46782],[10.2944,47.46817],[10.29442,47.4684],[10.29449,47.46885],[10.29456,47.46914],[10.29468,47.46962],[10.29504,47.47072],[10.29528,47.47142],[10.29549,47.47213],[10.29563,47.47262],[10.29574,47.47315],[10.29579,47.47351],[10.29582,47.47387],[10.29582,47.47415],[10.2958,47.47439],[10.29576,47.47469],[10.29568,47.47505],[10.2956,47.47535],[10.29554,47.47553],[10.29542,47.47581],[10.2954,47.47586],[10.2952,47.47624],[10.29489,47.47672],[10.29453,47.47716],[10.2942,47.47752],[10.29385,47.47785],[10.29359,47.47807],[10.29351,47.47814],[10.29307,47.47844],[10.29239,47.47885],[10.29081,47.47971],[10.29077,47.47974],[10.29015,47.48011],[10.28993,47.48024],[10.28984,47.48038],[10.28916,47.48097],[10.28902,47.48121],[10.28883,47.48166],[10.28866,47.4821],[10.28849,47.48248],[10.28812,47.48299],[10.28803,47.4831],[10.28764,47.48354],[10.28749,47.4837],[10.28722,47.484],[10.28694,47.48425],[10.28674,47.48437],[10.28657,47.48447],[10.2864,47.48455],[10.28614,47.48462],[10.28586,47.48468],[10.28551,47.48473],[10.28531,47.48477],[10.28512,47.48482],[10.28497,47.48488],[10.28491,47.48493],[10.28487,47.48496],[10.28482,47.48505],[10.2848,47.48513],[10.28475,47.48529],[10.28467,47.48542],[10.28451,47.4856],[10.28449,47.48563],[10.28449,47.48568],[10.28456,47.48585],[10.28465,47.48606],[10.28472,47.48627],[10.28474,47.48636],[10.28475,47.48647],[10.28474,47.48654],[10.28473,47.48661],[10.28472,47.48667],[10.2847,47.48672],[10.28463,47.48692],[10.28454,47.48708],[10.28445,47.48722],[10.2843,47.48744],[10.28421,47.48759],[10.28408,47.48777],[10.28378,47.48824],[10.28365,47.48853],[10.28363,47.48864],[10.28358,47.48887],[10.28342,47.48957],[10.28341,47.48963],[10.2834,47.48968],[10.28339,47.48972],[10.28337,47.4898],[10.28336,47.48988],[10.28334,47.48998],[10.28334,47.49],[10.28321,47.49046],[10.28305,47.49102],[10.28303,47.49106],[10.28302,47.49108],[10.28298,47.49117],[10.28296,47.49126],[10.28294,47.49132],[10.28293,47.49141],[10.2828,47.49181],[10.28222,47.49362],[10.2821,47.49413],[10.28204,47.49453],[10.28208,47.49517],[10.28214,47.49553],[10.2823,47.49634],[10.28228,47.49651],[10.28222,47.49669],[10.28206,47.49695],[10.28179,47.4974],[10.28174,47.49772],[10.28178,47.49892],[10.28182,47.49946],[10.28192,47.50019],[10.28197,47.50049],[10.28197,47.50081],[10.28196,47.501],[10.28195,47.50119],[10.28189,47.50155],[10.28174,47.50229],[10.28159,47.50302],[10.28158,47.50309],[10.28157,47.50312],[10.28157,47.50327],[10.28157,47.50337],[10.28157,47.50351],[10.28157,47.50359],[10.28157,47.50379],[10.28159,47.50405],[10.28158,47.5041],[10.28155,47.50413],[10.2815,47.50416],[10.28142,47.50419],[10.28133,47.50419],[10.28119,47.50416],[10.28101,47.50411],[10.2807,47.50402],[10.28064,47.50399],[10.28012,47.50382],[10.27986,47.50372],[10.27961,47.50363],[10.27946,47.50356],[10.27929,47.50349],[10.27921,47.50346],[10.27912,47.50355],[10.27906,47.50362],[10.27893,47.50368],[10.27861,47.5038],[10.2782,47.50397],[10.27785,47.50416],[10.27755,47.50435],[10.2772,47.50459],[10.27665,47.505],[10.27652,47.50509],[10.27641,47.50516],[10.27613,47.50533],[10.27579,47.50548],[10.27543,47.50561],[10.27511,47.50572],[10.27481,47.50581],[10.27421,47.50595],[10.27382,47.50606],[10.27355,47.50614],[10.27342,47.50618],[10.27329,47.50624],[10.27305,47.5064],[10.27301,47.50645],[10.2729,47.50653],[10.27286,47.50657],[10.27285,47.5066],[10.27285,47.50666],[10.27301,47.50677],[10.27318,47.50688],[10.27323,47.50691],[10.27338,47.50703],[10.27345,47.50707],[10.27335,47.5071],[10.27319,47.50719],[10.27312,47.50722],[10.27299,47.50729],[10.27269,47.50754],[10.27247,47.50775],[10.27219,47.50817],[10.27207,47.50837],[10.27197,47.50858],[10.27187,47.50884],[10.27182,47.50907],[10.27171,47.50945],[10.27171,47.50991],[10.27169,47.51015],[10.27166,47.51065],[10.2716,47.51102],[10.27154,47.51144],[10.27146,47.51195],[10.27135,47.51262],[10.27131,47.51285],[10.27119,47.5135],[10.27106,47.51412],[10.27104,47.5142],[10.27092,47.51475],[10.27082,47.51512],[10.27071,47.51546],[10.27072,47.51565],[10.27061,47.5159],[10.27059,47.51594],[10.27057,47.51599],[10.27048,47.51618],[10.27027,47.51662],[10.27011,47.5169],[10.26992,47.51725],[10.26969,47.51767],[10.26964,47.51778],[10.26956,47.51799],[10.26947,47.51821],[10.26943,47.51833],[10.26941,47.51841],[10.26938,47.51852],[10.26928,47.51889],[10.2692,47.51955],[10.26914,47.52007],[10.26911,47.52053],[10.26898,47.52156],[10.26887,47.52205],[10.26877,47.52241],[10.26867,47.52275],[10.26855,47.52315],[10.26827,47.52415],[10.26819,47.52444],[10.26793,47.5253],[10.26775,47.52598],[10.26761,47.52647],[10.26727,47.52798],[10.2672,47.52826],[10.26712,47.52867],[10.26695,47.52958],[10.26682,47.5305],[10.26677,47.53106],[10.26673,47.53163],[10.26672,47.53252],[10.26674,47.53324],[10.26678,47.53408],[10.26693,47.53556],[10.26704,47.53646],[10.26717,47.53738],[10.26746,47.53919],[10.26756,47.53985],[10.26765,47.54058],[10.26771,47.54131],[10.26772,47.54169],[10.26772,47.54206],[10.26769,47.54236],[10.26764,47.54273],[10.26757,47.54308],[10.26746,47.54351],[10.26731,47.54391],[10.26713,47.5443],[10.26689,47.54473],[10.26654,47.54525],[10.26613,47.54576],[10.26565,47.54626],[10.26534,47.54654],[10.26509,47.54677],[10.26441,47.5473],[10.2638,47.54774],[10.26309,47.54822],[10.26164,47.54919],[10.26058,47.54987],[10.25791,47.55162],[10.25495,47.55357],[10.25355,47.5545],[10.25183,47.55562],[10.25143,47.55588],[10.25118,47.55605],[10.25034,47.5566],[10.24983,47.55693],[10.24945,47.55719],[10.24886,47.55756],[10.24853,47.55791],[10.24841,47.55808],[10.24838,47.55815],[10.24838,47.55824],[10.24842,47.55834],[10.2485,47.55843],[10.2486,47.55847],[10.24872,47.5585],[10.24882,47.5585],[10.24889,47.5585],[10.249,47.55848],[10.24913,47.55842],[10.24941,47.55822],[10.24946,47.55814],[10.24952,47.55807],[10.24949,47.55793],[10.24945,47.55779],[10.24935,47.55774],[10.24922,47.55765],[10.2489,47.55743],[10.24872,47.55729],[10.24846,47.55704],[10.24835,47.55695],[10.24825,47.55685],[10.24818,47.55679],[10.24815,47.55676],[10.24811,47.55676],[10.24807,47.55676],[10.24803,47.55675],[10.248,47.55673],[10.24797,47.55672],[10.24794,47.5567],[10.24791,47.55665],[10.2479,47.5566],[10.24791,47.55655],[10.24793,47.55653],[10.24796,47.5565],[10.24791,47.55638],[10.2479,47.55631],[10.24776,47.55615],[10.24752,47.55584],[10.24706,47.55545],[10.24657,47.55516],[10.24615,47.55497],[10.24559,47.55476],[10.24536,47.55469],[10.24516,47.55465],[10.24473,47.55456],[10.24434,47.55452],[10.24403,47.55449],[10.24372,47.55448],[10.24325,47.55449],[10.24276,47.55453],[10.24217,47.55464],[10.24166,47.55477],[10.24107,47.55497],[10.24047,47.55519],[10.23975,47.55546],[10.239,47.55571],[10.23884,47.55576],[10.23841,47.55586],[10.2378,47.55597],[10.23726,47.55603],[10.23668,47.55606],[10.23635,47.55606],[10.23621,47.55605],[10.23587,47.55603],[10.2353,47.55598],[10.2349,47.55591],[10.23457,47.55584],[10.23428,47.55575],[10.23423,47.55574],[10.23386,47.55559],[10.23273,47.55504],[10.2327,47.55503],[10.23249,47.55492],[10.23201,47.5547],[10.23188,47.55466],[10.23179,47.55464],[10.23174,47.55461],[10.23171,47.55463],[10.23167,47.55463],[10.23163,47.55463],[10.2316,47.55463],[10.23148,47.55468],[10.23133,47.55473],[10.23127,47.55476],[10.23107,47.55487],[10.231,47.55491],[10.2309,47.55497],[10.23052,47.55521],[10.23044,47.55527],[10.23037,47.55533],[10.23007,47.55553],[10.22973,47.55577],[10.2297,47.55579],[10.22951,47.55592],[10.2294,47.55599],[10.22891,47.55633],[10.22842,47.55655],[10.22757,47.55686],[10.22754,47.55688],[10.2266,47.55716],[10.22653,47.55719],[10.22592,47.55738],[10.22575,47.55743],[10.22565,47.55746],[10.2256,47.55748],[10.22513,47.55763],[10.22487,47.55767],[10.22466,47.55769],[10.22439,47.55768],[10.22387,47.55768],[10.22354,47.55771],[10.22329,47.55776],[10.22299,47.55782],[10.22292,47.55784],[10.22272,47.55792],[10.22266,47.55794],[10.22242,47.55805],[10.22189,47.55825],[10.22181,47.55827],[10.22158,47.55833],[10.22138,47.55836],[10.22108,47.55837],[10.22092,47.55837],[10.22048,47.55834],[10.22012,47.55834],[10.21976,47.55835],[10.21922,47.55841],[10.2188,47.55847],[10.21858,47.55851],[10.21829,47.55855],[10.218,47.5586],[10.21733,47.5587],[10.2172,47.55871],[10.2166,47.55881],[10.21671,47.55891],[10.21695,47.55887]],"type":"LineString"},"properties":{"quelle":"OSRM router.project-osrm.org, Profil driving","von":[47.45335,10.27867],"nach":[47.559,10.217],"distanz_m":19075.7,"dauer_s":1334.8,"punkte":568}}
