{"type":"Feature","geometry":{"coordinates":[[10.21695,47.55887],[10.21738,47.55879],[10.21733,47.5587],[10.218,47.5586],[10.21829,47.55855],[10.21858,47.55851],[10.2188,47.55847],[10.21922,47.55841],[10.21976,47.55835],[10.22012,47.55834],[10.22048,47.55834],[10.22092,47.55837],[10.22108,47.55837],[10.22138,47.55836],[10.22158,47.55833],[10.22181,47.55827],[10.22189,47.55825],[10.22242,47.55805],[10.22266,47.55794],[10.22272,47.55792],[10.22292,47.55784],[10.22299,47.55782],[10.22329,47.55776],[10.22354,47.55771],[10.22387,47.55768],[10.22439,47.55768],[10.22466,47.55769],[10.22487,47.55767],[10.22513,47.55763],[10.2256,47.55748],[10.22565,47.55746],[10.22575,47.55743],[10.22592,47.55738],[10.22653,47.55719],[10.2266,47.55716],[10.22754,47.55688],[10.22757,47.55686],[10.22842,47.55655],[10.22891,47.55633],[10.2294,47.55599],[10.22951,47.55592],[10.2297,47.55579],[10.22973,47.55577],[10.23007,47.55553],[10.23037,47.55533],[10.23044,47.55527],[10.23052,47.55521],[10.2309,47.55497],[10.231,47.55491],[10.23107,47.55487],[10.23127,47.55476],[10.23133,47.55473],[10.23144,47.55464],[10.2315,47.5546],[10.23152,47.55458],[10.2315,47.55456],[10.23149,47.55454],[10.23149,47.55452],[10.23149,47.5545],[10.2315,47.55448],[10.23151,47.55446],[10.23153,47.55444],[10.23157,47.55442],[10.23161,47.55441],[10.23165,47.55441],[10.23168,47.55441],[10.23171,47.55442],[10.23174,47.55443],[10.23177,47.55444],[10.23179,47.55446],[10.23181,47.55448],[10.23182,47.55451],[10.23182,47.55453],[10.23193,47.55462],[10.23201,47.5547],[10.23249,47.55492],[10.2327,47.55503],[10.23273,47.55504],[10.23386,47.55559],[10.23423,47.55574],[10.23428,47.55575],[10.23457,47.55584],[10.2349,47.55591],[10.2353,47.55598],[10.23587,47.55603],[10.23621,47.55605],[10.23635,47.55606],[10.23668,47.55606],[10.23726,47.55603],[10.2378,47.55597],[10.23841,47.55586],[10.23884,47.55576],[10.239,47.55571],[10.23975,47.55546],[10.24047,47.55519],[10.24107,47.55497],[10.24166,47.55477],[10.24217,47.55464],[10.24276,47.55453],[10.24325,47.55449],[10.24372,47.55448],[10.24403,47.55449],[10.24434,47.55452],[10.24473,47.55456],[10.24516,47.55465],[10.24536,47.55469],[10.24559,47.55476],[10.24615,47.55497],[10.24657,47.55516],[10.24706,47.55545],[10.24752,47.55584],[10.24776,47.55615],[10.2479,47.55631],[10.24797,47.55636],[10.24805,47.55643],[10.24808,47.55646],[10.24814,47.55646],[10.24822,47.55647],[10.24827,47.55649],[10.2483,47.55651],[10.24833,47.55654],[10.24835,47.55658],[10.24835,47.55663],[10.24833,47.55667],[10.24829,47.55671],[10.24832,47.55677],[10.24842,47.55691],[10.24846,47.55704],[10.24872,47.55729],[10.2489,47.55743],[10.24922,47.55765],[10.24935,47.55774],[10.24945,47.55779],[10.24973,47.55793],[10.24992,47.55801],[10.25013,47.55809],[10.25024,47.55813],[10.25055,47.55822],[10.2513,47.55841],[10.25165,47.55847],[10.25225,47.55855],[10.25286,47.55861],[10.25323,47.55864],[10.25387,47.55868],[10.25467,47.55874],[10.2553,47.55878],[10.25832,47.55899],[10.25961,47.55908],[10.26042,47.55914],[10.26059,47.55915],[10.26138,47.55922],[10.26342,47.55936],[10.2693,47.55968],[10.27382,47.55992],[10.27482,47.55998],[10.27531,47.56],[10.27566,47.56005],[10.2758,47.56007],[10.2761,47.56013],[10.27626,47.56015],[10.27637,47.56016],[10.2764,47.56017],[10.27645,47.56014],[10.27651,47.56013],[10.27658,47.56012],[10.27664,47.56013],[10.27671,47.56006],[10.27684,47.55991],[10.27697,47.55971],[10.27704,47.5596],[10.27727,47.55925],[10.27814,47.55793],[10.27831,47.55765],[10.27843,47.55739],[10.27852,47.55717],[10.27857,47.55702],[10.27861,47.5568],[10.27862,47.55646],[10.27865,47.556],[10.2787,47.55576],[10.2791,47.555],[10.2793,47.5547],[10.27951,47.55444],[10.27979,47.55407],[10.27986,47.55396],[10.27993,47.55384],[10.28005,47.55354],[10.28018,47.5532],[10.28021,47.55304],[10.2802,47.55293],[10.28018,47.55282],[10.28012,47.55266],[10.27998,47.55229],[10.27995,47.55219],[10.27992,47.55206],[10.27989,47.55187],[10.27985,47.55161],[10.27978,47.55139],[10.27968,47.55123],[10.27956,47.55109],[10.27947,47.55096],[10.27944,47.55085],[10.27943,47.55074],[10.27946,47.55062],[10.27952,47.55053],[10.27957,47.55046],[10.27964,47.55038],[10.2797,47.55031],[10.28009,47.54989],[10.28066,47.54913],[10.2808,47.54894],[10.28084,47.54888],[10.28082,47.5487],[10.2808,47.54834],[10.28078,47.54782],[10.28079,47.54767],[10.28082,47.54758],[10.28094,47.54741],[10.28124,47.54703],[10.28164,47.54651],[10.28171,47.54641],[10.28178,47.54631],[10.28187,47.54612],[10.28189,47.54604],[10.2819,47.54595],[10.28192,47.54573],[10.28191,47.54568],[10.2819,47.54561],[10.28186,47.54547],[10.28182,47.54535],[10.28169,47.5451],[10.28161,47.54491],[10.28157,47.54459],[10.28158,47.54448],[10.28161,47.54436],[10.28166,47.54421],[10.28178,47.54404],[10.28186,47.54391],[10.28197,47.5438],[10.28201,47.54376],[10.28214,47.54366],[10.28247,47.54348],[10.28269,47.54336],[10.28308,47.54309],[10.28316,47.54303],[10.28363,47.54266],[10.28375,47.54254],[10.2838,47.54246],[10.28391,47.54218],[10.2841,47.54173],[10.28411,47.5417],[10.28415,47.54162],[10.28425,47.54149],[10.28437,47.54139],[10.28445,47.54135],[10.28465,47.54128],[10.28506,47.54118],[10.28549,47.54107],[10.2857,47.541],[10.28584,47.54092],[10.28594,47.54081],[10.286,47.5407],[10.28601,47.54063],[10.28599,47.54053],[10.28583,47.5402],[10.28568,47.53988],[10.28565,47.53973],[10.28563,47.53962],[10.28562,47.53959],[10.28561,47.53941],[10.28561,47.53936],[10.28561,47.53923],[10.28564,47.53911],[10.28565,47.53909],[10.28566,47.53906],[10.28572,47.53879],[10.28571,47.53863],[10.28561,47.53843],[10.28557,47.53838],[10.28549,47.53824],[10.28543,47.53818],[10.28539,47.53808],[10.28538,47.53795],[10.28536,47.53776],[10.28539,47.53759],[10.28542,47.53748],[10.28544,47.53741],[10.28545,47.53736],[10.28558,47.53714],[10.28563,47.53707],[10.28569,47.53697],[10.28571,47.53689],[10.28573,47.53679],[10.28571,47.53666],[10.2856,47.5365],[10.28546,47.53628],[10.28543,47.53624],[10.28524,47.5359],[10.28523,47.53586],[10.28511,47.53561],[10.28508,47.53552],[10.28482,47.53495],[10.28475,47.53483],[10.28452,47.5345],[10.28444,47.5344],[10.28454,47.53427],[10.2847,47.53409],[10.28491,47.53388],[10.28495,47.53386],[10.28532,47.53362],[10.28558,47.53347],[10.28546,47.53323],[10.28603,47.53309],[10.28648,47.53291],[10.2867,47.53275],[10.28694,47.53257],[10.28734,47.53215]],"type":"LineString"},"properties":{"quelle":"OSRM router.project-osrm.org, Profil driving","von":[47.559,10.217],"nach":[47.532,10.287],"distanz_m":8467.6,"dauer_s":644.9,"punkte":317}}
