{"type":"Feature","geometry":{"coordinates":[[10.28097,47.51507],[10.28101,47.51528],[10.28112,47.51527],[10.28132,47.51526],[10.28133,47.51578],[10.28128,47.51592],[10.28116,47.51615],[10.28105,47.51637],[10.281,47.51656],[10.281,47.51665],[10.28102,47.51713],[10.28112,47.51771],[10.28125,47.51806],[10.28131,47.51823],[10.28132,47.51826],[10.28133,47.51829],[10.28142,47.51853],[10.28151,47.51879],[10.28167,47.51918],[10.28178,47.5196],[10.28143,47.51967],[10.28138,47.51968],[10.28128,47.5197],[10.28076,47.5198],[10.27917,47.5201],[10.27884,47.52017],[10.27872,47.52019],[10.27808,47.52028],[10.27774,47.52033],[10.27731,47.52038],[10.27669,47.52041],[10.27667,47.52041],[10.27577,47.52043],[10.27548,47.52044],[10.27506,47.52043],[10.27447,47.52042],[10.27416,47.52041],[10.27291,47.52039],[10.2725,47.52038],[10.27218,47.52036],[10.27194,47.52036],[10.27142,47.52035],[10.27104,47.52034],[10.27088,47.52033],[10.27075,47.52036],[10.27056,47.52039],[10.27044,47.52043],[10.27036,47.52046],[10.2703,47.52049],[10.27025,47.52053],[10.27021,47.52058],[10.27018,47.52064],[10.27015,47.52071],[10.27012,47.52077],[10.2701,47.52085],[10.27007,47.52091],[10.27004,47.52096],[10.27001,47.521],[10.26996,47.52103],[10.26991,47.52106],[10.26986,47.52108],[10.26968,47.52111],[10.26959,47.52113],[10.26952,47.52115],[10.26943,47.52117],[10.26936,47.52119],[10.2693,47.52123],[10.26924,47.52127],[10.26919,47.5213],[10.26915,47.52134],[10.26911,47.52141],[10.26906,47.52146],[10.26905,47.52151],[10.26898,47.52156],[10.26887,47.52205],[10.26877,47.52241],[10.26867,47.52275],[10.26855,47.52315],[10.26827,47.52415],[10.26819,47.52444],[10.26793,47.5253],[10.26775,47.52598],[10.26761,47.52647],[10.26727,47.52798],[10.2672,47.52826],[10.26712,47.52867],[10.26695,47.52958],[10.26682,47.5305],[10.26677,47.53106],[10.26673,47.53163],[10.26672,47.53252],[10.26674,47.53324],[10.26678,47.53408],[10.26693,47.53556],[10.26704,47.53646],[10.26717,47.53738],[10.26746,47.53919],[10.26756,47.53985],[10.26765,47.54058],[10.26771,47.54131],[10.26772,47.54169],[10.26772,47.54206],[10.26769,47.54236],[10.26764,47.54273],[10.26757,47.54308],[10.26746,47.54351],[10.26731,47.54391],[10.26713,47.5443],[10.26689,47.54473],[10.26654,47.54525],[10.26613,47.54576],[10.26565,47.54626],[10.26534,47.54654],[10.26509,47.54677],[10.26441,47.5473],[10.2638,47.54774],[10.26309,47.54822],[10.26164,47.54919],[10.26058,47.54987],[10.25791,47.55162],[10.25495,47.55357],[10.25355,47.5545],[10.25183,47.55562],[10.25143,47.55588],[10.25118,47.55605],[10.25034,47.5566],[10.24983,47.55693],[10.24945,47.55719],[10.24886,47.55756],[10.24761,47.55839],[10.2467,47.55899],[10.24561,47.55971],[10.24498,47.56014],[10.24454,47.56046],[10.24399,47.56088],[10.24367,47.56115],[10.24319,47.56157],[10.24279,47.56196],[10.24264,47.56212],[10.24246,47.56231],[10.24208,47.56276],[10.24183,47.56311],[10.24164,47.56342],[10.24146,47.56375],[10.24126,47.56421],[10.24113,47.56461],[10.24105,47.56501],[10.241,47.56527],[10.24098,47.56561],[10.24099,47.56602],[10.24103,47.56637],[10.2411,47.5667],[10.24115,47.56691],[10.24126,47.56721],[10.24137,47.56749],[10.2415,47.56777],[10.24166,47.56806],[10.24172,47.56816],[10.24187,47.56839],[10.24211,47.56871],[10.24242,47.56905],[10.24269,47.56933],[10.24292,47.56953],[10.24314,47.56971],[10.2436,47.57005],[10.24394,47.57028],[10.24433,47.57052],[10.2447,47.57072],[10.24513,47.57093],[10.24577,47.5712],[10.24687,47.57172],[10.24737,47.572],[10.24775,47.57226],[10.24809,47.57252],[10.24856,47.57296],[10.24896,47.57339],[10.2492,47.5737],[10.24943,47.57406],[10.24955,47.57429],[10.24969,47.57465],[10.24979,47.57494],[10.24994,47.57581],[10.24995,47.57604],[10.24996,47.57616],[10.24994,47.57632],[10.24989,47.57686],[10.24981,47.57775],[10.24981,47.57815],[10.24983,47.57853],[10.24989,47.57896],[10.24997,47.57928],[10.25007,47.57959],[10.25023,47.58001],[10.2504,47.58035],[10.25061,47.5807],[10.2508,47.58103],[10.25099,47.58129],[10.25108,47.58141],[10.25139,47.58179],[10.25194,47.58242],[10.25253,47.58305],[10.25336,47.58395],[10.25424,47.58488],[10.2571,47.58796],[10.25845,47.5894],[10.2594,47.59041],[10.26068,47.59178],[10.26163,47.59281],[10.26213,47.59334],[10.26255,47.59379],[10.2629,47.59414],[10.26332,47.59455],[10.26369,47.59488],[10.26411,47.59524],[10.26498,47.59591],[10.26594,47.59655],[10.2673,47.59741],[10.26783,47.59777],[10.2687,47.59843],[10.26911,47.59875],[10.26954,47.59914],[10.27026,47.59984],[10.27072,47.60032],[10.27108,47.60074],[10.27133,47.60105],[10.27156,47.60138],[10.27176,47.60167],[10.27198,47.602],[10.27223,47.60242],[10.27251,47.60298],[10.27282,47.60364],[10.273,47.60408],[10.27315,47.60453],[10.27328,47.60501],[10.27334,47.60534],[10.27347,47.606],[10.27364,47.6073],[10.27364,47.60746],[10.27369,47.60806],[10.27374,47.60849],[10.27381,47.60932],[10.27391,47.6103],[10.27396,47.61082],[10.27405,47.61129],[10.27413,47.61171],[10.27422,47.61207],[10.27446,47.61281],[10.27484,47.61383],[10.27501,47.61427],[10.27526,47.61496],[10.27557,47.6159],[10.27571,47.61645],[10.2758,47.61689],[10.27592,47.61757],[10.27594,47.61771],[10.27599,47.61812],[10.27604,47.6186],[10.27618,47.61985],[10.27631,47.62082],[10.27653,47.62212],[10.27668,47.62273],[10.27688,47.62346],[10.27714,47.62429],[10.2773,47.6247],[10.27754,47.62535],[10.27782,47.62601],[10.27824,47.62686],[10.27843,47.62726],[10.27873,47.62782],[10.2792,47.62862],[10.27957,47.62921],[10.27974,47.62949],[10.28032,47.63043],[10.28102,47.63156],[10.28157,47.63244],[10.28205,47.63318],[10.28226,47.63348],[10.28249,47.63378],[10.28289,47.63423],[10.28323,47.63459],[10.28363,47.63499],[10.28439,47.63567],[10.28538,47.63659],[10.28559,47.63679],[10.2858,47.63702],[10.28598,47.63723],[10.28614,47.63746],[10.2863,47.6377],[10.28642,47.63793],[10.28653,47.63815],[10.28665,47.63843],[10.28673,47.63867],[10.28682,47.63903],[10.28689,47.63939],[10.28701,47.64003],[10.28707,47.64027],[10.28716,47.64059],[10.28731,47.64104],[10.28746,47.64136],[10.28757,47.64159],[10.28774,47.64189],[10.28791,47.64217],[10.28807,47.64239],[10.28852,47.64294],[10.28904,47.64349],[10.28933,47.64375],[10.28978,47.6441],[10.28985,47.64415],[10.29039,47.64455],[10.29114,47.64507],[10.29195,47.6456],[10.29278,47.64616],[10.29359,47.64674],[10.29389,47.64699],[10.29413,47.64719],[10.29438,47.64742],[10.29458,47.64761],[10.29481,47.64785],[10.29482,47.64787],[10.29522,47.64837],[10.2953,47.64848],[10.29551,47.64884],[10.29569,47.64921],[10.29577,47.64942],[10.29587,47.64968],[10.29596,47.65013],[10.29601,47.65065],[10.29597,47.65219],[10.296,47.65273],[10.2961,47.65324],[10.29624,47.65365],[10.29642,47.65405],[10.29675,47.65458],[10.29735,47.6554],[10.29774,47.65596],[10.29791,47.65625],[10.29807,47.65654],[10.2982,47.65685],[10.2984,47.65736],[10.29854,47.65787],[10.29861,47.65822],[10.29866,47.65857],[10.29868,47.65915],[10.29868,47.65973],[10.29867,47.66067],[10.2987,47.66135],[10.29875,47.66172],[10.29891,47.6624],[10.29915,47.66328],[10.29924,47.66378],[10.2993,47.66415],[10.2993,47.66472],[10.29925,47.66521],[10.29913,47.6657],[10.29883,47.66644],[10.29868,47.66679],[10.29842,47.66733],[10.29838,47.66742],[10.29826,47.66775],[10.29819,47.66801],[10.29813,47.66835],[10.2981,47.66873],[10.29811,47.6691],[10.29815,47.66933],[10.29825,47.66963],[10.29846,47.67017],[10.29868,47.67054],[10.29895,47.6709],[10.29926,47.67124],[10.29983,47.67173],[10.30017,47.67201],[10.30056,47.67234],[10.3008,47.67259],[10.301,47.67282],[10.30118,47.67307],[10.30135,47.67337],[10.30146,47.67362],[10.30153,47.67383],[10.30161,47.67409],[10.30166,47.67432],[10.30182,47.67529],[10.30187,47.67544],[10.30193,47.67567],[10.30198,47.67583],[10.3021,47.67609],[10.30222,47.67627],[10.30232,47.67642],[10.30255,47.67671],[10.30274,47.67692],[10.30292,47.67709],[10.30349,47.6776],[10.3037,47.67781],[10.3039,47.67802],[10.30411,47.67829],[10.30426,47.67856],[10.30432,47.67867],[10.30437,47.67879],[10.30441,47.67888],[10.30444,47.67896],[10.30452,47.67921],[10.30457,47.67945],[10.30454,47.67961],[10.30466,47.67997],[10.30473,47.68018],[10.30476,47.68028],[10.30482,47.68046],[10.30488,47.68065],[10.30499,47.68091],[10.30508,47.68113],[10.30514,47.68128],[10.30519,47.68141],[10.30523,47.68149],[10.30527,47.68158],[10.30494,47.68165],[10.30469,47.68169],[10.30432,47.68173],[10.30415,47.68173],[10.30389,47.68172],[10.30373,47.68169],[10.30356,47.68165],[10.30339,47.6816],[10.30318,47.6815],[10.30292,47.68133],[10.30263,47.68113],[10.3023,47.68095],[10.30201,47.68086],[10.30161,47.68077],[10.30109,47.68068],[10.3008,47.68068],[10.3005,47.68068],[10.29916,47.68065],[10.29788,47.68062],[10.2974,47.6806],[10.29634,47.68053],[10.29503,47.68042],[10.29415,47.68032],[10.29324,47.68019],[10.29236,47.68006],[10.29145,47.67989],[10.29012,47.6796],[10.28946,47.67943],[10.28876,47.67924],[10.28791,47.67899],[10.28697,47.67868],[10.28538,47.6781],[10.28502,47.67795],[10.28407,47.67753],[10.28297,47.67701],[10.28192,47.67645],[10.2809,47.67585],[10.27987,47.6752],[10.27741,47.67359],[10.2766,47.67309],[10.27604,47.67275],[10.27568,47.67254],[10.2751,47.67222],[10.27388,47.6716],[10.27322,47.67129],[10.27262,47.67103],[10.27196,47.67075],[10.27132,47.67051],[10.26989,47.67001],[10.2689,47.66971],[10.268,47.66946],[10.26707,47.66924],[10.26624,47.66906],[10.26531,47.66887],[10.26392,47.66864],[10.26292,47.6685],[10.26164,47.66836],[10.26092,47.6683],[10.26026,47.66825],[10.25864,47.66817],[10.25678,47.66812],[10.25605,47.66812],[10.25537,47.66813],[10.25395,47.66821],[10.25252,47.66833],[10.25097,47.6685],[10.25006,47.66863],[10.24863,47.66887],[10.24725,47.66913],[10.24682,47.66922],[10.24593,47.66942],[10.2439,47.66987],[10.24263,47.67012],[10.24137,47.67036],[10.24056,47.67048],[10.23978,47.67058],[10.23875,47.67069],[10.23814,47.67075],[10.23735,47.67081],[10.23593,47.67086],[10.2345,47.67087],[10.23352,47.67085],[10.23299,47.67082],[10.23249,47.67079],[10.23103,47.67068],[10.23004,47.67059],[10.22955,47.67054],[10.2279,47.67035],[10.22606,47.67008],[10.22474,47.66986],[10.22338,47.6696],[10.22198,47.6693],[10.2214,47.66917],[10.22015,47.66888],[10.21865,47.6685],[10.21729,47.66815],[10.21586,47.66778],[10.21536,47.66766],[10.21487,47.66754],[10.2143,47.66741],[10.21333,47.66722],[10.2124,47.66706],[10.21144,47.66691],[10.21004,47.66674],[10.20851,47.66663],[10.20695,47.66655],[10.20554,47.66657],[10.20478,47.66659],[10.2043,47.66661],[10.20402,47.66662],[10.20329,47.66667],[10.20272,47.66672],[10.20211,47.66677],[10.20169,47.66681],[10.20049,47.66694],[10.19922,47.66708],[10.19853,47.66715],[10.19748,47.66724],[10.19686,47.66728],[10.19623,47.6673],[10.1952,47.66732],[10.19396,47.66729],[10.19338,47.66726],[10.19299,47.66724],[10.19254,47.66719],[10.192,47.66714],[10.19158,47.66706],[10.19121,47.66697],[10.19035,47.66671],[10.18971,47.66654],[10.189,47.66638],[10.1884,47.66621],[10.18809,47.66613],[10.18768,47.66601],[10.18642,47.66559],[10.18548,47.6652],[10.185,47.66499],[10.18451,47.66475],[10.18393,47.66446],[10.18302,47.66394],[10.18212,47.66336],[10.18075,47.66235],[10.17954,47.6614],[10.17928,47.6612],[10.17853,47.66065],[10.17807,47.66032],[10.17743,47.65992],[10.17677,47.65953],[10.17608,47.65914],[10.17536,47.65876],[10.17468,47.65843],[10.17397,47.65813],[10.17331,47.65785],[10.17229,47.65747],[10.1709,47.65702],[10.16921,47.65652],[10.16848,47.65632],[10.16582,47.65556],[10.16577,47.65554],[10.16547,47.65546],[10.1649,47.65529],[10.16482,47.65527],[10.16452,47.65518],[10.1635,47.65488],[10.1605,47.65403],[10.15825,47.65339],[10.15729,47.65311],[10.15627,47.65283],[10.15492,47.65246],[10.1532,47.652],[10.15282,47.6519],[10.15052,47.65132],[10.14854,47.65084],[10.14642,47.65035],[10.14588,47.65021],[10.1455,47.65013],[10.1429,47.64954],[10.14146,47.64923],[10.14026,47.64899],[10.13935,47.6488],[10.13842,47.64861],[10.13668,47.64828],[10.13476,47.64792],[10.13329,47.64765],[10.13155,47.64734],[10.12975,47.64704],[10.12845,47.64682],[10.12686,47.64655],[10.12656,47.6465],[10.12445,47.64612],[10.12332,47.6459],[10.12237,47.6457],[10.12135,47.64548],[10.12031,47.64524],[10.11936,47.64502],[10.11864,47.64484],[10.11784,47.64464],[10.11747,47.64455],[10.11509,47.64391],[10.1147,47.6439],[10.11429,47.64386],[10.1139,47.64384],[10.11345,47.64387],[10.11305,47.64391],[10.11236,47.64402],[10.11205,47.64405],[10.1119,47.64407],[10.11171,47.64407],[10.11152,47.64406],[10.11131,47.64404],[10.11113,47.64399],[10.11094,47.64392],[10.11079,47.64386],[10.11063,47.64376],[10.11051,47.64366],[10.11041,47.64355],[10.11032,47.64344],[10.11026,47.64332],[10.11022,47.64321],[10.1102,47.6431],[10.1102,47.64297],[10.11021,47.64286],[10.11025,47.64275],[10.11031,47.64264],[10.11037,47.64254],[10.11056,47.64228],[10.11072,47.64207],[10.1112,47.64143],[10.11133,47.64126],[10.11133,47.64113],[10.11133,47.64088],[10.11137,47.64081],[10.11183,47.64082],[10.11221,47.64086],[10.11253,47.6409],[10.11287,47.64096],[10.113,47.64098],[10.11408,47.64117],[10.11434,47.64122],[10.11492,47.64133],[10.1151,47.64137],[10.11527,47.6414],[10.11552,47.64148],[10.1159,47.64166],[10.11593,47.64167],[10.11607,47.64174],[10.11627,47.64184],[10.1163,47.64185],[10.11645,47.64191],[10.11671,47.64196],[10.11701,47.64198],[10.11711,47.64198],[10.11723,47.64198],[10.11795,47.64186],[10.11824,47.64183],[10.11859,47.64183],[10.11899,47.64188],[10.1195,47.64198],[10.1198,47.64202],[10.11989,47.64203],[10.12023,47.64205],[10.12043,47.64205],[10.12074,47.64202],[10.12092,47.64199],[10.12124,47.64191],[10.12129,47.64196],[10.12143,47.64201],[10.12161,47.64202],[10.12208,47.64208],[10.1224,47.64215],[10.1228,47.64221],[10.12414,47.64225],[10.12429,47.64227],[10.12434,47.64232],[10.12441,47.64247],[10.12453,47.64252],[10.12463,47.64254],[10.1249,47.64255],[10.12509,47.64257],[10.12513,47.64267],[10.12574,47.64234],[10.1258,47.64232],[10.12597,47.64225],[10.12619,47.64238],[10.1264,47.64254],[10.12651,47.64266],[10.12678,47.6432],[10.12687,47.64334],[10.12698,47.64346],[10.1271,47.64359],[10.12724,47.64373],[10.1274,47.6439],[10.12752,47.64407],[10.12767,47.64438],[10.12782,47.64474],[10.12803,47.64531],[10.12811,47.64555],[10.12813,47.64562],[10.12814,47.64568],[10.12814,47.64577],[10.12812,47.64585],[10.12804,47.64606],[10.12799,47.64613],[10.12795,47.64619],[10.12788,47.64623],[10.12779,47.64626],[10.1277,47.64629],[10.12762,47.6463],[10.12752,47.64629],[10.12734,47.64626],[10.12722,47.64625],[10.12714,47.64626],[10.12708,47.64626],[10.127,47.64628],[10.1269,47.64632],[10.12684,47.64636],[10.1268,47.64641],[10.12671,47.64664],[10.12666,47.64675],[10.12647,47.64675],[10.12613,47.64665],[10.12538,47.64647],[10.1252,47.64645],[10.12472,47.64736],[10.12463,47.64745],[10.1245,47.64752]],"type":"LineString"},"properties":{"quelle":"OSRM router.project-osrm.org, Profil driving","von":[47.515,10.281],"nach":[47.648,10.125],"distanz_m":39741.4,"dauer_s":1908.6,"punkte":739}}
