{"type":"Feature","geometry":{"coordinates":[[10.13126,47.60011],[10.13142,47.6002],[10.13193,47.60049],[10.13292,47.60107],[10.13307,47.60122],[10.13319,47.60131],[10.13335,47.60139],[10.13362,47.60154],[10.13429,47.60185],[10.13447,47.60192],[10.13464,47.60197],[10.13487,47.60203],[10.13506,47.60208],[10.13535,47.60212],[10.13574,47.60218],[10.13606,47.60225],[10.13632,47.60232],[10.13701,47.60252],[10.13742,47.60259],[10.13782,47.60266],[10.13812,47.60272],[10.13848,47.60285],[10.13879,47.603],[10.139,47.6031],[10.13921,47.60321],[10.13962,47.60341],[10.14001,47.60356],[10.14053,47.60373],[10.141,47.60384],[10.14176,47.604],[10.14221,47.60409],[10.14249,47.60418],[10.14277,47.60428],[10.14302,47.60442],[10.14342,47.60467],[10.14353,47.60472],[10.14364,47.60478],[10.14397,47.60488],[10.14455,47.60501],[10.14566,47.60523],[10.14623,47.60534],[10.14659,47.60546],[10.14708,47.60565],[10.14783,47.606],[10.14834,47.60624],[10.14886,47.60646],[10.14965,47.60677],[10.15048,47.60706],[10.15087,47.60719],[10.15107,47.60725],[10.15125,47.60729],[10.15165,47.60735],[10.1522,47.60739],[10.15242,47.60742],[10.1526,47.60746],[10.15293,47.60754],[10.15311,47.60757],[10.15325,47.60758],[10.1534,47.60759],[10.15354,47.60758],[10.15361,47.60758],[10.15366,47.60757],[10.15385,47.60753],[10.15454,47.60739],[10.1548,47.60733],[10.15515,47.60726],[10.15553,47.60725],[10.15653,47.60733],[10.1572,47.60737],[10.15799,47.60744],[10.15835,47.60748],[10.15861,47.60753],[10.15891,47.60768],[10.15978,47.60816],[10.16027,47.60843],[10.1609,47.60884],[10.16122,47.60905],[10.16148,47.60916],[10.16191,47.60924],[10.16248,47.60933],[10.1627,47.60938],[10.16311,47.6095],[10.16358,47.60964],[10.16433,47.60989],[10.16524,47.61017],[10.16554,47.61025],[10.16621,47.61043],[10.16702,47.61066],[10.16802,47.61091],[10.1689,47.6111],[10.16931,47.61123],[10.16993,47.61147],[10.17033,47.61164],[10.17084,47.61184],[10.17136,47.61204],[10.17176,47.6122],[10.17219,47.61236],[10.17245,47.61245],[10.17294,47.61261],[10.17344,47.6127],[10.17472,47.6129],[10.17563,47.61303],[10.17654,47.61318],[10.17697,47.61326],[10.17746,47.61334],[10.17765,47.61337],[10.17789,47.61341],[10.17806,47.61344],[10.17844,47.61351],[10.17891,47.61359],[10.17934,47.61366],[10.17987,47.61382],[10.18047,47.61401],[10.18064,47.61408],[10.18211,47.61465],[10.1838,47.61541],[10.18447,47.6157],[10.18575,47.61628],[10.18744,47.61716],[10.18783,47.61735],[10.18815,47.6175],[10.18833,47.6176],[10.18852,47.61773],[10.18867,47.61787],[10.18875,47.61793],[10.18901,47.61825],[10.18918,47.6184],[10.18936,47.6185],[10.19006,47.6189],[10.19038,47.61913],[10.19137,47.61997],[10.19161,47.62019],[10.19178,47.62033],[10.19193,47.6205],[10.19206,47.62065],[10.19217,47.6208],[10.193,47.6222],[10.19339,47.62296],[10.19342,47.62301],[10.19362,47.62336],[10.19379,47.62373],[10.19391,47.62404],[10.19397,47.6243],[10.19398,47.62444],[10.19398,47.62454],[10.19394,47.62464],[10.19389,47.6249],[10.19383,47.62506],[10.19371,47.62523],[10.19368,47.62532],[10.19367,47.62541],[10.19368,47.62546],[10.19371,47.62558],[10.19378,47.62571],[10.19384,47.62577],[10.19387,47.62579],[10.19403,47.62587],[10.1944,47.62615],[10.19452,47.6262],[10.19471,47.62625],[10.19488,47.62628],[10.19562,47.62642],[10.19574,47.62644],[10.19607,47.6265],[10.19695,47.62666],[10.19757,47.6268],[10.19816,47.62698],[10.19824,47.62702],[10.19829,47.62707],[10.19831,47.62714],[10.19832,47.62721],[10.19848,47.62763],[10.19853,47.62775],[10.1986,47.62791],[10.19862,47.62795],[10.19875,47.62818],[10.19886,47.6283],[10.19896,47.62837],[10.19909,47.6284],[10.20041,47.62872],[10.20062,47.62885],[10.20087,47.6291],[10.2012,47.62948],[10.20148,47.62964],[10.20168,47.62973],[10.20186,47.62979],[10.20262,47.62993],[10.20332,47.62999],[10.2041,47.62996],[10.20463,47.62993],[10.20486,47.62991],[10.20532,47.62984],[10.20757,47.62949],[10.2079,47.62948],[10.20824,47.62952],[10.20845,47.62952],[10.20866,47.62947],[10.20909,47.62938],[10.20934,47.62937],[10.20997,47.62936],[10.21018,47.62931],[10.21035,47.62922],[10.21047,47.62909],[10.21052,47.62897],[10.21052,47.62877],[10.21051,47.62855],[10.21049,47.6281],[10.21048,47.62797],[10.21056,47.62776],[10.21073,47.62758],[10.21098,47.62741],[10.21129,47.62727],[10.21186,47.6271],[10.21225,47.62701],[10.21281,47.6269],[10.21365,47.62676],[10.21415,47.62671],[10.21455,47.62669],[10.21479,47.6267],[10.21497,47.62673],[10.21511,47.62678],[10.21524,47.62684],[10.2155,47.62703],[10.21556,47.62708],[10.21582,47.62736],[10.21602,47.62756],[10.21606,47.62759],[10.21627,47.62777],[10.21651,47.62793],[10.2166,47.62799],[10.2167,47.62805],[10.2169,47.62815],[10.21722,47.62831],[10.21738,47.62838],[10.21811,47.62876],[10.21856,47.62898],[10.21892,47.62915],[10.21906,47.62921],[10.2192,47.62926],[10.21931,47.62929],[10.21941,47.62931],[10.21958,47.62932],[10.21974,47.62933],[10.22027,47.62933],[10.2204,47.62934],[10.22053,47.62935],[10.22067,47.62938],[10.22082,47.62942],[10.22131,47.6296],[10.22148,47.62967],[10.22163,47.62974],[10.22173,47.6298],[10.22181,47.62985],[10.22216,47.63012],[10.2223,47.63019],[10.22238,47.63023],[10.22252,47.63028],[10.22273,47.63031],[10.22299,47.63034],[10.22342,47.63037],[10.22451,47.63047],[10.22525,47.63054],[10.22615,47.63058],[10.22718,47.63059],[10.22821,47.63059],[10.22872,47.6306],[10.22907,47.63064],[10.2293,47.6307],[10.23112,47.63124],[10.23157,47.63137],[10.23194,47.6315],[10.23251,47.63177],[10.23307,47.63203],[10.23313,47.63206],[10.23327,47.63213],[10.23382,47.63235],[10.23413,47.63245],[10.23443,47.63252],[10.23465,47.63257],[10.23488,47.6326],[10.23564,47.63272],[10.23619,47.63282],[10.23638,47.63286],[10.23661,47.63291],[10.23673,47.63293],[10.23686,47.63294],[10.23697,47.63292],[10.23708,47.63288],[10.23715,47.63281],[10.23719,47.63274],[10.23719,47.63264],[10.23713,47.63254],[10.23703,47.63245],[10.23694,47.63237],[10.23669,47.63218],[10.23641,47.63198],[10.23631,47.63189],[10.2363,47.63182],[10.23631,47.63177],[10.23635,47.6317],[10.23637,47.63167],[10.23669,47.63181],[10.23733,47.6321],[10.23748,47.63216],[10.2377,47.63224],[10.23845,47.6327],[10.23874,47.63283],[10.23914,47.633],[10.23955,47.63315],[10.23972,47.63323],[10.23996,47.63338],[10.24007,47.63344],[10.24022,47.63349],[10.24051,47.63352],[10.2406,47.63353],[10.24072,47.63354],[10.24134,47.6337],[10.24154,47.63373],[10.24217,47.63378],[10.24262,47.63385],[10.24281,47.63384],[10.24304,47.63378],[10.24329,47.63366],[10.24354,47.63381],[10.24367,47.63388],[10.24386,47.63394],[10.24411,47.63397],[10.24464,47.63398],[10.24486,47.63399],[10.24538,47.63402],[10.24557,47.63404],[10.24564,47.63405],[10.24593,47.63408],[10.24614,47.63411],[10.24809,47.63435],[10.2502,47.63459],[10.25038,47.63462],[10.25101,47.63472],[10.25133,47.6348],[10.25194,47.63497],[10.25202,47.635],[10.25315,47.63539],[10.2543,47.63576],[10.25491,47.63597],[10.25519,47.63609],[10.25563,47.63638],[10.25675,47.63723],[10.25698,47.63739],[10.25743,47.63762],[10.25792,47.63782],[10.2584,47.63797],[10.25918,47.63814],[10.26112,47.63846],[10.26208,47.63869],[10.26256,47.63882],[10.26269,47.63887],[10.26299,47.63898],[10.26362,47.63926],[10.26407,47.63949],[10.26462,47.63983],[10.26502,47.64014],[10.26543,47.64049],[10.26584,47.64093],[10.26611,47.64129],[10.26623,47.64146],[10.2664,47.64173],[10.2666,47.6421],[10.26685,47.64258],[10.26709,47.64307],[10.26735,47.64357],[10.26757,47.64394],[10.26778,47.6442],[10.2681,47.64451],[10.26834,47.64469],[10.26866,47.64489],[10.26872,47.64493],[10.26878,47.64496],[10.26902,47.64509],[10.2692,47.64518],[10.26946,47.6453],[10.26995,47.64546],[10.27022,47.64552],[10.2707,47.64564],[10.2712,47.64576],[10.27139,47.64584],[10.2716,47.64594],[10.27204,47.64628],[10.27215,47.64637],[10.27228,47.64647],[10.27244,47.64657],[10.27305,47.64695],[10.2732,47.64704],[10.27339,47.64715],[10.27412,47.64759],[10.27441,47.64771],[10.27507,47.64794],[10.27527,47.64806],[10.27575,47.64834],[10.2761,47.64855],[10.27692,47.64904],[10.27724,47.64925],[10.27741,47.64939],[10.27836,47.65016],[10.27866,47.65037],[10.27885,47.65046],[10.27895,47.6505],[10.27917,47.65059],[10.27955,47.65073],[10.28013,47.65089],[10.28023,47.65092],[10.28211,47.65145],[10.28282,47.65161],[10.28285,47.65161],[10.28313,47.65167],[10.28383,47.65181],[10.28406,47.65185],[10.28444,47.65191],[10.28481,47.65198],[10.28493,47.652],[10.28548,47.6521],[10.28585,47.65218],[10.28633,47.65231],[10.28685,47.65251],[10.28735,47.65274],[10.28788,47.65306],[10.28825,47.65334],[10.2887,47.65367],[10.289,47.65381],[10.28925,47.65391],[10.28951,47.65398],[10.28988,47.65406],[10.2903,47.65412],[10.29067,47.6542],[10.29079,47.65423],[10.29105,47.65431],[10.29137,47.65446],[10.29156,47.65459],[10.29177,47.65474],[10.29187,47.65483],[10.29215,47.65511],[10.29283,47.65587],[10.29324,47.65633],[10.29372,47.65686],[10.29398,47.65711],[10.2952,47.65816],[10.29527,47.65822],[10.29546,47.65838],[10.29565,47.65851],[10.29571,47.65855],[10.29633,47.65889],[10.29661,47.65902],[10.29672,47.65907],[10.2969,47.6592],[10.2972,47.65946],[10.29742,47.65971],[10.29746,47.6598],[10.29751,47.65997],[10.29754,47.66031],[10.2976,47.66061],[10.2977,47.66084],[10.29777,47.66096],[10.29827,47.66176],[10.2984,47.66204],[10.29849,47.6624],[10.29852,47.66279],[10.29853,47.66298],[10.29856,47.66357],[10.2986,47.66381],[10.29872,47.66412],[10.29883,47.66437],[10.29889,47.66444],[10.29903,47.66461],[10.29958,47.66522],[10.29969,47.66534],[10.29978,47.66545],[10.29993,47.6657],[10.30013,47.66604],[10.30006,47.66605],[10.29967,47.66612],[10.29927,47.66617],[10.29913,47.6662],[10.29904,47.66624],[10.29896,47.66633],[10.29883,47.66644],[10.29868,47.66679],[10.29842,47.66733],[10.29838,47.66742],[10.29826,47.66775],[10.29819,47.66801],[10.29813,47.66835],[10.2981,47.66873],[10.29811,47.6691],[10.29815,47.66933],[10.29825,47.66963],[10.29846,47.67017],[10.29868,47.67054],[10.29895,47.6709],[10.29926,47.67124],[10.29983,47.67173],[10.30017,47.67201],[10.30056,47.67234],[10.3008,47.67259],[10.301,47.67282],[10.30118,47.67307],[10.30135,47.67337],[10.30146,47.67362],[10.30153,47.67383],[10.30161,47.67409],[10.30166,47.67432],[10.30182,47.67529],[10.30187,47.67544],[10.30193,47.67567],[10.30198,47.67583],[10.3021,47.67609],[10.30222,47.67627],[10.30232,47.67642],[10.30255,47.67671],[10.30274,47.67692],[10.30292,47.67709],[10.30349,47.6776],[10.3037,47.67781],[10.3039,47.67802],[10.30411,47.67829],[10.30426,47.67856],[10.30432,47.67867],[10.30437,47.67879],[10.30441,47.67888],[10.30444,47.67896],[10.30452,47.67921],[10.30457,47.67945],[10.30454,47.67961],[10.30466,47.67997],[10.30473,47.68018],[10.30476,47.68028],[10.30482,47.68046],[10.30488,47.68065],[10.30499,47.68091],[10.30508,47.68113],[10.30514,47.68128],[10.30519,47.68141],[10.30523,47.68149],[10.30527,47.68158],[10.3053,47.68166],[10.3054,47.68192],[10.30546,47.68206],[10.30582,47.68282],[10.30593,47.683],[10.30609,47.68318],[10.30631,47.6834],[10.30652,47.6836],[10.30734,47.68418],[10.30747,47.68427],[10.30768,47.68445],[10.30771,47.68447],[10.30778,47.68454],[10.30786,47.68462],[10.30807,47.68484],[10.30822,47.68503],[10.30841,47.68527],[10.30864,47.68565],[10.30873,47.6858],[10.30898,47.6862],[10.30911,47.68636],[10.30922,47.6865],[10.30924,47.68653],[10.30931,47.68663],[10.30936,47.6867],[10.30942,47.68677],[10.3097,47.68715],[10.30979,47.68727],[10.30984,47.68734],[10.31007,47.68767],[10.31035,47.68818],[10.31058,47.6887],[10.31069,47.68912],[10.31072,47.68935],[10.31071,47.68962],[10.3106,47.69043],[10.31058,47.69091],[10.31059,47.69113],[10.3106,47.69132],[10.31077,47.69194],[10.31089,47.69219],[10.31129,47.69295],[10.31135,47.69305],[10.3114,47.69313],[10.31152,47.69333],[10.31155,47.69338],[10.3121,47.69425],[10.31221,47.69456],[10.31227,47.69502],[10.31228,47.69587],[10.31229,47.69602],[10.31231,47.69618],[10.31234,47.69634],[10.31239,47.69647],[10.31245,47.6966],[10.31257,47.69683],[10.31268,47.69704],[10.31279,47.69722],[10.31292,47.69745],[10.31294,47.69751],[10.313,47.69763],[10.31307,47.6978],[10.3131,47.69793],[10.31312,47.69804],[10.31315,47.69826],[10.31315,47.69851],[10.31314,47.69881],[10.31309,47.69923],[10.31298,47.70011],[10.31291,47.70079],[10.31289,47.70112],[10.31288,47.70143],[10.31288,47.70175],[10.31289,47.70196],[10.3129,47.7022],[10.31291,47.70253],[10.31292,47.70267],[10.31292,47.70284],[10.31292,47.70287],[10.31293,47.70318],[10.31291,47.70357],[10.31287,47.70392],[10.31283,47.70417],[10.31281,47.70427],[10.31278,47.70439],[10.31275,47.7045],[10.31259,47.70492],[10.31244,47.70533],[10.31229,47.70588],[10.3121,47.70629],[10.31203,47.70643],[10.31197,47.70656],[10.31189,47.70672],[10.31184,47.70685],[10.31177,47.70712],[10.31174,47.70729],[10.31169,47.70763],[10.3117,47.70799],[10.31172,47.70815],[10.31176,47.7083],[10.31178,47.70834],[10.31192,47.7086],[10.31216,47.70891],[10.31249,47.70927],[10.31271,47.70949],[10.31313,47.70992],[10.31325,47.71004],[10.31344,47.71022],[10.31366,47.71043],[10.31385,47.7106],[10.31405,47.71081],[10.31418,47.71095],[10.31435,47.71117],[10.31446,47.71131],[10.31472,47.7117],[10.31492,47.71211],[10.31508,47.71253],[10.31521,47.71314],[10.31527,47.71375],[10.31526,47.71401],[10.31526,47.71408],[10.31524,47.71417],[10.31519,47.71449],[10.31514,47.71472],[10.31517,47.7148],[10.31518,47.71491],[10.31519,47.71499],[10.31521,47.71504],[10.31525,47.7151],[10.3154,47.71522],[10.31545,47.71528],[10.31592,47.71544],[10.31677,47.71567],[10.31713,47.71574],[10.3172,47.71576],[10.31734,47.71577],[10.31757,47.7158],[10.31778,47.71582],[10.31803,47.71583],[10.31829,47.71583],[10.31863,47.71582],[10.31898,47.71578],[10.31932,47.71572],[10.31964,47.71566],[10.31989,47.71562],[10.32017,47.71556],[10.32035,47.71552],[10.32039,47.71563],[10.32041,47.71569],[10.32041,47.71574],[10.32039,47.71592],[10.32029,47.71604],[10.32024,47.71611],[10.32026,47.71625],[10.32026,47.7163],[10.32031,47.71637],[10.32039,47.71642],[10.32052,47.71648],[10.32062,47.71649],[10.32081,47.71651],[10.32104,47.71654],[10.32114,47.71656],[10.32129,47.71658],[10.32139,47.71661],[10.32144,47.71665],[10.32151,47.71672],[10.32154,47.71679],[10.32156,47.7169],[10.32158,47.71727],[10.32157,47.71773],[10.32156,47.71782],[10.32152,47.71808],[10.32142,47.71843],[10.32163,47.71846],[10.3218,47.71848],[10.32204,47.71845],[10.3219,47.71801]],"type":"LineString"},"properties":{"quelle":"OSRM router.project-osrm.org, Profil driving","von":[47.59997,10.13144],"nach":[47.718,10.322],"distanz_m":23239.4,"dauer_s":1540.7,"punkte":719}}
