{
 "type": "Feature",
 "geometry": {
  "coordinates": [
   [
    10.397897,
    47.513643
   ],
   [
    10.39756,
    47.513618
   ],
   [
    10.39716,
    47.513588
   ],
   [
    10.396997,
    47.513568
   ],
   [
    10.396826,
    47.513532
   ],
   [
    10.396711,
    47.513496
   ],
   [
    10.396557,
    47.51343
   ],
   [
    10.396426,
    47.513331
   ],
   [
    10.396341,
    47.513255
   ],
   [
    10.395998,
    47.512977
   ],
   [
    10.395405,
    47.512561
   ],
   [
    10.395145,
    47.512385
   ],
   [
    10.394994,
    47.512279
   ],
   [
    10.394857,
    47.512206
   ],
   [
    10.394728,
    47.512156
   ],
   [
    10.394538,
    47.512111
   ],
   [
    10.394351,
    47.512083
   ],
   [
    10.394178,
    47.512062
   ],
   [
    10.39402,
    47.512049
   ],
   [
    10.39383,
    47.512049
   ],
   [
    10.393483,
    47.512091
   ],
   [
    10.393351,
    47.512105
   ],
   [
    10.393218,
    47.512119
   ],
   [
    10.393042,
    47.512125
   ],
   [
    10.392858,
    47.512115
   ],
   [
    10.39269,
    47.512084
   ],
   [
    10.392516,
    47.512041
   ],
   [
    10.39238,
    47.511992
   ],
   [
    10.392177,
    47.511883
   ],
   [
    10.392053,
    47.511812
   ],
   [
    10.39192,
    47.511732
   ],
   [
    10.391807,
    47.511656
   ],
   [
    10.3917,
    47.511565
   ],
   [
    10.391594,
    47.511443
   ],
   [
    10.391529,
    47.511344
   ],
   [
    10.391469,
    47.51123
   ],
   [
    10.391412,
    47.511161
   ],
   [
    10.391344,
    47.511097
   ],
   [
    10.391236,
    47.511046
   ],
   [
    10.391089,
    47.510985
   ],
   [
    10.39093,
    47.510903
   ],
   [
    10.390846,
    47.510823
   ],
   [
    10.390825,
    47.510759
   ],
   [
    10.390837,
    47.510692
   ],
   [
    10.390875,
    47.510628
   ],
   [
    10.390942,
    47.510575
   ],
   [
    10.391038,
    47.510537
   ],
   [
    10.391135,
    47.510522
   ],
   [
    10.391256,
    47.510529
   ],
   [
    10.391398,
    47.510565
   ],
   [
    10.391597,
    47.510641
   ],
   [
    10.391793,
    47.510744
   ],
   [
    10.391959,
    47.510866
   ],
   [
    10.39227,
    47.511127
   ],
   [
    10.392384,
    47.511213
   ],
   [
    10.392484,
    47.511264
   ],
   [
    10.392578,
    47.51129
   ],
   [
    10.392691,
    47.511305
   ],
   [
    10.392808,
    47.511303
   ],
   [
    10.39292,
    47.511278
   ],
   [
    10.393013,
    47.511243
   ],
   [
    10.393095,
    47.511193
   ],
   [
    10.393161,
    47.511141
   ],
   [
    10.393306,
    47.511018
   ],
   [
    10.3934,
    47.510948
   ],
   [
    10.393476,
    47.510908
   ],
   [
    10.393576,
    47.510883
   ],
   [
    10.393688,
    47.510878
   ],
   [
    10.39378,
    47.510897
   ],
   [
    10.393869,
    47.510937
   ],
   [
    10.394029,
    47.511024
   ],
   [
    10.394107,
    47.511058
   ],
   [
    10.394186,
    47.511073
   ],
   [
    10.394289,
    47.51106
   ],
   [
    10.394365,
    47.511026
   ],
   [
    10.394417,
    47.510977
   ],
   [
    10.39443,
    47.510924
   ],
   [
    10.394416,
    47.510868
   ],
   [
    10.394374,
    47.510817
   ],
   [
    10.394306,
    47.510773
   ],
   [
    10.39419,
    47.510741
   ],
   [
    10.394063,
    47.510718
   ],
   [
    10.393858,
    47.510701
   ],
   [
    10.393651,
    47.510702
   ],
   [
    10.393499,
    47.510716
   ],
   [
    10.393381,
    47.510739
   ],
   [
    10.393212,
    47.510813
   ],
   [
    10.393103,
    47.510883
   ],
   [
    10.39295,
    47.510975
   ],
   [
    10.392857,
    47.511006
   ],
   [
    10.39275,
    47.511019
   ],
   [
    10.392656,
    47.511013
   ],
   [
    10.39255,
    47.510988
   ],
   [
    10.392482,
    47.510944
   ],
   [
    10.392436,
    47.510883
   ],
   [
    10.392416,
    47.510803
   ],
   [
    10.392348,
    47.510627
   ],
   [
    10.392295,
    47.510497
   ],
   [
    10.392244,
    47.510403
   ],
   [
    10.392186,
    47.510321
   ],
   [
    10.392116,
    47.510255
   ],
   [
    10.392036,
    47.510191
   ],
   [
    10.391928,
    47.510135
   ],
   [
    10.391809,
    47.510083
   ],
   [
    10.391647,
    47.510039
   ],
   [
    10.391473,
    47.509999
   ],
   [
    10.391311,
    47.509975
   ],
   [
    10.39116,
    47.509968
   ],
   [
    10.391027,
    47.509975
   ],
   [
    10.390891,
    47.509999
   ],
   [
    10.390771,
    47.510038
   ],
   [
    10.390656,
    47.510084
   ],
   [
    10.39047,
    47.510199
   ],
   [
    10.390057,
    47.51047
   ],
   [
    10.389973,
    47.510536
   ],
   [
    10.389906,
    47.510603
   ],
   [
    10.389864,
    47.51068
   ],
   [
    10.389836,
    47.510759
   ],
   [
    10.389819,
    47.510891
   ],
   [
    10.389795,
    47.51099
   ],
   [
    10.389763,
    47.511094
   ],
   [
    10.389702,
    47.511198
   ],
   [
    10.389605,
    47.511298
   ],
   [
    10.389502,
    47.511398
   ],
   [
    10.389374,
    47.511493
   ],
   [
    10.389209,
    47.511599
   ],
   [
    10.389017,
    47.511685
   ],
   [
    10.388825,
    47.511755
   ],
   [
    10.388628,
    47.511816
   ],
   [
    10.388374,
    47.511869
   ],
   [
    10.38817,
    47.511891
   ],
   [
    10.387991,
    47.511893
   ],
   [
    10.387779,
    47.511887
   ],
   [
    10.387402,
    47.511867
   ],
   [
    10.387282,
    47.511873
   ],
   [
    10.387173,
    47.511897
   ],
   [
    10.38708,
    47.511936
   ],
   [
    10.387002,
    47.511987
   ],
   [
    10.386965,
    47.512031
   ],
   [
    10.386903,
    47.512114
   ],
   [
    10.386852,
    47.512197
   ],
   [
    10.386789,
    47.512253
   ],
   [
    10.386721,
    47.51229
   ],
   [
    10.386638,
    47.512309
   ],
   [
    10.386566,
    47.512312
   ],
   [
    10.386492,
    47.512307
   ],
   [
    10.3864,
    47.512285
   ],
   [
    10.386305,
    47.512237
   ],
   [
    10.386249,
    47.512169
   ],
   [
    10.386228,
    47.512094
   ],
   [
    10.386252,
    47.512018
   ],
   [
    10.386305,
    47.511944
   ],
   [
    10.386411,
    47.511854
   ],
   [
    10.38654,
    47.511757
   ],
   [
    10.386663,
    47.511688
   ],
   [
    10.386766,
    47.511651
   ],
   [
    10.386894,
    47.511633
   ],
   [
    10.387087,
    47.511619
   ],
   [
    10.387316,
    47.511609
   ],
   [
    10.387507,
    47.511595
   ],
   [
    10.387643,
    47.511576
   ],
   [
    10.387729,
    47.511544
   ],
   [
    10.387794,
    47.511497
   ],
   [
    10.387836,
    47.511435
   ],
   [
    10.387846,
    47.511366
   ],
   [
    10.387823,
    47.511296
   ],
   [
    10.387777,
    47.511239
   ],
   [
    10.387701,
    47.511186
   ],
   [
    10.387616,
    47.511155
   ],
   [
    10.387517,
    47.511148
   ],
   [
    10.387416,
    47.511162
   ],
   [
    10.387337,
    47.511191
   ],
   [
    10.387238,
    47.511249
   ],
   [
    10.387148,
    47.5113
   ],
   [
    10.387058,
    47.511331
   ],
   [
    10.386969,
    47.511351
   ],
   [
    10.386845,
    47.511364
   ],
   [
    10.386664,
    47.511356
   ],
   [
    10.386513,
    47.511363
   ],
   [
    10.386392,
    47.511383
   ],
   [
    10.386273,
    47.511424
   ],
   [
    10.386166,
    47.511476
   ],
   [
    10.386054,
    47.511554
   ],
   [
    10.385957,
    47.511664
   ],
   [
    10.385867,
    47.511783
   ],
   [
    10.385839,
    47.511815
   ],
   [
    10.385792,
    47.511853
   ],
   [
    10.385732,
    47.51189
   ],
   [
    10.385675,
    47.511913
   ],
   [
    10.385614,
    47.511931
   ],
   [
    10.385542,
    47.511937
   ],
   [
    10.385424,
    47.511943
   ],
   [
    10.385236,
    47.511939
   ],
   [
    10.384988,
    47.511941
   ],
   [
    10.384887,
    47.511953
   ],
   [
    10.384803,
    47.511972
   ],
   [
    10.384713,
    47.511995
   ],
   [
    10.384634,
    47.512023
   ],
   [
    10.38457,
    47.512054
   ],
   [
    10.384514,
    47.512086
   ],
   [
    10.384482,
    47.512114
   ],
   [
    10.384442,
    47.512155
   ],
   [
    10.38439,
    47.512238
   ],
   [
    10.384341,
    47.512351
   ],
   [
    10.384308,
    47.512389
   ],
   [
    10.384275,
    47.512416
   ],
   [
    10.384217,
    47.512447
   ],
   [
    10.384178,
    47.512462
   ],
   [
    10.384126,
    47.512477
   ],
   [
    10.384068,
    47.512484
   ],
   [
    10.384011,
    47.512487
   ],
   [
    10.383961,
    47.512485
   ],
   [
    10.383883,
    47.512467
   ],
   [
    10.383832,
    47.512448
   ],
   [
    10.383784,
    47.512416
   ],
   [
    10.383763,
    47.512401
   ],
   [
    10.383733,
    47.512368
   ],
   [
    10.383716,
    47.512319
   ],
   [
    10.383713,
    47.512263
   ],
   [
    10.383728,
    47.512212
   ],
   [
    10.383756,
    47.512163
   ],
   [
    10.383795,
    47.512127
   ],
   [
    10.383877,
    47.512079
   ],
   [
    10.383979,
    47.51204
   ],
   [
    10.384123,
    47.511989
   ],
   [
    10.38421,
    47.511951
   ],
   [
    10.38426,
    47.511919
   ],
   [
    10.384332,
    47.511861
   ],
   [
    10.384434,
    47.511782
   ],
   [
    10.384495,
    47.511751
   ],
   [
    10.384536,
    47.511728
   ],
   [
    10.384609,
    47.511707
   ],
   [
    10.384706,
    47.511682
   ],
   [
    10.38483,
    47.511667
   ],
   [
    10.384941,
    47.511658
   ],
   [
    10.385067,
    47.511653
   ],
   [
    10.385148,
    47.511643
   ],
   [
    10.385201,
    47.511631
   ],
   [
    10.385266,
    47.511604
   ],
   [
    10.385322,
    47.511578
   ],
   [
    10.385351,
    47.511561
   ],
   [
    10.38539,
    47.511529
   ],
   [
    10.38543,
    47.511476
   ],
   [
    10.385469,
    47.51141
   ],
   [
    10.38551,
    47.511327
   ],
   [
    10.385566,
    47.51117
   ],
   [
    10.385593,
    47.511108
   ],
   [
    10.385637,
    47.511019
   ],
   [
    10.385678,
    47.510961
   ],
   [
    10.385729,
    47.510918
   ],
   [
    10.385779,
    47.510891
   ],
   [
    10.385867,
    47.510845
   ],
   [
    10.386079,
    47.510766
   ],
   [
    10.386168,
    47.510728
   ],
   [
    10.386254,
    47.51068
   ],
   [
    10.38649,
    47.510536
   ],
   [
    10.386597,
    47.510503
   ],
   [
    10.386729,
    47.510483
   ],
   [
    10.386891,
    47.510472
   ],
   [
    10.387112,
    47.510458
   ],
   [
    10.387281,
    47.51043
   ],
   [
    10.387431,
    47.510402
   ],
   [
    10.38759,
    47.510355
   ],
   [
    10.38771,
    47.510279
   ],
   [
    10.387851,
    47.510134
   ],
   [
    10.387956,
    47.510066
   ],
   [
    10.388091,
    47.510032
   ],
   [
    10.388232,
    47.509995
   ],
   [
    10.388332,
    47.509944
   ],
   [
    10.388395,
    47.509878
   ],
   [
    10.388418,
    47.509812
   ],
   [
    10.38841,
    47.509734
   ],
   [
    10.38837,
    47.50967
   ],
   [
    10.38833,
    47.509638
   ],
   [
    10.388247,
    47.509602
   ],
   [
    10.388163,
    47.509584
   ],
   [
    10.388063,
    47.509587
   ],
   [
    10.387927,
    47.509622
   ],
   [
    10.387813,
    47.509695
   ],
   [
    10.387716,
    47.509814
   ],
   [
    10.387596,
    47.509934
   ],
   [
    10.387511,
    47.509996
   ],
   [
    10.387382,
    47.510036
   ],
   [
    10.38723,
    47.510056
   ],
   [
    10.387071,
    47.510043
   ],
   [
    10.386927,
    47.510001
   ],
   [
    10.386761,
    47.509912
   ],
   [
    10.386595,
    47.509818
   ],
   [
    10.386456,
    47.509757
   ],
   [
    10.386346,
    47.509734
   ],
   [
    10.386181,
    47.509724
   ],
   [
    10.385991,
    47.509757
   ],
   [
    10.385798,
    47.509814
   ],
   [
    10.385644,
    47.509869
   ],
   [
    10.385377,
    47.50997
   ],
   [
    10.385199,
    47.510029
   ],
   [
    10.384964,
    47.510089
   ],
   [
    10.384776,
    47.510114
   ],
   [
    10.384594,
    47.510143
   ],
   [
    10.38439,
    47.510217
   ],
   [
    10.384244,
    47.510258
   ],
   [
    10.38408,
    47.510283
   ],
   [
    10.383974,
    47.510301
   ],
   [
    10.383917,
    47.510316
   ],
   [
    10.383875,
    47.510337
   ],
   [
    10.383844,
    47.510354
   ],
   [
    10.383801,
    47.510385
   ],
   [
    10.383738,
    47.51044
   ],
   [
    10.383699,
    47.510474
   ],
   [
    10.383651,
    47.510504
   ],
   [
    10.383587,
    47.510533
   ],
   [
    10.383524,
    47.510556
   ],
   [
    10.38347,
    47.510566
   ],
   [
    10.383417,
    47.510568
   ],
   [
    10.383355,
    47.510565
   ],
   [
    10.383301,
    47.51056
   ],
   [
    10.383233,
    47.510543
   ],
   [
    10.383181,
    47.510523
   ],
   [
    10.38312,
    47.510491
   ],
   [
    10.38308,
    47.510457
   ],
   [
    10.383041,
    47.510417
   ],
   [
    10.383017,
    47.510369
   ],
   [
    10.382999,
    47.510309
   ],
   [
    10.382995,
    47.510247
   ],
   [
    10.383003,
    47.510175
   ],
   [
    10.383028,
    47.510125
   ],
   [
    10.383067,
    47.510072
   ],
   [
    10.383108,
    47.510024
   ],
   [
    10.383156,
    47.509986
   ],
   [
    10.383222,
    47.509943
   ],
   [
    10.383261,
    47.509926
   ],
   [
    10.383319,
    47.50991
   ],
   [
    10.383407,
    47.509891
   ],
   [
    10.38348,
    47.509885
   ],
   [
    10.383567,
    47.509884
   ],
   [
    10.383653,
    47.509893
   ],
   [
    10.383762,
    47.509913
   ],
   [
    10.383819,
    47.509929
   ],
   [
    10.383869,
    47.50994
   ],
   [
    10.383908,
    47.509945
   ],
   [
    10.383967,
    47.509951
   ],
   [
    10.384017,
    47.509949
   ],
   [
    10.384084,
    47.509936
   ],
   [
    10.384136,
    47.509923
   ],
   [
    10.384194,
    47.509899
   ],
   [
    10.384265,
    47.509861
   ],
   [
    10.384603,
    47.509619
   ],
   [
    10.384975,
    47.509359
   ],
   [
    10.385134,
    47.509254
   ],
   [
    10.385265,
    47.509199
   ],
   [
    10.385438,
    47.509159
   ],
   [
    10.385656,
    47.509111
   ],
   [
    10.385856,
    47.509041
   ],
   [
    10.385972,
    47.508973
   ],
   [
    10.386037,
    47.508915
   ],
   [
    10.386068,
    47.508851
   ],
   [
    10.386081,
    47.508741
   ],
   [
    10.386097,
    47.508579
   ],
   [
    10.386142,
    47.508463
   ],
   [
    10.386226,
    47.508373
   ],
   [
    10.386323,
    47.508324
   ],
   [
    10.386438,
    47.508302
   ],
   [
    10.38662,
    47.50831
   ],
   [
    10.386788,
    47.508324
   ],
   [
    10.386888,
    47.508318
   ],
   [
    10.386998,
    47.50828
   ],
   [
    10.387075,
    47.508224
   ],
   [
    10.387157,
    47.508124
   ],
   [
    10.387221,
    47.508031
   ],
   [
    10.387296,
    47.507967
   ],
   [
    10.387401,
    47.507921
   ],
   [
    10.387715,
    47.507795
   ],
   [
    10.388035,
    47.507676
   ],
   [
    10.388229,
    47.507589
   ],
   [
    10.38835,
    47.507525
   ],
   [
    10.388408,
    47.507458
   ],
   [
    10.388447,
    47.507365
   ],
   [
    10.388452,
    47.507291
   ],
   [
    10.388444,
    47.507218
   ],
   [
    10.388417,
    47.507142
   ],
   [
    10.388344,
    47.50707
   ],
   [
    10.388287,
    47.507018
   ],
   [
    10.388197,
    47.506973
   ],
   [
    10.388061,
    47.506941
   ],
   [
    10.387791,
    47.506912
   ],
   [
    10.387678,
    47.50688
   ],
   [
    10.387618,
    47.506845
   ],
   [
    10.387576,
    47.50679
   ],
   [
    10.387546,
    47.506664
   ],
   [
    10.387549,
    47.506522
   ],
   [
    10.38758,
    47.506412
   ],
   [
    10.387639,
    47.506358
   ],
   [
    10.387733,
    47.50633
   ],
   [
    10.387854,
    47.506332
   ],
   [
    10.388027,
    47.506391
   ],
   [
    10.388242,
    47.506489
   ],
   [
    10.388425,
    47.506567
   ],
   [
    10.388557,
    47.506602
   ],
   [
    10.388678,
    47.506608
   ],
   [
    10.388884,
    47.506585
   ],
   [
    10.389056,
    47.506558
   ],
   [
    10.389196,
    47.506553
   ],
   [
    10.38941,
    47.50656
   ],
   [
    10.389507,
    47.506551
   ],
   [
    10.389653,
    47.5065
   ],
   [
    10.389776,
    47.506463
   ],
   [
    10.389882,
    47.506452
   ],
   [
    10.389977,
    47.50647
   ],
   [
    10.390057,
    47.50652
   ],
   [
    10.390098,
    47.506574
   ],
   [
    10.390149,
    47.506658
   ],
   [
    10.39021,
    47.506752
   ],
   [
    10.390287,
    47.506839
   ],
   [
    10.390391,
    47.506871
   ],
   [
    10.390501,
    47.50687
   ],
   [
    10.390595,
    47.506836
   ],
   [
    10.39066,
    47.506786
   ],
   [
    10.390672,
    47.5067
   ],
   [
    10.390639,
    47.506607
   ],
   [
    10.390533,
    47.506527
   ],
   [
    10.39027,
    47.506381
   ],
   [
    10.390141,
    47.50633
   ],
   [
    10.390017,
    47.506302
   ],
   [
    10.3898,
    47.5063
   ],
   [
    10.389554,
    47.506308
   ],
   [
    10.389266,
    47.506318
   ],
   [
    10.389142,
    47.50632
   ],
   [
    10.389015,
    47.506304
   ],
   [
    10.388868,
    47.506255
   ],
   [
    10.388666,
    47.506156
   ],
   [
    10.388433,
    47.506043
   ],
   [
    10.388201,
    47.505898
   ],
   [
    10.388068,
    47.505844
   ],
   [
    10.387885,
    47.505808
   ],
   [
    10.387383,
    47.505761
   ],
   [
    10.38706,
    47.505744
   ],
   [
    10.386895,
    47.505758
   ],
   [
    10.38682,
    47.505779
   ],
   [
    10.386747,
    47.505811
   ],
   [
    10.386709,
    47.505868
   ],
   [
    10.386634,
    47.505987
   ],
   [
    10.386578,
    47.506088
   ],
   [
    10.386494,
    47.506157
   ],
   [
    10.38639,
    47.5062
   ],
   [
    10.386279,
    47.506205
   ],
   [
    10.386039,
    47.506178
   ],
   [
    10.385798,
    47.506196
   ],
   [
    10.385719,
    47.506218
   ],
   [
    10.385512,
    47.506277
   ],
   [
    10.385367,
    47.506317
   ],
   [
    10.385275,
    47.506324
   ],
   [
    10.385108,
    47.50633
   ],
   [
    10.38499,
    47.506343
   ],
   [
    10.384861,
    47.506384
   ],
   [
    10.384612,
    47.506462
   ],
   [
    10.384399,
    47.50651
   ],
   [
    10.384177,
    47.506553
   ],
   [
    10.383955,
    47.506574
   ],
   [
    10.383661,
    47.506588
   ],
   [
    10.383489,
    47.506627
   ],
   [
    10.383328,
    47.506678
   ],
   [
    10.383179,
    47.506726
   ],
   [
    10.382923,
    47.506845
   ],
   [
    10.382846,
    47.506926
   ],
   [
    10.382812,
    47.507013
   ],
   [
    10.38283,
    47.50709
   ],
   [
    10.382854,
    47.507221
   ],
   [
    10.382877,
    47.507359
   ],
   [
    10.382853,
    47.507457
   ],
   [
    10.382791,
    47.507551
   ],
   [
    10.382688,
    47.507596
   ],
   [
    10.38255,
    47.507627
   ],
   [
    10.382452,
    47.507634
   ],
   [
    10.382304,
    47.507602
   ],
   [
    10.382268,
    47.507591
   ],
   [
    10.382101,
    47.507539
   ],
   [
    10.381642,
    47.50738
   ],
   [
    10.381145,
    47.507246
   ],
   [
    10.380678,
    47.50714
   ],
   [
    10.380508,
    47.507105
   ],
   [
    10.380324,
    47.507058
   ],
   [
    10.379807,
    47.506936
   ],
   [
    10.379276,
    47.506792
   ],
   [
    10.378646,
    47.506607
   ],
   [
    10.377804,
    47.506358
   ],
   [
    10.376305,
    47.505935
   ],
   [
    10.375815,
    47.50578
   ],
   [
    10.374944,
    47.505522
   ],
   [
    10.374715,
    47.505457
   ],
   [
    10.37316,
    47.505017
   ],
   [
    10.373012,
    47.504978
   ],
   [
    10.372865,
    47.504934
   ],
   [
    10.372242,
    47.504771
   ],
   [
    10.371988,
    47.504705
   ],
   [
    10.371272,
    47.504582
   ],
   [
    10.370907,
    47.504534
   ],
   [
    10.370607,
    47.504508
   ],
   [
    10.370266,
    47.50449
   ],
   [
    10.369719,
    47.504472
   ],
   [
    10.369108,
    47.504469
   ],
   [
    10.368349,
    47.504479
   ],
   [
    10.367276,
    47.504496
   ],
   [
    10.367012,
    47.504498
   ],
   [
    10.366858,
    47.504501
   ],
   [
    10.366435,
    47.504507
   ],
   [
    10.366135,
    47.504511
   ],
   [
    10.365565,
    47.504498
   ],
   [
    10.365014,
    47.504493
   ],
   [
    10.364533,
    47.504473
   ],
   [
    10.363333,
    47.504371
   ],
   [
    10.362491,
    47.504272
   ],
   [
    10.362187,
    47.50424
   ],
   [
    10.361945,
    47.504208
   ],
   [
    10.361586,
    47.504159
   ],
   [
    10.361062,
    47.504088
   ],
   [
    10.360623,
    47.504024
   ],
   [
    10.360462,
    47.503999
   ],
   [
    10.360356,
    47.503974
   ],
   [
    10.360215,
    47.50397
   ],
   [
    10.360137,
    47.503975
   ],
   [
    10.360106,
    47.503977
   ],
   [
    10.36004,
    47.504029
   ],
   [
    10.359963,
    47.504053
   ],
   [
    10.359878,
    47.504057
   ],
   [
    10.359823,
    47.504046
   ],
   [
    10.359772,
    47.504027
   ],
   [
    10.359728,
    47.504003
   ],
   [
    10.359684,
    47.503952
   ],
   [
    10.359673,
    47.503927
   ],
   [
    10.359446,
    47.50386
   ],
   [
    10.359242,
    47.503835
   ],
   [
    10.358208,
    47.503699
   ],
   [
    10.358001,
    47.503671
   ],
   [
    10.355482,
    47.503373
   ],
   [
    10.354231,
    47.503264
   ],
   [
    10.352956,
    47.503172
   ],
   [
    10.352231,
    47.503129
   ],
   [
    10.351321,
    47.5031
   ],
   [
    10.351063,
    47.503091
   ],
   [
    10.35097,
    47.503088
   ],
   [
    10.350867,
    47.503085
   ],
   [
    10.349123,
    47.503029
   ],
   [
    10.347583,
    47.503014
   ],
   [
    10.345732,
    47.503015
   ],
   [
    10.344917,
    47.503029
   ],
   [
    10.344379,
    47.503041
   ],
   [
    10.34376,
    47.50308
   ],
   [
    10.343343,
    47.503102
   ],
   [
    10.342466,
    47.503157
   ],
   [
    10.341494,
    47.503245
   ],
   [
    10.340529,
    47.503363
   ],
   [
    10.340013,
    47.503435
   ],
   [
    10.339909,
    47.50345
   ],
   [
    10.339618,
    47.503499
   ],
   [
    10.339425,
    47.503531
   ],
   [
    10.339078,
    47.503592
   ],
   [
    10.338857,
    47.503627
   ],
   [
    10.338663,
    47.503657
   ],
   [
    10.338486,
    47.503684
   ],
   [
    10.337426,
    47.503859
   ],
   [
    10.336366,
    47.504035
   ],
   [
    10.334969,
    47.504251
   ],
   [
    10.333695,
    47.504436
   ],
   [
    10.33299,
    47.504533
   ],
   [
    10.332207,
    47.50465
   ],
   [
    10.331209,
    47.504729
   ],
   [
    10.330479,
    47.50474
   ],
   [
    10.329804,
    47.504693
   ],
   [
    10.329288,
    47.504618
   ],
   [
    10.328046,
    47.504366
   ],
   [
    10.327888,
    47.504334
   ],
   [
    10.327442,
    47.504253
   ],
   [
    10.326422,
    47.504147
   ],
   [
    10.326264,
    47.504146
   ],
   [
    10.325604,
    47.504139
   ],
   [
    10.325379,
    47.50414
   ],
   [
    10.324648,
    47.504172
   ],
   [
    10.323879,
    47.504232
   ],
   [
    10.321993,
    47.504485
   ],
   [
    10.318152,
    47.505036
   ],
   [
    10.31608,
    47.505261
   ],
   [
    10.314966,
    47.505379
   ],
   [
    10.31449,
    47.505454
   ],
   [
    10.314009,
    47.505547
   ],
   [
    10.313663,
    47.505635
   ],
   [
    10.313264,
    47.505748
   ],
   [
    10.312535,
    47.506009
   ],
   [
    10.312411,
    47.506053
   ],
   [
    10.312328,
    47.506083
   ],
   [
    10.311952,
    47.506249
   ],
   [
    10.311774,
    47.506331
   ],
   [
    10.311616,
    47.506405
   ],
   [
    10.311199,
    47.506605
   ],
   [
    10.310992,
    47.506706
   ],
   [
    10.310774,
    47.506807
   ],
   [
    10.310125,
    47.507089
   ],
   [
    10.309617,
    47.507293
   ],
   [
    10.309138,
    47.507449
   ],
   [
    10.308804,
    47.507556
   ],
   [
    10.307334,
    47.507924
   ],
   [
    10.304064,
    47.508655
   ],
   [
    10.303467,
    47.508788
   ],
   [
    10.302945,
    47.508904
   ],
   [
    10.30196,
    47.509103
   ],
   [
    10.298954,
    47.50978
   ],
   [
    10.298313,
    47.5099
   ],
   [
    10.297293,
    47.510026
   ],
   [
    10.296501,
    47.510114
   ],
   [
    10.295967,
    47.510185
   ],
   [
    10.295442,
    47.510298
   ],
   [
    10.294928,
    47.510469
   ],
   [
    10.294428,
    47.510664
   ],
   [
    10.293874,
    47.510984
   ],
   [
    10.293687,
    47.511124
   ],
   [
    10.293605,
    47.511183
   ],
   [
    10.293382,
    47.511394
   ],
   [
    10.292978,
    47.511872
   ],
   [
    10.292107,
    47.512993
   ],
   [
    10.291228,
    47.514122
   ],
   [
    10.291033,
    47.514318
   ],
   [
    10.290083,
    47.515118
   ],
   [
    10.289791,
    47.515369
   ],
   [
    10.287844,
    47.517077
   ],
   [
    10.287585,
    47.517296
   ],
   [
    10.286711,
    47.51799
   ],
   [
    10.285944,
    47.518497
   ],
   [
    10.285138,
    47.5188
   ],
   [
    10.284964,
    47.518856
   ],
   [
    10.284675,
    47.518932
   ],
   [
    10.282367,
    47.519466
   ],
   [
    10.281779,
    47.519595
   ],
   [
    10.281433,
    47.519673
   ],
   [
    10.281382,
    47.519683
   ],
   [
    10.281275,
    47.519703
   ],
   [
    10.280757,
    47.519802
   ],
   [
    10.279174,
    47.520103
   ],
   [
    10.278841,
    47.520168
   ],
   [
    10.278724,
    47.520188
   ],
   [
    10.278081,
    47.52028
   ],
   [
    10.277745,
    47.52033
   ],
   [
    10.277312,
    47.520383
   ],
   [
    10.276689,
    47.520412
   ],
   [
    10.276669,
    47.520412
   ],
   [
    10.275771,
    47.520435
   ],
   [
    10.275478,
    47.520438
   ],
   [
    10.275065,
    47.520429
   ],
   [
    10.274474,
    47.520418
   ],
   [
    10.274156,
    47.520412
   ],
   [
    10.272909,
    47.520389
   ],
   [
    10.272499,
    47.52038
   ],
   [
    10.272183,
    47.520365
   ],
   [
    10.271942,
    47.520364
   ],
   [
    10.27142,
    47.52035
   ],
   [
    10.271044,
    47.520337
   ],
   [
    10.270882,
    47.520328
   ],
   [
    10.270752,
    47.520357
   ],
   [
    10.270562,
    47.520387
   ],
   [
    10.270436,
    47.520425
   ],
   [
    10.270358,
    47.520456
   ],
   [
    10.270295,
    47.520491
   ],
   [
    10.27025,
    47.520529
   ],
   [
    10.27021,
    47.520575
   ],
   [
    10.270175,
    47.52064
   ],
   [
    10.270154,
    47.520706
   ],
   [
    10.270119,
    47.52077
   ],
   [
    10.270096,
    47.520848
   ],
   [
    10.270066,
    47.520912
   ],
   [
    10.270037,
    47.520957
   ],
   [
    10.270007,
    47.520997
   ],
   [
    10.269959,
    47.521032
   ],
   [
    10.269913,
    47.52106
   ],
   [
    10.269858,
    47.52108
   ],
   [
    10.269679,
    47.521108
   ],
   [
    10.26959,
    47.521133
   ],
   [
    10.269517,
    47.521146
   ],
   [
    10.269429,
    47.521167
   ],
   [
    10.269357,
    47.521195
   ],
   [
    10.269301,
    47.521225
   ],
   [
    10.269235,
    47.521268
   ],
   [
    10.269191,
    47.521304
   ],
   [
    10.269154,
    47.521343
   ],
   [
    10.269106,
    47.521405
   ],
   [
    10.269065,
    47.521465
   ],
   [
    10.269045,
    47.521511
   ],
   [
    10.268981,
    47.521564
   ],
   [
    10.268866,
    47.522048
   ],
   [
    10.268773,
    47.522407
   ],
   [
    10.268672,
    47.522749
   ],
   [
    10.268553,
    47.523149
   ],
   [
    10.268273,
    47.52415
   ],
   [
    10.268187,
    47.524439
   ],
   [
    10.267932,
    47.525303
   ],
   [
    10.267749,
    47.525983
   ],
   [
    10.267612,
    47.526473
   ],
   [
    10.267271,
    47.52798
   ],
   [
    10.267204,
    47.528258
   ],
   [
    10.267117,
    47.528672
   ],
   [
    10.266949,
    47.529582
   ],
   [
    10.266824,
    47.530501
   ],
   [
    10.266773,
    47.531058
   ],
   [
    10.266726,
    47.531628
   ],
   [
    10.266723,
    47.53252
   ],
   [
    10.266737,
    47.533236
   ],
   [
    10.266779,
    47.534075
   ],
   [
    10.266934,
    47.535558
   ],
   [
    10.267042,
    47.536459
   ],
   [
    10.267168,
    47.537381
   ],
   [
    10.267459,
    47.539191
   ],
   [
    10.267559,
    47.539847
   ],
   [
    10.267651,
    47.540577
   ],
   [
    10.267707,
    47.541315
   ],
   [
    10.267722,
    47.541692
   ],
   [
    10.26772,
    47.542059
   ],
   [
    10.267693,
    47.542356
   ],
   [
    10.267639,
    47.542728
   ],
   [
    10.267573,
    47.543081
   ],
   [
    10.26746,
    47.543505
   ],
   [
    10.267309,
    47.543911
   ],
   [
    10.267127,
    47.544297
   ],
   [
    10.266894,
    47.544733
   ],
   [
    10.266541,
    47.545253
   ],
   [
    10.266131,
    47.545764
   ],
   [
    10.265648,
    47.546259
   ],
   [
    10.265342,
    47.546542
   ],
   [
    10.265086,
    47.546765
   ],
   [
    10.264408,
    47.547299
   ],
   [
    10.263795,
    47.547737
   ],
   [
    10.263086,
    47.548221
   ],
   [
    10.261635,
    47.549186
   ],
   [
    10.260583,
    47.54987
   ],
   [
    10.257911,
    47.551624
   ],
   [
    10.254953,
    47.553569
   ],
   [
    10.25355,
    47.554496
   ],
   [
    10.251827,
    47.555621
   ],
   [
    10.251432,
    47.555882
   ],
   [
    10.251183,
    47.556048
   ],
   [
    10.250338,
    47.556596
   ],
   [
    10.249834,
    47.556926
   ],
   [
    10.249446,
    47.557194
   ],
   [
    10.248859,
    47.557563
   ],
   [
    10.248533,
    47.557914
   ],
   [
    10.248412,
    47.558076
   ],
   [
    10.248384,
    47.558152
   ],
   [
    10.248378,
    47.558238
   ],
   [
    10.248419,
    47.558338
   ],
   [
    10.248499,
    47.558428
   ],
   [
    10.2486,
    47.55847
   ],
   [
    10.248715,
    47.558497
   ],
   [
    10.248817,
    47.558502
   ],
   [
    10.248889,
    47.558498
   ],
   [
    10.249,
    47.558476
   ],
   [
    10.249129,
    47.558419
   ],
   [
    10.249409,
    47.558222
   ],
   [
    10.24946,
    47.558144
   ],
   [
    10.249516,
    47.558067
   ],
   [
    10.249494,
    47.557928
   ],
   [
    10.249448,
    47.557791
   ],
   [
    10.249355,
    47.557736
   ],
   [
    10.249222,
    47.557654
   ],
   [
    10.2489,
    47.55743
   ],
   [
    10.248722,
    47.55729
   ],
   [
    10.248457,
    47.557038
   ],
   [
    10.248345,
    47.556949
   ],
   [
    10.248254,
    47.556845
   ],
   [
    10.24818,
    47.556788
   ],
   [
    10.248149,
    47.556759
   ],
   [
    10.248108,
    47.55676
   ],
   [
    10.248069,
    47.556756
   ],
   [
    10.248031,
    47.556747
   ],
   [
    10.247996,
    47.556734
   ],
   [
    10.247965,
    47.556717
   ],
   [
    10.247939,
    47.556696
   ],
   [
    10.247906,
    47.556652
   ],
   [
    10.247897,
    47.556602
   ],
   [
    10.247911,
    47.556554
   ],
   [
    10.247931,
    47.556526
   ],
   [
    10.247959,
    47.556502
   ],
   [
    10.247909,
    47.556375
   ],
   [
    10.2479,
    47.556311
   ],
   [
    10.247763,
    47.556149
   ],
   [
    10.247516,
    47.555843
   ],
   [
    10.247065,
    47.555453
   ],
   [
    10.246569,
    47.555161
   ],
   [
    10.246154,
    47.554965
   ],
   [
    10.245591,
    47.554764
   ],
   [
    10.245357,
    47.554689
   ],
   [
    10.245159,
    47.554646
   ],
   [
    10.244733,
    47.554562
   ],
   [
    10.244342,
    47.554516
   ],
   [
    10.244029,
    47.554489
   ],
   [
    10.243719,
    47.554477
   ],
   [
    10.243246,
    47.554492
   ],
   [
    10.242759,
    47.554534
   ],
   [
    10.242167,
    47.554644
   ],
   [
    10.24166,
    47.554771
   ],
   [
    10.241068,
    47.554968
   ],
   [
    10.240465,
    47.555191
   ],
   [
    10.23975,
    47.55546
   ],
   [
    10.239,
    47.555714
   ],
   [
    10.238837,
    47.55576
   ],
   [
    10.238411,
    47.55586
   ],
   [
    10.237802,
    47.555972
   ],
   [
    10.237261,
    47.556031
   ],
   [
    10.236683,
    47.556061
   ],
   [
    10.236346,
    47.556058
   ],
   [
    10.236209,
    47.556054
   ],
   [
    10.235872,
    47.556034
   ],
   [
    10.235302,
    47.555978
   ],
   [
    10.234898,
    47.555909
   ],
   [
    10.234572,
    47.555836
   ],
   [
    10.234276,
    47.555754
   ],
   [
    10.234231,
    47.555742
   ],
   [
    10.233862,
    47.55559
   ],
   [
    10.23273,
    47.555037
   ],
   [
    10.232705,
    47.555025
   ],
   [
    10.232486,
    47.55492
   ],
   [
    10.232008,
    47.554701
   ],
   [
    10.231875,
    47.554664
   ],
   [
    10.231794,
    47.554636
   ],
   [
    10.231741,
    47.554615
   ],
   [
    10.231709,
    47.554625
   ],
   [
    10.23167,
    47.554631
   ],
   [
    10.231634,
    47.55463
   ],
   [
    10.231603,
    47.554626
   ],
   [
    10.231479,
    47.554678
   ],
   [
    10.231334,
    47.554728
   ],
   [
    10.231269,
    47.554762
   ],
   [
    10.231072,
    47.554867
   ],
   [
    10.231,
    47.554909
   ],
   [
    10.230903,
    47.554965
   ],
   [
    10.230524,
    47.555215
   ],
   [
    10.230442,
    47.555273
   ],
   [
    10.230368,
    47.555328
   ],
   [
    10.230073,
    47.555532
   ],
   [
    10.229732,
    47.555772
   ],
   [
    10.229701,
    47.555794
   ],
   [
    10.229512,
    47.555919
   ],
   [
    10.229403,
    47.555993
   ],
   [
    10.228912,
    47.556328
   ],
   [
    10.228418,
    47.556546
   ],
   [
    10.227575,
    47.556861
   ],
   [
    10.227537,
    47.556876
   ],
   [
    10.226603,
    47.557164
   ],
   [
    10.226525,
    47.557189
   ],
   [
    10.225917,
    47.557378
   ],
   [
    10.225752,
    47.557431
   ],
   [
    10.225654,
    47.55746
   ],
   [
    10.225597,
    47.557477
   ],
   [
    10.225125,
    47.557628
   ],
   [
    10.224871,
    47.557665
   ],
   [
    10.224664,
    47.557692
   ],
   [
    10.224388,
    47.557684
   ],
   [
    10.223872,
    47.557683
   ],
   [
    10.223542,
    47.557709
   ],
   [
    10.223285,
    47.557756
   ],
   [
    10.222995,
    47.557822
   ],
   [
    10.222924,
    47.557843
   ],
   [
    10.222722,
    47.557916
   ],
   [
    10.222657,
    47.557943
   ],
   [
    10.222422,
    47.558054
   ],
   [
    10.221886,
    47.558249
   ],
   [
    10.221808,
    47.558271
   ],
   [
    10.221578,
    47.558328
   ],
   [
    10.221377,
    47.558358
   ],
   [
    10.221077,
    47.558371
   ],
   [
    10.220919,
    47.55837
   ],
   [
    10.220484,
    47.558343
   ],
   [
    10.220125,
    47.558337
   ],
   [
    10.219758,
    47.558347
   ],
   [
    10.219216,
    47.558409
   ],
   [
    10.218799,
    47.558471
   ],
   [
    10.218583,
    47.558511
   ],
   [
    10.218295,
    47.55855
   ],
   [
    10.218001,
    47.558597
   ],
   [
    10.217334,
    47.558696
   ],
   [
    10.217199,
    47.558711
   ],
   [
    10.216604,
    47.558809
   ],
   [
    10.216706,
    47.558915
   ],
   [
    10.216946,
    47.55887
   ]
  ],
  "type": "LineString"
 },
 "properties": {
  "quelle": "OSRM router.project-osrm.org, Profil driving",
  "von": [
   47.513,
   10.398
  ],
  "nach": [
   47.559,
   10.217
  ],
  "distanz_m": 22274.9,
  "dauer_s": 1505,
  "punkte": 879
 }
}
