{"type":"Feature","geometry":{"coordinates":[[10.27745,47.51164],[10.27743,47.51152],[10.27742,47.51145],[10.27743,47.51139],[10.27736,47.51125],[10.2773,47.5111],[10.27725,47.51096],[10.27721,47.51085],[10.27692,47.51089],[10.27654,47.51091],[10.27648,47.5109],[10.27631,47.51087],[10.27612,47.51086],[10.27583,47.51085],[10.27536,47.5109],[10.27544,47.51128],[10.27553,47.51167],[10.27577,47.51272],[10.27595,47.51299],[10.27606,47.51321],[10.2762,47.51344],[10.2763,47.51382],[10.27641,47.51416],[10.27646,47.51431],[10.2767,47.51429],[10.27683,47.51428],[10.27729,47.51425],[10.27784,47.51421],[10.2779,47.51421],[10.2784,47.51418],[10.27912,47.51414],[10.27938,47.51414],[10.27985,47.51418],[10.28001,47.51419],[10.28042,47.51421],[10.28115,47.5142],[10.28119,47.51439],[10.28124,47.51457],[10.28126,47.51476],[10.28128,47.51493],[10.2813,47.51512],[10.28132,47.51526],[10.28112,47.51527],[10.28101,47.51528],[10.28097,47.51507]],"type":"LineString"},"properties":{"quelle":"OSRM router.project-osrm.org, Profil driving","von":[47.51161,10.27781],"nach":[47.515,10.281],"distanz_m":1139.4,"dauer_s":145.2,"punkte":45}}
