{"type":"Feature","geometry":{"coordinates":[[10.25351,47.5469],[10.25366,47.5469],[10.25375,47.54688],[10.25382,47.54682],[10.25384,47.54674],[10.25382,47.54656],[10.25383,47.54648],[10.25387,47.54644],[10.25399,47.54642],[10.25428,47.54641],[10.25459,47.54641],[10.25479,47.54642],[10.25563,47.54644],[10.25575,47.54644],[10.25585,47.54645],[10.25591,47.54645],[10.25595,47.54644],[10.256,47.54644],[10.25604,47.54644],[10.25607,47.54646],[10.2561,47.54648],[10.25613,47.5465],[10.25614,47.54652],[10.25614,47.54655],[10.25614,47.54657],[10.25612,47.5466],[10.2561,47.54662],[10.25606,47.54664],[10.25601,47.54665],[10.25596,47.54665],[10.25585,47.54672],[10.25577,47.54677],[10.25547,47.54714],[10.25514,47.5477],[10.25498,47.54811],[10.25479,47.5485],[10.2547,47.54869],[10.25466,47.54878],[10.25458,47.54894],[10.25429,47.54964],[10.254,47.55011],[10.25382,47.55029],[10.25363,47.55042],[10.25336,47.55053],[10.25312,47.5506],[10.25281,47.55066],[10.25168,47.55081],[10.25039,47.55102],[10.24933,47.55116],[10.2491,47.55117],[10.24905,47.55117],[10.24812,47.55114],[10.24753,47.5511],[10.24707,47.55106],[10.24696,47.55104],[10.245,47.55077],[10.24398,47.55062],[10.2432,47.55059],[10.24277,47.55058],[10.24248,47.55058],[10.2419,47.55058],[10.2409,47.55058],[10.24004,47.55058],[10.23978,47.55058],[10.23957,47.55059],[10.23922,47.55059],[10.23874,47.55061],[10.2382,47.55067],[10.23742,47.5508],[10.23686,47.55092],[10.23669,47.55098],[10.23586,47.55126],[10.23512,47.55155],[10.23432,47.55185],[10.23425,47.55187],[10.23403,47.55196],[10.23383,47.55203],[10.2337,47.55208],[10.2333,47.55221],[10.23292,47.55233],[10.23278,47.55238],[10.23242,47.55249],[10.2321,47.55259],[10.23176,47.55271],[10.23165,47.55275],[10.2315,47.55282],[10.23115,47.55298],[10.23111,47.553],[10.23093,47.55311],[10.23085,47.55316],[10.23074,47.55326],[10.23067,47.55332],[10.23068,47.55336],[10.23067,47.55339],[10.23065,47.55342],[10.23061,47.55345],[10.23059,47.55353],[10.23058,47.55354],[10.23058,47.55365],[10.23062,47.55381],[10.23069,47.55395],[10.2308,47.55404],[10.23092,47.55414],[10.23131,47.55434],[10.23148,47.55439],[10.23149,47.55439],[10.23155,47.55441],[10.23157,47.55442],[10.23161,47.55441],[10.23165,47.55441],[10.23168,47.55441],[10.23171,47.55442],[10.23174,47.55443],[10.23177,47.55444],[10.23179,47.55446],[10.23181,47.55448],[10.23182,47.55451],[10.23182,47.55453],[10.23181,47.55455],[10.2318,47.55458],[10.23177,47.5546],[10.23174,47.55461],[10.23171,47.55463],[10.23167,47.55463],[10.23163,47.55463],[10.2316,47.55463],[10.23148,47.55468],[10.23133,47.55473],[10.23127,47.55476],[10.23107,47.55487],[10.231,47.55491],[10.2309,47.55497],[10.23052,47.55521],[10.23044,47.55527],[10.23037,47.55533],[10.23007,47.55553],[10.22973,47.55577],[10.2297,47.55579],[10.22951,47.55592],[10.2294,47.55599],[10.22891,47.55633],[10.22842,47.55655],[10.22757,47.55686],[10.22754,47.55688],[10.2266,47.55716],[10.22653,47.55719],[10.22592,47.55738],[10.22575,47.55743],[10.22565,47.55746],[10.2256,47.55748],[10.22513,47.55763],[10.22487,47.55767],[10.22466,47.55769],[10.22439,47.55768],[10.22387,47.55768],[10.22354,47.55771],[10.22329,47.55776],[10.22299,47.55782],[10.22292,47.55784],[10.22272,47.55792],[10.22266,47.55794],[10.22242,47.55805],[10.22189,47.55825],[10.22181,47.55827],[10.22158,47.55833],[10.22138,47.55836],[10.22108,47.55837],[10.22092,47.55837],[10.22048,47.55834],[10.22012,47.55834],[10.21976,47.55835],[10.21922,47.55841],[10.2188,47.55847],[10.21858,47.55851],[10.21829,47.55855],[10.218,47.5586],[10.21733,47.5587],[10.2172,47.55871],[10.2166,47.55881],[10.21671,47.55891],[10.21695,47.55887]],"type":"LineString"},"properties":{"quelle":"OSRM router.project-osrm.org, Profil driving","von":[47.54785,10.25316],"nach":[47.559,10.217],"distanz_m":4056.6,"dauer_s":352.6,"punkte":181}}
