{"type":"Feature","geometry":{"coordinates":[[10.21695,47.55887],[10.21738,47.55879],[10.21733,47.5587],[10.218,47.5586],[10.21829,47.55855],[10.21858,47.55851],[10.2188,47.55847],[10.21922,47.55841],[10.21976,47.55835],[10.22012,47.55834],[10.22048,47.55834],[10.22092,47.55837],[10.22108,47.55837],[10.22138,47.55836],[10.22158,47.55833],[10.22181,47.55827],[10.22189,47.55825],[10.22242,47.55805],[10.22266,47.55794],[10.22272,47.55792],[10.22292,47.55784],[10.22299,47.55782],[10.22329,47.55776],[10.22354,47.55771],[10.22387,47.55768],[10.22439,47.55768],[10.22466,47.55769],[10.22487,47.55767],[10.22513,47.55763],[10.2256,47.55748],[10.22565,47.55746],[10.22575,47.55743],[10.22592,47.55738],[10.22653,47.55719],[10.2266,47.55716],[10.22754,47.55688],[10.22757,47.55686],[10.22842,47.55655],[10.22891,47.55633],[10.2294,47.55599],[10.22951,47.55592],[10.2297,47.55579],[10.22973,47.55577],[10.23007,47.55553],[10.23037,47.55533],[10.23044,47.55527],[10.23052,47.55521],[10.2309,47.55497],[10.231,47.55491],[10.23107,47.55487],[10.23127,47.55476],[10.23133,47.55473],[10.23144,47.55464],[10.2315,47.5546],[10.23152,47.55458],[10.2315,47.55456],[10.23149,47.55454],[10.23149,47.55452],[10.23149,47.5545],[10.2315,47.55448],[10.23151,47.55446],[10.23153,47.55444],[10.23157,47.55442],[10.23161,47.55441],[10.23165,47.55441],[10.23168,47.55441],[10.23171,47.55442],[10.23174,47.55443],[10.23177,47.55444],[10.23179,47.55446],[10.23181,47.55448],[10.23182,47.55451],[10.23182,47.55453],[10.23193,47.55462],[10.23201,47.5547],[10.23249,47.55492],[10.2327,47.55503],[10.23273,47.55504],[10.23386,47.55559],[10.23423,47.55574],[10.23428,47.55575],[10.23457,47.55584],[10.2349,47.55591],[10.2353,47.55598],[10.23587,47.55603],[10.23621,47.55605],[10.23635,47.55606],[10.23668,47.55606],[10.23726,47.55603],[10.2378,47.55597],[10.23841,47.55586],[10.23884,47.55576],[10.239,47.55571],[10.23975,47.55546],[10.24047,47.55519],[10.24107,47.55497],[10.24166,47.55477],[10.24217,47.55464],[10.24276,47.55453],[10.24325,47.55449],[10.24372,47.55448],[10.24403,47.55449],[10.24434,47.55452],[10.24473,47.55456],[10.24516,47.55465],[10.24536,47.55469],[10.24559,47.55476],[10.24615,47.55497],[10.24657,47.55516],[10.24706,47.55545],[10.24752,47.55584],[10.24776,47.55615],[10.2479,47.55631],[10.24797,47.55636],[10.24805,47.55643],[10.24808,47.55646],[10.24814,47.55646],[10.24822,47.55647],[10.24827,47.55649],[10.2483,47.55651],[10.24833,47.55654],[10.24835,47.55658],[10.24835,47.55663],[10.24833,47.55667],[10.24829,47.55671],[10.24832,47.55677],[10.24842,47.55691],[10.24846,47.55704],[10.24872,47.55729],[10.2489,47.55743],[10.24922,47.55765],[10.24935,47.55774],[10.24945,47.55779],[10.24973,47.55793],[10.24992,47.55801],[10.25013,47.55809],[10.25024,47.55813],[10.25055,47.55822],[10.2513,47.55841],[10.25165,47.55847],[10.25225,47.55855],[10.25286,47.55861],[10.25323,47.55864],[10.25387,47.55868],[10.25467,47.55874],[10.2553,47.55878],[10.25832,47.55899],[10.25961,47.55908],[10.26042,47.55914],[10.26059,47.55915],[10.26138,47.55922],[10.26342,47.55936],[10.2693,47.55968],[10.27382,47.55992],[10.27482,47.55998],[10.27531,47.56],[10.27566,47.56005],[10.2758,47.56007],[10.2761,47.56013],[10.27626,47.56015],[10.27637,47.56016],[10.2764,47.56017],[10.27645,47.56014],[10.27651,47.56013],[10.27658,47.56012],[10.27664,47.56013],[10.27671,47.56015],[10.27677,47.56018],[10.27681,47.56022],[10.27683,47.56027],[10.27684,47.56032],[10.27683,47.56036],[10.27679,47.56041],[10.27683,47.56053],[10.27687,47.56066],[10.27697,47.56076],[10.27717,47.56099],[10.27817,47.56216],[10.27911,47.56319],[10.28004,47.56417],[10.28021,47.56435],[10.28069,47.56484],[10.28106,47.56517],[10.28124,47.56533],[10.2817,47.56567],[10.2822,47.56599],[10.28265,47.56624],[10.28309,47.56643],[10.28346,47.56657],[10.2837,47.56666],[10.28387,47.56673],[10.28399,47.56678],[10.28466,47.56706],[10.28492,47.56721],[10.28517,47.56738],[10.28556,47.56776],[10.28572,47.568],[10.28584,47.56823],[10.28593,47.56853],[10.28598,47.56881],[10.28599,47.56941],[10.28598,47.57036],[10.286,47.5708],[10.28605,47.57105],[10.28614,47.57123],[10.28623,47.5714],[10.28637,47.57157],[10.28652,47.57171],[10.28664,47.57181],[10.28686,47.57196],[10.28701,47.57205],[10.28717,47.57213],[10.28729,47.57217],[10.28754,47.57223],[10.28781,47.57224],[10.28803,47.57221],[10.28826,47.57215],[10.28844,47.5721],[10.28859,47.57209],[10.28876,47.5721],[10.28887,47.57213],[10.28894,47.57217],[10.28908,47.57226],[10.28917,47.57238],[10.28919,47.57246],[10.28919,47.57254],[10.28917,47.57276],[10.28912,47.57306],[10.28904,47.57351],[10.28905,47.57357],[10.2891,47.57363],[10.28919,47.57369],[10.2893,47.57373],[10.28962,47.57385],[10.29017,47.57406],[10.29024,47.57408],[10.29031,47.57411],[10.29036,47.57414],[10.29039,47.57419],[10.2904,47.57424],[10.29042,47.57434],[10.29043,47.5744],[10.29047,47.57461],[10.29049,47.57468],[10.29055,47.57476],[10.29072,47.57495],[10.29073,47.57496],[10.29102,47.57531],[10.29109,47.57536],[10.29119,47.57538],[10.29129,47.5754],[10.29141,47.5754],[10.2915,47.57539],[10.29166,47.57536],[10.29183,47.5753],[10.2921,47.57521],[10.29228,47.57514],[10.29252,47.57502],[10.29276,47.57491],[10.29287,47.57487],[10.29298,47.57485],[10.29332,47.57481],[10.29374,47.57477],[10.29416,47.57475],[10.29451,47.57477],[10.2949,47.57487],[10.29531,47.57502],[10.29541,47.57505],[10.29571,47.57518],[10.296,47.57528],[10.29615,47.57532],[10.2962,47.57533],[10.29637,47.57537],[10.29652,47.57541],[10.29683,47.57545],[10.29738,47.57547],[10.29765,47.57549],[10.29782,47.57552],[10.29804,47.57557],[10.29819,47.57561],[10.29839,47.5757],[10.29894,47.57597],[10.2995,47.5763],[10.30022,47.57661],[10.30093,47.57685],[10.30135,47.57705],[10.30161,47.57722],[10.30181,47.57738],[10.30239,47.57788],[10.30301,47.5784],[10.3035,47.57877],[10.30378,47.57895],[10.30408,47.57911],[10.3046,47.57932],[10.30513,47.5795],[10.3056,47.57965],[10.30577,47.57969],[10.30596,47.57974],[10.30706,47.58006],[10.30782,47.58029],[10.30847,47.58052],[10.30881,47.58069],[10.30975,47.58118],[10.30995,47.58129],[10.31033,47.58143],[10.31078,47.58154],[10.31105,47.58158],[10.3113,47.58161],[10.31191,47.58164],[10.31275,47.58167],[10.31338,47.58174],[10.31393,47.58184],[10.31445,47.58196],[10.31493,47.5821],[10.3152,47.5822],[10.31573,47.58239],[10.31644,47.58267],[10.31764,47.58317],[10.3179,47.58326],[10.31835,47.5834],[10.31894,47.58356],[10.31952,47.58369],[10.31982,47.58376],[10.3199,47.58377],[10.32002,47.58381],[10.32017,47.58386],[10.32028,47.5839],[10.32036,47.58393],[10.3206,47.58405],[10.32093,47.58423],[10.32126,47.58444],[10.32154,47.58462],[10.32189,47.58484],[10.32207,47.58492],[10.32224,47.58497],[10.32241,47.585],[10.32259,47.58503],[10.32307,47.58513],[10.32355,47.58521],[10.32389,47.58524],[10.32393,47.58524],[10.32409,47.58524],[10.32427,47.58523],[10.32437,47.58523],[10.32442,47.58521],[10.3245,47.58528],[10.32453,47.5853],[10.32458,47.58535],[10.32492,47.58567],[10.32495,47.58571],[10.32497,47.58576],[10.32492,47.58588],[10.32483,47.58605],[10.32472,47.58627],[10.32461,47.58653],[10.32453,47.58674],[10.32445,47.58692],[10.32424,47.58755],[10.3242,47.58775],[10.32413,47.58819],[10.32401,47.58871],[10.32393,47.58911],[10.32388,47.58929],[10.32381,47.58941],[10.32362,47.58965],[10.32347,47.58984],[10.32328,47.59012],[10.32286,47.59076],[10.32277,47.59087],[10.32215,47.59162],[10.32196,47.59195],[10.32165,47.59252],[10.32147,47.59292],[10.3212,47.59367],[10.32109,47.59401],[10.32101,47.59414],[10.32083,47.59442],[10.3208,47.59445],[10.32074,47.59455],[10.32071,47.59463],[10.32066,47.5948],[10.32062,47.595],[10.32059,47.59517],[10.32061,47.59554],[10.32059,47.59564],[10.32053,47.59578],[10.32042,47.59595],[10.32015,47.59638],[10.31998,47.59662],[10.31986,47.59682],[10.31979,47.59692],[10.31971,47.59704],[10.31966,47.59715],[10.31964,47.59727],[10.31964,47.59739],[10.31967,47.5975],[10.31977,47.59764],[10.31987,47.59773],[10.31993,47.59778],[10.32009,47.59791],[10.32043,47.59817],[10.32057,47.59828],[10.3207,47.59841],[10.32081,47.59855],[10.32091,47.59869],[10.32098,47.59883],[10.32108,47.59903],[10.32116,47.59917],[10.32126,47.59933],[10.32132,47.59941],[10.32136,47.59945],[10.32156,47.59959],[10.32176,47.5997],[10.32203,47.59987],[10.32221,47.59999],[10.32223,47.60001],[10.32243,47.60019],[10.32258,47.6003],[10.32278,47.60041],[10.32304,47.60052],[10.32318,47.6006],[10.32325,47.6007],[10.32329,47.60088],[10.32337,47.60101],[10.32355,47.60121],[10.32375,47.60136],[10.32381,47.60143],[10.32395,47.60157],[10.32414,47.60181],[10.32428,47.60206],[10.32448,47.60238],[10.32465,47.60264],[10.32488,47.60287],[10.3251,47.60306],[10.32539,47.60331],[10.32546,47.60338],[10.32568,47.60363],[10.32587,47.60392],[10.32609,47.6042],[10.32621,47.60434],[10.32637,47.60448],[10.32651,47.60458],[10.3267,47.6047],[10.32698,47.60483],[10.32719,47.6049],[10.32747,47.60497],[10.32764,47.60501],[10.32793,47.60505],[10.32837,47.60514],[10.32873,47.60526],[10.32911,47.60547],[10.32933,47.60558],[10.32952,47.60566],[10.32969,47.60571],[10.33006,47.60583],[10.33031,47.60592],[10.33054,47.60604],[10.33103,47.60642],[10.33134,47.60662],[10.33154,47.60672],[10.33191,47.60682],[10.33218,47.60688],[10.33232,47.60692],[10.33249,47.60699],[10.33266,47.60711],[10.33274,47.6072],[10.33277,47.60731],[10.33276,47.60744],[10.33271,47.60758],[10.33251,47.60792],[10.33243,47.60807],[10.33238,47.60818],[10.33238,47.60832],[10.33241,47.60838],[10.33246,47.60844],[10.33254,47.60848],[10.33284,47.60857],[10.33302,47.60862],[10.33311,47.60867],[10.33323,47.60875],[10.33335,47.60888],[10.33347,47.60905],[10.33362,47.6092],[10.33376,47.60932],[10.33381,47.60938],[10.33383,47.60947],[10.33383,47.60955],[10.33383,47.60958],[10.33382,47.60978],[10.33384,47.60989],[10.33385,47.60998],[10.33392,47.6101],[10.33404,47.61023],[10.33426,47.6104],[10.33433,47.61045],[10.33438,47.61048],[10.33452,47.61058],[10.33465,47.61069],[10.3348,47.61081],[10.33487,47.61091],[10.33496,47.61102],[10.335,47.61116],[10.33501,47.61129],[10.33501,47.61141],[10.33502,47.61163],[10.33504,47.61177],[10.33507,47.61196],[10.33511,47.61209],[10.33518,47.61221],[10.33525,47.61225],[10.33535,47.61229],[10.3355,47.61236],[10.33559,47.6124],[10.33562,47.61242],[10.33575,47.61249],[10.33585,47.61256],[10.33598,47.61268],[10.33604,47.61277],[10.33611,47.6129],[10.33617,47.61299],[10.33625,47.61313],[10.33631,47.6133],[10.33636,47.61342],[10.33645,47.61361],[10.33652,47.6138],[10.33659,47.61395],[10.33665,47.61406],[10.33672,47.61413],[10.3368,47.61417],[10.33694,47.61421],[10.33713,47.61424],[10.33723,47.61426],[10.33726,47.61427],[10.33774,47.61435],[10.33809,47.61441],[10.33821,47.61444],[10.3383,47.61449],[10.33836,47.61453],[10.33857,47.61467],[10.33896,47.61494],[10.3393,47.61518],[10.33963,47.61542],[10.33985,47.61565],[10.34009,47.61588],[10.3403,47.61602],[10.34045,47.61609],[10.34054,47.61612],[10.3409,47.61622],[10.34126,47.61629],[10.34151,47.61635],[10.34178,47.61644],[10.34192,47.6165],[10.34217,47.61662],[10.34247,47.61673],[10.34279,47.61683],[10.34321,47.61688],[10.3436,47.61692],[10.34399,47.61699],[10.34435,47.61709],[10.34472,47.61727],[10.34511,47.61749],[10.34558,47.6177],[10.34601,47.61782],[10.34644,47.61786],[10.34686,47.6179],[10.34729,47.61794],[10.34748,47.61797],[10.34765,47.61801],[10.34795,47.6181],[10.34828,47.61824],[10.34857,47.61839],[10.34893,47.61856],[10.34928,47.61869],[10.34969,47.61877],[10.35007,47.61886],[10.3505,47.61897],[10.35082,47.61907],[10.35112,47.61922],[10.35131,47.61934],[10.35152,47.61948],[10.35198,47.61994],[10.35213,47.62011],[10.35242,47.62035],[10.35275,47.62055],[10.35322,47.6208],[10.35354,47.62097],[10.35381,47.62116],[10.35398,47.6213],[10.35418,47.62154],[10.35437,47.62182],[10.35445,47.62202],[10.35451,47.62228],[10.35461,47.62273],[10.35468,47.62294],[10.35481,47.62325],[10.35492,47.62339],[10.355,47.62351],[10.35513,47.62368],[10.35541,47.62398],[10.35577,47.62435],[10.35592,47.62455],[10.35607,47.62478],[10.35616,47.62494],[10.35626,47.62522],[10.35632,47.62543],[10.35633,47.62566],[10.35635,47.62588],[10.35632,47.6261],[10.35627,47.62633],[10.35614,47.62666],[10.35597,47.62708],[10.3559,47.62727],[10.3558,47.62754],[10.35573,47.62773],[10.35552,47.62767],[10.35524,47.6276],[10.35513,47.6276],[10.35502,47.62764],[10.35474,47.62776],[10.35446,47.62785],[10.35425,47.6279],[10.3541,47.62796],[10.35394,47.62804],[10.35359,47.62825],[10.35339,47.62837],[10.35327,47.62841],[10.35314,47.62844],[10.35285,47.62848],[10.35265,47.62854],[10.35241,47.62863],[10.35225,47.62869],[10.3521,47.62873],[10.35197,47.62875],[10.3517,47.62876],[10.35121,47.62873],[10.35055,47.6287],[10.35025,47.62869],[10.34984,47.62865],[10.34966,47.62861],[10.34921,47.62854],[10.34883,47.62852],[10.34851,47.62854],[10.34827,47.6286],[10.34794,47.62866],[10.34774,47.62867],[10.3474,47.62865],[10.3471,47.62862],[10.34669,47.62859],[10.34638,47.62857],[10.34593,47.62853],[10.3454,47.62843],[10.34509,47.62834],[10.34483,47.62828],[10.34465,47.62824],[10.34467,47.6283],[10.34461,47.62839],[10.34461,47.62845],[10.3446,47.62856],[10.3445,47.6286],[10.34437,47.62863],[10.3442,47.62868],[10.34416,47.62859],[10.34409,47.62853],[10.34399,47.62846],[10.34389,47.62842],[10.34379,47.62833],[10.34374,47.62823],[10.34343,47.62819],[10.34299,47.62811],[10.34201,47.62783],[10.3417,47.6277],[10.34142,47.62751],[10.34118,47.62742],[10.34014,47.62717],[10.33972,47.62709],[10.33852,47.627],[10.33705,47.62694],[10.33676,47.62692],[10.33633,47.62672],[10.33574,47.62651],[10.3354,47.62637],[10.33528,47.62627],[10.33527,47.62615]],"type":"LineString"},"properties":{"quelle":"OSRM router.project-osrm.org, Profil driving","von":[47.559,10.217],"nach":[47.626,10.33461],"distanz_m":17947,"dauer_s":1732.7,"punkte":683}}
