{
 "type": "Feature",
 "geometry": {
  "coordinates": [
   [
    10.243885,
    47.54737
   ],
   [
    10.243822,
    47.54736
   ],
   [
    10.243708,
    47.547276
   ],
   [
    10.243749,
    47.547159
   ],
   [
    10.243719,
    47.547062
   ],
   [
    10.243609,
    47.546988
   ],
   [
    10.243554,
    47.546954
   ],
   [
    10.24398,
    47.546664
   ],
   [
    10.244481,
    47.546321
   ],
   [
    10.244633,
    47.54621
   ],
   [
    10.244742,
    47.546114
   ],
   [
    10.245023,
    47.545794
   ],
   [
    10.245142,
    47.545695
   ],
   [
    10.245254,
    47.545644
   ],
   [
    10.245422,
    47.545594
   ],
   [
    10.245631,
    47.545534
   ],
   [
    10.245896,
    47.545426
   ],
   [
    10.246141,
    47.545365
   ],
   [
    10.246382,
    47.545316
   ],
   [
    10.246991,
    47.545217
   ],
   [
    10.247196,
    47.545173
   ],
   [
    10.247382,
    47.545117
   ],
   [
    10.247544,
    47.545054
   ],
   [
    10.247664,
    47.54499
   ],
   [
    10.247859,
    47.544873
   ],
   [
    10.248058,
    47.544729
   ],
   [
    10.248204,
    47.54462
   ],
   [
    10.248675,
    47.54434
   ],
   [
    10.248968,
    47.544207
   ],
   [
    10.249709,
    47.544027
   ],
   [
    10.249998,
    47.543877
   ],
   [
    10.250218,
    47.54376
   ],
   [
    10.25047,
    47.543664
   ],
   [
    10.250975,
    47.54358
   ],
   [
    10.252845,
    47.543641
   ],
   [
    10.253318,
    47.543646
   ],
   [
    10.253968,
    47.543656
   ],
   [
    10.254528,
    47.543553
   ],
   [
    10.254901,
    47.543499
   ],
   [
    10.255276,
    47.543484
   ],
   [
    10.255892,
    47.543557
   ],
   [
    10.256174,
    47.543574
   ],
   [
    10.256514,
    47.543578
   ],
   [
    10.256883,
    47.543576
   ],
   [
    10.257115,
    47.543573
   ],
   [
    10.257333,
    47.543575
   ],
   [
    10.257412,
    47.543563
   ],
   [
    10.25749,
    47.543541
   ],
   [
    10.257611,
    47.543485
   ],
   [
    10.257664,
    47.543449
   ],
   [
    10.257716,
    47.5434
   ],
   [
    10.257771,
    47.543321
   ],
   [
    10.257799,
    47.543256
   ],
   [
    10.25784,
    47.543098
   ],
   [
    10.25785,
    47.542986
   ],
   [
    10.257849,
    47.542846
   ],
   [
    10.257857,
    47.542791
   ],
   [
    10.257891,
    47.542744
   ],
   [
    10.257951,
    47.542702
   ],
   [
    10.258046,
    47.542667
   ],
   [
    10.25804,
    47.542653
   ],
   [
    10.258039,
    47.542615
   ],
   [
    10.258054,
    47.542577
   ],
   [
    10.258085,
    47.542545
   ],
   [
    10.258076,
    47.542322
   ],
   [
    10.25804,
    47.542032
   ],
   [
    10.258039,
    47.541992
   ],
   [
    10.25802,
    47.541363
   ],
   [
    10.258017,
    47.54128
   ],
   [
    10.258012,
    47.541135
   ],
   [
    10.257997,
    47.540909
   ],
   [
    10.257923,
    47.540366
   ],
   [
    10.257847,
    47.539939
   ],
   [
    10.25782,
    47.539738
   ],
   [
    10.257825,
    47.539576
   ],
   [
    10.257869,
    47.539357
   ],
   [
    10.257934,
    47.539115
   ],
   [
    10.257937,
    47.539102
   ],
   [
    10.258051,
    47.538822
   ],
   [
    10.258117,
    47.538648
   ],
   [
    10.258166,
    47.53835
   ],
   [
    10.258171,
    47.538326
   ],
   [
    10.258173,
    47.538146
   ],
   [
    10.258173,
    47.537851
   ],
   [
    10.258093,
    47.537368
   ],
   [
    10.258088,
    47.537168
   ],
   [
    10.258118,
    47.536883
   ],
   [
    10.258203,
    47.536497
   ],
   [
    10.25822,
    47.536407
   ],
   [
    10.258263,
    47.536142
   ],
   [
    10.258267,
    47.535861
   ],
   [
    10.2582,
    47.535653
   ],
   [
    10.257948,
    47.535248
   ],
   [
    10.257805,
    47.534958
   ],
   [
    10.257724,
    47.534683
   ],
   [
    10.257678,
    47.534103
   ],
   [
    10.25758,
    47.533202
   ],
   [
    10.25754,
    47.532816
   ],
   [
    10.257507,
    47.532433
   ],
   [
    10.257558,
    47.532027
   ],
   [
    10.25766,
    47.531549
   ],
   [
    10.257747,
    47.531107
   ],
   [
    10.257793,
    47.530849
   ],
   [
    10.257803,
    47.530645
   ],
   [
    10.257789,
    47.530405
   ],
   [
    10.257758,
    47.530261
   ],
   [
    10.257685,
    47.530051
   ],
   [
    10.257642,
    47.529962
   ],
   [
    10.257595,
    47.529876
   ],
   [
    10.257433,
    47.529587
   ],
   [
    10.257331,
    47.529369
   ],
   [
    10.257279,
    47.529134
   ],
   [
    10.257258,
    47.528921
   ],
   [
    10.257286,
    47.528505
   ],
   [
    10.257354,
    47.528242
   ],
   [
    10.257446,
    47.527999
   ],
   [
    10.257481,
    47.527907
   ],
   [
    10.257577,
    47.527763
   ],
   [
    10.257707,
    47.527551
   ],
   [
    10.25775,
    47.52748
   ],
   [
    10.258305,
    47.5269
   ],
   [
    10.258869,
    47.526354
   ],
   [
    10.259214,
    47.525829
   ],
   [
    10.259278,
    47.525732
   ],
   [
    10.259656,
    47.525217
   ],
   [
    10.260126,
    47.524881
   ],
   [
    10.260444,
    47.524711
   ],
   [
    10.260524,
    47.524673
   ],
   [
    10.261006,
    47.524418
   ],
   [
    10.261149,
    47.524343
   ],
   [
    10.261272,
    47.524279
   ],
   [
    10.261593,
    47.5241
   ],
   [
    10.261619,
    47.524086
   ],
   [
    10.261714,
    47.524034
   ],
   [
    10.261836,
    47.523925
   ],
   [
    10.261866,
    47.523899
   ],
   [
    10.261986,
    47.523791
   ],
   [
    10.262058,
    47.523733
   ],
   [
    10.262226,
    47.523577
   ],
   [
    10.262687,
    47.523164
   ],
   [
    10.262898,
    47.522975
   ],
   [
    10.263552,
    47.522376
   ],
   [
    10.263881,
    47.52208
   ],
   [
    10.264258,
    47.52173
   ],
   [
    10.264686,
    47.521347
   ],
   [
    10.264873,
    47.521204
   ],
   [
    10.265206,
    47.520991
   ],
   [
    10.265532,
    47.520821
   ],
   [
    10.265779,
    47.52071
   ],
   [
    10.266193,
    47.520522
   ],
   [
    10.266199,
    47.52052
   ],
   [
    10.266435,
    47.520447
   ],
   [
    10.266746,
    47.52037
   ],
   [
    10.267299,
    47.520232
   ],
   [
    10.26738,
    47.52019
   ],
   [
    10.267456,
    47.520159
   ],
   [
    10.267506,
    47.520143
   ],
   [
    10.267571,
    47.520126
   ],
   [
    10.267571,
    47.520078
   ],
   [
    10.267592,
    47.520033
   ],
   [
    10.267637,
    47.519986
   ],
   [
    10.267684,
    47.519965
   ],
   [
    10.267744,
    47.51995
   ],
   [
    10.267805,
    47.519946
   ],
   [
    10.267865,
    47.519952
   ],
   [
    10.267934,
    47.519974
   ],
   [
    10.267989,
    47.52001
   ],
   [
    10.268023,
    47.520056
   ],
   [
    10.268099,
    47.520118
   ],
   [
    10.268159,
    47.520145
   ],
   [
    10.268244,
    47.52018
   ],
   [
    10.268315,
    47.520227
   ],
   [
    10.268407,
    47.520243
   ],
   [
    10.268533,
    47.520264
   ],
   [
    10.268637,
    47.520277
   ],
   [
    10.268714,
    47.520283
   ],
   [
    10.268747,
    47.520284
   ],
   [
    10.269098,
    47.520299
   ],
   [
    10.269346,
    47.520304
   ],
   [
    10.269454,
    47.520307
   ],
   [
    10.26969,
    47.520308
   ],
   [
    10.270882,
    47.520328
   ],
   [
    10.271044,
    47.520337
   ],
   [
    10.27142,
    47.52035
   ],
   [
    10.271942,
    47.520364
   ],
   [
    10.272183,
    47.520365
   ],
   [
    10.272499,
    47.52038
   ],
   [
    10.272909,
    47.520389
   ],
   [
    10.274156,
    47.520412
   ],
   [
    10.274474,
    47.520418
   ],
   [
    10.275065,
    47.520429
   ],
   [
    10.275478,
    47.520438
   ],
   [
    10.275771,
    47.520435
   ],
   [
    10.276669,
    47.520412
   ],
   [
    10.276689,
    47.520412
   ],
   [
    10.277312,
    47.520383
   ],
   [
    10.277745,
    47.52033
   ],
   [
    10.278081,
    47.52028
   ],
   [
    10.278724,
    47.520188
   ],
   [
    10.278841,
    47.520168
   ],
   [
    10.279174,
    47.520103
   ],
   [
    10.280757,
    47.519802
   ],
   [
    10.281275,
    47.519703
   ],
   [
    10.281382,
    47.519683
   ],
   [
    10.281433,
    47.519673
   ],
   [
    10.28159,
    47.519555
   ],
   [
    10.28167,
    47.519405
   ],
   [
    10.281674,
    47.519181
   ],
   [
    10.281511,
    47.518795
   ],
   [
    10.281418,
    47.518533
   ],
   [
    10.28133,
    47.518286
   ],
   [
    10.281318,
    47.518255
   ],
   [
    10.281309,
    47.518228
   ],
   [
    10.281296,
    47.518192
   ],
   [
    10.28125,
    47.518062
   ],
   [
    10.281124,
    47.517712
   ],
   [
    10.281015,
    47.517127
   ],
   [
    10.280996,
    47.516648
   ],
   [
    10.281002,
    47.516557
   ],
   [
    10.281053,
    47.516375
   ],
   [
    10.281164,
    47.516149
   ],
   [
    10.281276,
    47.515923
   ],
   [
    10.281332,
    47.515784
   ],
   [
    10.281317,
    47.515261
   ],
   [
    10.281121,
    47.515271
   ],
   [
    10.281013,
    47.515277
   ],
   [
    10.280969,
    47.515073
   ]
  ],
  "type": "LineString"
 },
 "properties": {
  "quelle": "OSRM router.project-osrm.org, Profil driving",
  "von": [
   47.548,
   10.244
  ],
  "nach": [
   47.515,
   10.281
  ],
  "distanz_m": 5833.3,
  "dauer_s": 531.7,
  "punkte": 227
 }
}
