{"type":"Feature","geometry":{"coordinates":[[10.27808,47.51319],[10.27805,47.51276],[10.27764,47.5128],[10.27744,47.51282],[10.27695,47.51288],[10.27675,47.51287],[10.27664,47.51287],[10.27652,47.51286],[10.27628,47.51289],[10.27595,47.51299],[10.27577,47.51272],[10.27553,47.51167],[10.27544,47.51128],[10.27536,47.5109],[10.27543,47.51039],[10.27545,47.51031],[10.27553,47.51004],[10.27568,47.50959],[10.27575,47.50946],[10.27607,47.50888],[10.27608,47.50872],[10.27605,47.5087],[10.27601,47.50867],[10.276,47.50865],[10.276,47.50863],[10.276,47.50859],[10.27601,47.50855],[10.27599,47.50847],[10.27591,47.50833],[10.27573,47.50817],[10.27545,47.50796],[10.27515,47.50773],[10.27492,47.50756],[10.2744,47.50719],[10.27423,47.50712],[10.27417,47.50711],[10.27406,47.50708],[10.27385,47.50706],[10.27361,47.50705],[10.27345,47.50707],[10.27335,47.5071],[10.27319,47.50719],[10.27312,47.50722],[10.27299,47.50729],[10.27269,47.50754],[10.27247,47.50775],[10.27219,47.50817],[10.27207,47.50837],[10.27197,47.50858],[10.27187,47.50884],[10.27182,47.50907],[10.27171,47.50945],[10.27171,47.50991],[10.27169,47.51015],[10.27166,47.51065],[10.2716,47.51102],[10.27154,47.51144],[10.27146,47.51195],[10.27135,47.51262],[10.27131,47.51285],[10.27119,47.5135],[10.27106,47.51412],[10.27104,47.5142],[10.27092,47.51475],[10.27082,47.51512],[10.27071,47.51546],[10.27072,47.51565],[10.27061,47.5159],[10.27059,47.51594],[10.27057,47.51599],[10.27048,47.51618],[10.27027,47.51662],[10.27011,47.5169],[10.26992,47.51725],[10.26969,47.51767],[10.26964,47.51778],[10.26956,47.51799],[10.26947,47.51821],[10.26943,47.51833],[10.26941,47.51841],[10.26938,47.51852],[10.26928,47.51889],[10.2692,47.51955],[10.26914,47.52007],[10.26911,47.52053],[10.26898,47.52156],[10.26887,47.52205],[10.26877,47.52241],[10.26867,47.52275],[10.26855,47.52315],[10.26827,47.52415],[10.26819,47.52444],[10.26793,47.5253],[10.26775,47.52598],[10.26761,47.52647],[10.26727,47.52798],[10.2672,47.52826],[10.26712,47.52867],[10.26695,47.52958],[10.26682,47.5305],[10.26677,47.53106],[10.26673,47.53163],[10.26672,47.53252],[10.26674,47.53324],[10.26678,47.53408],[10.26693,47.53556],[10.26704,47.53646],[10.26717,47.53738],[10.26746,47.53919],[10.26756,47.53985],[10.26765,47.54058],[10.26771,47.54131],[10.26772,47.54169],[10.26772,47.54206],[10.26769,47.54236],[10.26764,47.54273],[10.26757,47.54308],[10.26746,47.54351],[10.26731,47.54391],[10.26713,47.5443],[10.26689,47.54473],[10.26654,47.54525],[10.26613,47.54576],[10.26565,47.54626],[10.26534,47.54654],[10.26509,47.54677],[10.26441,47.5473],[10.2638,47.54774],[10.26309,47.54822],[10.26164,47.54919],[10.26058,47.54987],[10.25791,47.55162],[10.25495,47.55357],[10.25355,47.5545],[10.25183,47.55562],[10.25143,47.55588],[10.25118,47.55605],[10.25034,47.5566],[10.24983,47.55693],[10.24945,47.55719],[10.24886,47.55756],[10.24853,47.55791],[10.24841,47.55808],[10.24838,47.55815],[10.24838,47.55824],[10.24842,47.55834],[10.2485,47.55843],[10.2486,47.55847],[10.24872,47.5585],[10.24882,47.5585],[10.24889,47.5585],[10.249,47.55848],[10.24913,47.55842],[10.24941,47.55822],[10.24946,47.55814],[10.24952,47.55807],[10.24949,47.55793],[10.24945,47.55779],[10.24935,47.55774],[10.24922,47.55765],[10.2489,47.55743],[10.24872,47.55729],[10.24846,47.55704],[10.24835,47.55695],[10.24825,47.55685],[10.24818,47.55679],[10.24815,47.55676],[10.24811,47.55676],[10.24807,47.55676],[10.24803,47.55675],[10.248,47.55673],[10.24797,47.55672],[10.24794,47.5567],[10.24791,47.55665],[10.2479,47.5566],[10.24791,47.55655],[10.24793,47.55653],[10.24796,47.5565],[10.24791,47.55638],[10.2479,47.55631],[10.24776,47.55615],[10.24752,47.55584],[10.24706,47.55545],[10.24657,47.55516],[10.24615,47.55497],[10.24559,47.55476],[10.24536,47.55469],[10.24516,47.55465],[10.24473,47.55456],[10.24434,47.55452],[10.24403,47.55449],[10.24372,47.55448],[10.24325,47.55449],[10.24276,47.55453],[10.24217,47.55464],[10.24166,47.55477],[10.24107,47.55497],[10.24047,47.55519],[10.23975,47.55546],[10.239,47.55571],[10.23884,47.55576],[10.23841,47.55586],[10.2378,47.55597],[10.23726,47.55603],[10.23668,47.55606],[10.23635,47.55606],[10.23621,47.55605],[10.23587,47.55603],[10.2353,47.55598],[10.2349,47.55591],[10.23457,47.55584],[10.23428,47.55575],[10.23423,47.55574],[10.23386,47.55559],[10.23273,47.55504],[10.2327,47.55503],[10.23249,47.55492],[10.23201,47.5547],[10.23188,47.55466],[10.23179,47.55464],[10.23174,47.55461],[10.23171,47.55463],[10.23167,47.55463],[10.23163,47.55463],[10.2316,47.55463],[10.23148,47.55468],[10.23133,47.55473],[10.23127,47.55476],[10.23107,47.55487],[10.231,47.55491],[10.2309,47.55497],[10.23052,47.55521],[10.23044,47.55527],[10.23037,47.55533],[10.23007,47.55553],[10.22973,47.55577],[10.2297,47.55579],[10.22951,47.55592],[10.2294,47.55599],[10.22891,47.55633],[10.22842,47.55655],[10.22757,47.55686],[10.22754,47.55688],[10.2266,47.55716],[10.22653,47.55719],[10.22592,47.55738],[10.22575,47.55743],[10.22565,47.55746],[10.2256,47.55748],[10.22513,47.55763],[10.22487,47.55767],[10.22466,47.55769],[10.22439,47.55768],[10.22387,47.55768],[10.22354,47.55771],[10.22329,47.55776],[10.22299,47.55782],[10.22292,47.55784],[10.22272,47.55792],[10.22266,47.55794],[10.22242,47.55805],[10.22189,47.55825],[10.22181,47.55827],[10.22158,47.55833],[10.22138,47.55836],[10.22108,47.55837],[10.22092,47.55837],[10.22048,47.55834],[10.22012,47.55834],[10.21976,47.55835],[10.21922,47.55841],[10.2188,47.55847],[10.21858,47.55851],[10.21829,47.55855],[10.218,47.5586],[10.21733,47.5587],[10.2172,47.55871],[10.2166,47.55881],[10.21671,47.55891],[10.21695,47.55887]],"type":"LineString"},"properties":{"quelle":"OSRM router.project-osrm.org, Profil driving","von":[47.51337,10.27813],"nach":[47.559,10.217],"distanz_m":10378.5,"dauer_s":688.4,"punkte":280}}
