{"type":"Feature","geometry":{"coordinates":[[10.24972,47.54573],[10.24946,47.54568],[10.24907,47.54559],[10.2488,47.54546],[10.24852,47.54525],[10.24806,47.54473],[10.24786,47.54487],[10.24766,47.54499],[10.24754,47.54505],[10.24738,47.54512],[10.2472,47.54517],[10.24699,47.54522],[10.24638,47.54532],[10.24614,47.54536],[10.2459,47.54543],[10.24563,47.54553],[10.24542,47.54559],[10.24525,47.54564],[10.24514,47.5457],[10.24502,47.54579],[10.24474,47.54611],[10.24463,47.54621],[10.24448,47.54632],[10.24398,47.54666],[10.24355,47.54695],[10.24331,47.54711],[10.24316,47.5472],[10.24288,47.54736],[10.24283,47.54739],[10.24268,47.54752],[10.24256,47.5477],[10.24246,47.54782],[10.2424,47.54787],[10.2423,47.5479],[10.24216,47.5479],[10.24198,47.54788],[10.24184,47.54785],[10.2418,47.54785],[10.24167,47.54785],[10.24155,47.54787],[10.24147,47.54791],[10.24143,47.54801],[10.24149,47.54814],[10.24174,47.54837],[10.24186,47.54849],[10.24191,47.54857],[10.24189,47.54864],[10.24182,47.54869],[10.24172,47.5487],[10.24157,47.54871],[10.24142,47.54868],[10.24127,47.54867],[10.2409,47.54871],[10.24053,47.54878],[10.24039,47.54883],[10.24028,47.54888],[10.24016,47.549],[10.24009,47.54913],[10.2401,47.54931],[10.24013,47.54942],[10.24019,47.54959],[10.24026,47.54975],[10.24027,47.54992],[10.24024,47.55008],[10.24016,47.55021],[10.24011,47.55037],[10.2401,47.55038],[10.24005,47.55053],[10.24004,47.55058],[10.23978,47.55058],[10.23957,47.55059],[10.23922,47.55059],[10.23874,47.55061],[10.2382,47.55067],[10.23742,47.5508],[10.23686,47.55092],[10.23669,47.55098],[10.23586,47.55126],[10.23512,47.55155],[10.23432,47.55185],[10.23425,47.55187],[10.23403,47.55196],[10.23383,47.55203],[10.2337,47.55208],[10.2333,47.55221],[10.23292,47.55233],[10.23278,47.55238],[10.23242,47.55249],[10.2321,47.55259],[10.23176,47.55271],[10.23165,47.55275],[10.2315,47.55282],[10.23115,47.55298],[10.23111,47.553],[10.23093,47.55311],[10.23085,47.55316],[10.23074,47.55326],[10.23067,47.55332],[10.23068,47.55336],[10.23067,47.55339],[10.23065,47.55342],[10.23061,47.55345],[10.23059,47.55353],[10.23058,47.55354],[10.23058,47.55365],[10.23062,47.55381],[10.23069,47.55395],[10.2308,47.55404],[10.23092,47.55414],[10.23131,47.55434],[10.23148,47.55439],[10.23149,47.55439],[10.23155,47.55441],[10.23157,47.55442],[10.23161,47.55441],[10.23165,47.55441],[10.23168,47.55441],[10.23171,47.55442],[10.23174,47.55443],[10.23177,47.55444],[10.23179,47.55446],[10.23181,47.55448],[10.23182,47.55451],[10.23182,47.55453],[10.23193,47.55462],[10.23201,47.5547],[10.23249,47.55492],[10.2327,47.55503],[10.23273,47.55504],[10.23386,47.55559],[10.23423,47.55574],[10.23428,47.55575],[10.23457,47.55584],[10.2349,47.55591],[10.2353,47.55598],[10.23587,47.55603],[10.23621,47.55605],[10.23635,47.55606],[10.23668,47.55606],[10.23726,47.55603],[10.2378,47.55597],[10.23841,47.55586],[10.23884,47.55576],[10.239,47.55571],[10.23975,47.55546],[10.24047,47.55519],[10.24107,47.55497],[10.24166,47.55477],[10.24217,47.55464],[10.24276,47.55453],[10.24325,47.55449],[10.24372,47.55448],[10.24403,47.55449],[10.24434,47.55452],[10.24473,47.55456],[10.24516,47.55465],[10.24536,47.55469],[10.24559,47.55476],[10.24615,47.55497],[10.24657,47.55516],[10.24706,47.55545],[10.24752,47.55584],[10.24776,47.55615],[10.2479,47.55631],[10.24797,47.55636],[10.24805,47.55643],[10.24808,47.55646],[10.24814,47.55646],[10.24822,47.55647],[10.24827,47.55649],[10.2483,47.55651],[10.24833,47.55654],[10.24835,47.55658],[10.24835,47.55663],[10.24833,47.55667],[10.24829,47.55671],[10.24832,47.55677],[10.24842,47.55691],[10.24846,47.55704],[10.24872,47.55729],[10.2489,47.55743],[10.24922,47.55765],[10.24935,47.55774],[10.24945,47.55779],[10.24973,47.55793],[10.24969,47.55803],[10.24964,47.55812],[10.24953,47.55818],[10.24941,47.55822],[10.24913,47.55842],[10.249,47.55848],[10.24889,47.5585],[10.24882,47.5585],[10.24872,47.5585],[10.2486,47.55847],[10.2485,47.55843],[10.24821,47.55834],[10.24805,47.55832],[10.2479,47.55833],[10.24761,47.55839],[10.2467,47.55899],[10.24561,47.55971],[10.24498,47.56014],[10.24454,47.56046],[10.24399,47.56088],[10.24367,47.56115],[10.24319,47.56157],[10.24279,47.56196],[10.24264,47.56212],[10.24246,47.56231],[10.24208,47.56276],[10.24183,47.56311],[10.24164,47.56342],[10.24146,47.56375],[10.24126,47.56421],[10.24113,47.56461],[10.24105,47.56501],[10.241,47.56527],[10.24098,47.56561],[10.24099,47.56602],[10.24103,47.56637],[10.2411,47.5667],[10.24115,47.56691],[10.24126,47.56721],[10.24137,47.56749],[10.2415,47.56777],[10.24166,47.56806],[10.24172,47.56816],[10.24187,47.56839],[10.24211,47.56871],[10.24242,47.56905],[10.24269,47.56933],[10.24292,47.56953],[10.24314,47.56971],[10.2436,47.57005],[10.24394,47.57028],[10.24433,47.57052],[10.2447,47.57072],[10.24513,47.57093],[10.24577,47.5712],[10.24687,47.57172],[10.24737,47.572],[10.24775,47.57226],[10.24809,47.57252],[10.24856,47.57296],[10.24896,47.57339],[10.2492,47.5737],[10.24943,47.57406],[10.24955,47.57429],[10.24969,47.57465],[10.24979,47.57494],[10.24994,47.57581],[10.24995,47.57604],[10.24996,47.57616],[10.24994,47.57632],[10.24989,47.57686],[10.24981,47.57775],[10.24981,47.57815],[10.24983,47.57853],[10.24989,47.57896],[10.24997,47.57928],[10.25007,47.57959],[10.25023,47.58001],[10.2504,47.58035],[10.25061,47.5807],[10.2508,47.58103],[10.25099,47.58129],[10.25108,47.58141],[10.25139,47.58179],[10.25194,47.58242],[10.25253,47.58305],[10.25336,47.58395],[10.25424,47.58488],[10.2571,47.58796],[10.25845,47.5894],[10.2594,47.59041],[10.26068,47.59178],[10.26163,47.59281],[10.26213,47.59334],[10.26255,47.59379],[10.2629,47.59414],[10.26332,47.59455],[10.26369,47.59488],[10.26411,47.59524],[10.26498,47.59591],[10.26594,47.59655],[10.2673,47.59741],[10.26783,47.59777],[10.2687,47.59843],[10.26911,47.59875],[10.26954,47.59914],[10.27026,47.59984],[10.27072,47.60032],[10.27108,47.60074],[10.27133,47.60105],[10.27156,47.60138],[10.27176,47.60167],[10.27198,47.602],[10.27223,47.60242],[10.27251,47.60298],[10.27282,47.60364],[10.273,47.60408],[10.27315,47.60453],[10.27328,47.60501],[10.27334,47.60534],[10.27347,47.606],[10.27364,47.6073],[10.27364,47.60746],[10.27369,47.60806],[10.27374,47.60849],[10.27381,47.60932],[10.27391,47.6103],[10.27396,47.61082],[10.27405,47.61129],[10.27413,47.61171],[10.27422,47.61207],[10.27446,47.61281],[10.27484,47.61383],[10.27501,47.61427],[10.27526,47.61496],[10.27557,47.6159],[10.27571,47.61645],[10.2758,47.61689],[10.27592,47.61757],[10.27594,47.61771],[10.27599,47.61812],[10.27604,47.6186],[10.27618,47.61985],[10.27631,47.62082],[10.27653,47.62212],[10.27668,47.62273],[10.27688,47.62346],[10.27714,47.62429],[10.2773,47.6247],[10.27754,47.62535],[10.27782,47.62601],[10.27824,47.62686],[10.27843,47.62726],[10.27873,47.62782],[10.2792,47.62862],[10.27957,47.62921],[10.27974,47.62949],[10.28032,47.63043],[10.28102,47.63156],[10.28157,47.63244],[10.28205,47.63318],[10.28226,47.63348],[10.28249,47.63378],[10.28289,47.63423],[10.28323,47.63459],[10.28363,47.63499],[10.28439,47.63567],[10.28538,47.63659],[10.28559,47.63679],[10.2858,47.63702],[10.28598,47.63723],[10.28614,47.63746],[10.2863,47.6377],[10.28642,47.63793],[10.28653,47.63815],[10.28665,47.63843],[10.28673,47.63867],[10.28682,47.63903],[10.28689,47.63939],[10.28701,47.64003],[10.28707,47.64027],[10.28716,47.64059],[10.28731,47.64104],[10.28746,47.64136],[10.28757,47.64159],[10.28774,47.64189],[10.28791,47.64217],[10.28807,47.64239],[10.28852,47.64294],[10.28904,47.64349],[10.28933,47.64375],[10.28978,47.6441],[10.28985,47.64415],[10.29039,47.64455],[10.29114,47.64507],[10.29195,47.6456],[10.29278,47.64616],[10.29359,47.64674],[10.29389,47.64699],[10.29413,47.64719],[10.29438,47.64742],[10.29458,47.64761],[10.29481,47.64785],[10.29482,47.64787],[10.29522,47.64837],[10.2953,47.64848],[10.29551,47.64884],[10.29569,47.64921],[10.29577,47.64942],[10.29587,47.64968],[10.29596,47.65013],[10.29601,47.65065],[10.29597,47.65219],[10.296,47.65273],[10.2961,47.65324],[10.29624,47.65365],[10.29642,47.65405],[10.29675,47.65458],[10.29735,47.6554],[10.29774,47.65596],[10.29791,47.65625],[10.29807,47.65654],[10.2982,47.65685],[10.2984,47.65736],[10.29854,47.65787],[10.29861,47.65822],[10.29866,47.65857],[10.29868,47.65915],[10.29868,47.65973],[10.29867,47.66067],[10.2987,47.66135],[10.29875,47.66172],[10.29891,47.6624],[10.29915,47.66328],[10.29924,47.66378],[10.2993,47.66415],[10.2993,47.66472],[10.29925,47.66521],[10.29913,47.6657],[10.29883,47.66644],[10.29868,47.66679],[10.29842,47.66733],[10.29838,47.66742],[10.29826,47.66775],[10.29819,47.66801],[10.29813,47.66835],[10.2981,47.66873],[10.29811,47.6691],[10.29815,47.66933],[10.29825,47.66963],[10.29846,47.67017],[10.29868,47.67054],[10.29895,47.6709],[10.29926,47.67124],[10.29983,47.67173],[10.30017,47.67201],[10.30056,47.67234],[10.3008,47.67259],[10.301,47.67282],[10.30118,47.67307],[10.30135,47.67337],[10.30146,47.67362],[10.30153,47.67383],[10.30161,47.67409],[10.30166,47.67432],[10.30182,47.67529],[10.30187,47.67544],[10.30193,47.67567],[10.30198,47.67583],[10.3021,47.67609],[10.30222,47.67627],[10.30232,47.67642],[10.30255,47.67671],[10.30274,47.67692],[10.30292,47.67709],[10.30349,47.6776],[10.3037,47.67781],[10.3039,47.67802],[10.30411,47.67829],[10.30426,47.67856],[10.30432,47.67867],[10.30437,47.67879],[10.30441,47.67888],[10.30444,47.67896],[10.30452,47.67921],[10.30457,47.67945],[10.30454,47.67961],[10.30466,47.67997],[10.30473,47.68018],[10.30476,47.68028],[10.30482,47.68046],[10.30488,47.68065],[10.30499,47.68091],[10.30508,47.68113],[10.30514,47.68128],[10.30519,47.68141],[10.30523,47.68149],[10.30527,47.68158],[10.3053,47.68166],[10.3054,47.68192],[10.30546,47.68206],[10.30582,47.68282],[10.30593,47.683],[10.30609,47.68318],[10.30631,47.6834],[10.30652,47.6836],[10.30734,47.68418],[10.30747,47.68427],[10.30768,47.68445],[10.30771,47.68447],[10.30778,47.68454],[10.30786,47.68462],[10.30807,47.68484],[10.30822,47.68503],[10.30841,47.68527],[10.30864,47.68565],[10.30873,47.6858],[10.30898,47.6862],[10.30911,47.68636],[10.30922,47.6865],[10.30924,47.68653],[10.30931,47.68663],[10.30936,47.6867],[10.30942,47.68677],[10.3097,47.68715],[10.30979,47.68727],[10.30984,47.68734],[10.31007,47.68767],[10.31035,47.68818],[10.31058,47.6887],[10.31069,47.68912],[10.31072,47.68935],[10.31071,47.68962],[10.3106,47.69043],[10.31058,47.69091],[10.31059,47.69113],[10.3106,47.69132],[10.31077,47.69194],[10.31089,47.69219],[10.31129,47.69295],[10.31135,47.69305],[10.3114,47.69313],[10.31152,47.69333],[10.31155,47.69338],[10.3121,47.69425],[10.31221,47.69456],[10.31227,47.69502],[10.31228,47.69587],[10.31229,47.69602],[10.31231,47.69618],[10.31234,47.69634],[10.31239,47.69647],[10.31245,47.6966],[10.31257,47.69683],[10.31268,47.69704],[10.31279,47.69722],[10.31292,47.69745],[10.31294,47.69751],[10.313,47.69763],[10.31307,47.6978],[10.3131,47.69793],[10.31312,47.69804],[10.31315,47.69826],[10.31315,47.69851],[10.31314,47.69881],[10.31309,47.69923],[10.31298,47.70011],[10.31291,47.70079],[10.31289,47.70112],[10.31288,47.70143],[10.31288,47.70175],[10.31289,47.70196],[10.3129,47.7022],[10.31291,47.70253],[10.31292,47.70267],[10.31292,47.70284],[10.31292,47.70287],[10.31293,47.70318],[10.31291,47.70357],[10.31287,47.70392],[10.31283,47.70417],[10.31281,47.70427],[10.31278,47.70439],[10.31275,47.7045],[10.31259,47.70492],[10.31244,47.70533],[10.31229,47.70588],[10.3121,47.70629],[10.31203,47.70643],[10.31197,47.70656],[10.31189,47.70672],[10.31184,47.70685],[10.31177,47.70712],[10.31174,47.70729],[10.31169,47.70763],[10.3117,47.70799],[10.31172,47.70815],[10.31176,47.7083],[10.31178,47.70834],[10.31192,47.7086],[10.31216,47.70891],[10.31249,47.70927],[10.31271,47.70949],[10.31313,47.70992],[10.31325,47.71004],[10.31344,47.71022],[10.31366,47.71043],[10.31385,47.7106],[10.31405,47.71081],[10.31418,47.71095],[10.31435,47.71117],[10.31446,47.71131],[10.31472,47.7117],[10.31492,47.71211],[10.31508,47.71253],[10.31521,47.71314],[10.31527,47.71375],[10.31526,47.71401],[10.31526,47.71408],[10.31524,47.71417],[10.31519,47.71449],[10.31514,47.71472],[10.31517,47.7148],[10.31518,47.71491],[10.31519,47.71499],[10.31521,47.71504],[10.31525,47.7151],[10.3154,47.71522],[10.31545,47.71528],[10.31592,47.71544],[10.31677,47.71567],[10.31713,47.71574],[10.3172,47.71576],[10.31734,47.71577],[10.31757,47.7158],[10.31778,47.71582],[10.31803,47.71583],[10.31829,47.71583],[10.31863,47.71582],[10.31898,47.71578],[10.31932,47.71572],[10.31964,47.71566],[10.31989,47.71562],[10.32017,47.71556],[10.32035,47.71552],[10.32039,47.71563],[10.32041,47.71569],[10.32041,47.71574],[10.32039,47.71592],[10.32029,47.71604],[10.32024,47.71611],[10.32026,47.71625],[10.32026,47.7163],[10.32031,47.71637],[10.32039,47.71642],[10.32052,47.71648],[10.32062,47.71649],[10.32081,47.71651],[10.32104,47.71654],[10.32114,47.71656],[10.32129,47.71658],[10.32139,47.71661],[10.32144,47.71665],[10.32151,47.71672],[10.32154,47.71679],[10.32156,47.7169],[10.32158,47.71727],[10.32157,47.71773],[10.32156,47.71782],[10.32152,47.71808],[10.32142,47.71843],[10.32163,47.71846],[10.3218,47.71848],[10.32204,47.71845],[10.3219,47.71801]],"type":"LineString"},"properties":{"quelle":"OSRM router.project-osrm.org, Profil driving","von":[47.545,10.25],"nach":[47.718,10.322],"distanz_m":24092.9,"dauer_s":1336.8,"punkte":660}}
