{"type":"Feature","geometry":{"coordinates":[[10.28274,47.51337],[10.28261,47.51319],[10.28246,47.51296],[10.28232,47.51299],[10.2821,47.51303],[10.28187,47.51306],[10.28103,47.51308],[10.28088,47.51308],[10.28089,47.51325],[10.28092,47.51341],[10.28097,47.51367],[10.2811,47.51408],[10.28115,47.5142],[10.28119,47.51439],[10.28124,47.51457],[10.28126,47.51476],[10.28128,47.51493],[10.2813,47.51512],[10.28132,47.51526],[10.28112,47.51527],[10.28101,47.51528],[10.28097,47.51507]],"type":"LineString"},"properties":{"quelle":"OSRM router.project-osrm.org, Profil driving","von":[47.51365,10.28258],"nach":[47.515,10.281],"distanz_m":462.5,"dauer_s":78.2,"punkte":22}}
