{"type":"Feature","geometry":{"coordinates":[[10.22044,47.43833],[10.22111,47.43858],[10.22145,47.43876],[10.22176,47.43899],[10.22192,47.4391],[10.22207,47.43917],[10.2224,47.43927],[10.22259,47.43932],[10.22292,47.43936],[10.22316,47.43938],[10.2234,47.43936],[10.22349,47.43937],[10.22358,47.43939],[10.22376,47.43947],[10.22398,47.43963],[10.22412,47.43969],[10.22432,47.43973],[10.22457,47.43974],[10.22487,47.43975],[10.22502,47.4398],[10.22522,47.43988],[10.22548,47.44005],[10.22564,47.44013],[10.22587,47.44019],[10.22609,47.44019],[10.22654,47.44012],[10.22673,47.44013],[10.22697,47.44019],[10.22712,47.44026],[10.22727,47.44035],[10.22746,47.44046],[10.22769,47.44052],[10.22801,47.44061],[10.22812,47.44065],[10.22821,47.44068],[10.2284,47.44078],[10.2286,47.4409],[10.22896,47.44114],[10.22927,47.44139],[10.22936,47.44148],[10.22947,47.44161],[10.22954,47.44168],[10.22959,47.4418],[10.22963,47.44197],[10.22963,47.44211],[10.22959,47.44259],[10.22961,47.44287],[10.22968,47.44315],[10.22981,47.44347],[10.22997,47.44382],[10.23,47.444],[10.23003,47.44421],[10.23001,47.44443],[10.22994,47.44469],[10.22988,47.44505],[10.22988,47.44526],[10.22993,47.44545],[10.22995,47.44549],[10.22998,47.44556],[10.2301,47.44571],[10.23025,47.44586],[10.23037,47.44599],[10.23046,47.44607],[10.23064,47.44623],[10.23077,47.44639],[10.23086,47.44653],[10.23095,47.44668],[10.23102,47.44678],[10.23106,47.44683],[10.23111,47.4469],[10.23118,47.44696],[10.23133,47.44709],[10.23142,47.44716],[10.23145,47.44719],[10.2316,47.44729],[10.23196,47.44753],[10.23233,47.44786],[10.23262,47.44811],[10.23276,47.44823],[10.23285,47.44832],[10.23331,47.44881],[10.23352,47.44893],[10.23357,47.44895],[10.2338,47.44903],[10.23408,47.44909],[10.23424,47.44912],[10.23493,47.44923],[10.23545,47.44924],[10.23568,47.44924],[10.23592,47.44924],[10.23642,47.44933],[10.23691,47.44947],[10.23721,47.44953],[10.23775,47.44952],[10.23876,47.44939],[10.23897,47.44937],[10.23912,47.44934],[10.23927,47.44933],[10.23937,47.44933],[10.23945,47.44934],[10.23958,47.44938],[10.23967,47.4494],[10.23985,47.44945],[10.24001,47.44952],[10.2402,47.44962],[10.24046,47.44982],[10.24049,47.44985],[10.24059,47.44994],[10.24148,47.45069],[10.24201,47.45114],[10.24228,47.4513],[10.24253,47.45141],[10.24266,47.45146],[10.24307,47.45159],[10.24329,47.45166],[10.24354,47.45175],[10.24376,47.4519],[10.2438,47.45192],[10.24388,47.45198],[10.24405,47.4522],[10.24413,47.45235],[10.24415,47.4524],[10.24425,47.45268],[10.24443,47.45325],[10.24451,47.45351],[10.24466,47.45385],[10.24481,47.45403],[10.24494,47.45414],[10.24499,47.45417],[10.24514,47.45428],[10.24531,47.45438],[10.24558,47.4545],[10.24586,47.45459],[10.24639,47.45474],[10.24676,47.45481],[10.24702,47.45485],[10.24775,47.45497],[10.24815,47.45507],[10.24861,47.45524],[10.24935,47.45554],[10.24958,47.45566],[10.25018,47.45589],[10.25064,47.45604],[10.25105,47.45613],[10.2519,47.45628],[10.25229,47.45635],[10.25295,47.45654],[10.25405,47.4571],[10.25453,47.45735],[10.25498,47.45753],[10.25581,47.45775],[10.25639,47.45791],[10.25755,47.45822],[10.25775,47.45829],[10.25797,47.45837],[10.25809,47.4584],[10.25816,47.45843],[10.25821,47.45844],[10.2585,47.45855],[10.2588,47.45862],[10.25906,47.45868],[10.26031,47.45884],[10.261,47.45897],[10.26256,47.45935],[10.26345,47.45961],[10.2637,47.45968],[10.26505,47.46009],[10.26525,47.46015],[10.26559,47.46022],[10.2658,47.46025],[10.26623,47.46031],[10.26628,47.46032],[10.26666,47.46032],[10.26701,47.46027],[10.26716,47.46026],[10.26718,47.46039],[10.26719,47.46041],[10.26726,47.46078],[10.26735,47.46108],[10.26739,47.46116],[10.26749,47.46142],[10.26766,47.46175],[10.26786,47.46211],[10.26791,47.46221],[10.26803,47.46247],[10.26815,47.46274],[10.26823,47.46297],[10.26833,47.46335],[10.26837,47.46375],[10.26837,47.46409],[10.26815,47.46689],[10.2681,47.46769],[10.26808,47.46793],[10.26804,47.46861],[10.26801,47.46895],[10.268,47.46947],[10.268,47.46957],[10.268,47.46964],[10.268,47.46976],[10.268,47.46992],[10.268,47.47091],[10.268,47.47102],[10.26799,47.47109],[10.26799,47.4714],[10.26798,47.47147],[10.26798,47.47163],[10.26798,47.47193],[10.26797,47.47229],[10.26793,47.47266],[10.26786,47.47298],[10.26779,47.47329],[10.26768,47.4737],[10.2675,47.47421],[10.26719,47.47513],[10.26695,47.47579],[10.2668,47.47626],[10.26678,47.47632],[10.2667,47.47663],[10.26665,47.47691],[10.26659,47.47728],[10.26657,47.4776],[10.26657,47.47787],[10.26659,47.4782],[10.26665,47.47874],[10.26666,47.47905],[10.26666,47.47939],[10.26665,47.47965],[10.26661,47.47985],[10.26633,47.48047],[10.26603,47.48101],[10.26598,47.48118],[10.26596,47.48133],[10.26596,47.4816],[10.26601,47.48192],[10.26609,47.48218],[10.26616,47.48249],[10.26624,47.48284],[10.2663,47.48321],[10.26632,47.48345],[10.26633,47.48369],[10.26633,47.48421],[10.26635,47.48453],[10.26641,47.48476],[10.26653,47.48498],[10.26703,47.48564],[10.26712,47.48585],[10.26718,47.48607],[10.26718,47.48628],[10.26715,47.48648],[10.26701,47.4869],[10.26693,47.48716],[10.26691,47.48738],[10.26692,47.48761],[10.26703,47.48807],[10.26706,47.48836],[10.26702,47.48886],[10.26699,47.48901],[10.26685,47.48985],[10.26666,47.49068],[10.26664,47.49096],[10.26669,47.49122],[10.26675,47.49167],[10.26675,47.4919],[10.2667,47.49308],[10.26666,47.49332],[10.26661,47.49355],[10.26653,47.49378],[10.26614,47.49455],[10.26555,47.49571],[10.2655,47.49583],[10.26548,47.49588],[10.26545,47.49601],[10.26543,47.49618],[10.26543,47.49632],[10.2655,47.49671],[10.26567,47.49757],[10.26586,47.49842],[10.266,47.49905],[10.26612,47.49955],[10.26629,47.50006],[10.26633,47.50015],[10.26641,47.50039],[10.26653,47.50066],[10.26676,47.50111],[10.26692,47.50141],[10.26721,47.50187],[10.2676,47.50243],[10.268,47.50293],[10.26836,47.50332],[10.2686,47.50358],[10.26925,47.50423],[10.26976,47.50476],[10.27008,47.50514],[10.27023,47.50535],[10.27045,47.50565],[10.2706,47.5059],[10.27074,47.50611],[10.27083,47.50626],[10.27096,47.50653],[10.27117,47.507],[10.27139,47.50752],[10.27151,47.508],[10.27159,47.50836],[10.2716,47.50844],[10.27168,47.50888],[10.2717,47.50909],[10.2717,47.50914],[10.27171,47.50945],[10.27171,47.50991],[10.27169,47.51015],[10.27166,47.51065],[10.2716,47.51102],[10.27154,47.51144],[10.27146,47.51195],[10.27135,47.51262],[10.27131,47.51285],[10.27119,47.5135],[10.27106,47.51412],[10.27104,47.5142],[10.27092,47.51475],[10.27082,47.51512],[10.27071,47.51546],[10.27072,47.51565],[10.27061,47.5159],[10.27059,47.51594],[10.27057,47.51599],[10.27048,47.51618],[10.27027,47.51662],[10.27011,47.5169],[10.26992,47.51725],[10.26969,47.51767],[10.26964,47.51778],[10.26956,47.51799],[10.26947,47.51821],[10.26943,47.51833],[10.26941,47.51841],[10.26938,47.51852],[10.26928,47.51889],[10.2692,47.51955],[10.26914,47.52007],[10.26911,47.52053],[10.26898,47.52156],[10.26887,47.52205],[10.26877,47.52241],[10.26867,47.52275],[10.26855,47.52315],[10.26827,47.52415],[10.26819,47.52444],[10.26793,47.5253],[10.26775,47.52598],[10.26761,47.52647],[10.26727,47.52798],[10.2672,47.52826],[10.26712,47.52867],[10.26695,47.52958],[10.26682,47.5305],[10.26677,47.53106],[10.26673,47.53163],[10.26672,47.53252],[10.26674,47.53324],[10.26678,47.53408],[10.26693,47.53556],[10.26704,47.53646],[10.26717,47.53738],[10.26746,47.53919],[10.26756,47.53985],[10.26765,47.54058],[10.26771,47.54131],[10.26772,47.54169],[10.26772,47.54206],[10.26769,47.54236],[10.26764,47.54273],[10.26757,47.54308],[10.26746,47.54351],[10.26731,47.54391],[10.26713,47.5443],[10.26689,47.54473],[10.26654,47.54525],[10.26613,47.54576],[10.26565,47.54626],[10.26534,47.54654],[10.26509,47.54677],[10.26441,47.5473],[10.2638,47.54774],[10.26309,47.54822],[10.26164,47.54919],[10.26058,47.54987],[10.25791,47.55162],[10.25495,47.55357],[10.25355,47.5545],[10.25183,47.55562],[10.25143,47.55588],[10.25118,47.55605],[10.25034,47.5566],[10.24983,47.55693],[10.24945,47.55719],[10.24886,47.55756],[10.24853,47.55791],[10.24841,47.55808],[10.24838,47.55815],[10.24838,47.55824],[10.24842,47.55834],[10.2485,47.55843],[10.2486,47.55847],[10.24872,47.5585],[10.24882,47.5585],[10.24889,47.5585],[10.249,47.55848],[10.24913,47.55842],[10.24941,47.55822],[10.24946,47.55814],[10.24952,47.55807],[10.24949,47.55793],[10.24945,47.55779],[10.24935,47.55774],[10.24922,47.55765],[10.2489,47.55743],[10.24872,47.55729],[10.24846,47.55704],[10.24835,47.55695],[10.24825,47.55685],[10.24818,47.55679],[10.24815,47.55676],[10.24811,47.55676],[10.24807,47.55676],[10.24803,47.55675],[10.248,47.55673],[10.24797,47.55672],[10.24794,47.5567],[10.24791,47.55665],[10.2479,47.5566],[10.24791,47.55655],[10.24793,47.55653],[10.24796,47.5565],[10.24791,47.55638],[10.2479,47.55631],[10.24776,47.55615],[10.24752,47.55584],[10.24706,47.55545],[10.24657,47.55516],[10.24615,47.55497],[10.24559,47.55476],[10.24536,47.55469],[10.24516,47.55465],[10.24473,47.55456],[10.24434,47.55452],[10.24403,47.55449],[10.24372,47.55448],[10.24325,47.55449],[10.24276,47.55453],[10.24217,47.55464],[10.24166,47.55477],[10.24107,47.55497],[10.24047,47.55519],[10.23975,47.55546],[10.239,47.55571],[10.23884,47.55576],[10.23841,47.55586],[10.2378,47.55597],[10.23726,47.55603],[10.23668,47.55606],[10.23635,47.55606],[10.23621,47.55605],[10.23587,47.55603],[10.2353,47.55598],[10.2349,47.55591],[10.23457,47.55584],[10.23428,47.55575],[10.23423,47.55574],[10.23386,47.55559],[10.23273,47.55504],[10.2327,47.55503],[10.23249,47.55492],[10.23201,47.5547],[10.23188,47.55466],[10.23179,47.55464],[10.23174,47.55461],[10.23171,47.55463],[10.23167,47.55463],[10.23163,47.55463],[10.2316,47.55463],[10.23148,47.55468],[10.23133,47.55473],[10.23127,47.55476],[10.23107,47.55487],[10.231,47.55491],[10.2309,47.55497],[10.23052,47.55521],[10.23044,47.55527],[10.23037,47.55533],[10.23007,47.55553],[10.22973,47.55577],[10.2297,47.55579],[10.22951,47.55592],[10.2294,47.55599],[10.22891,47.55633],[10.22842,47.55655],[10.22757,47.55686],[10.22754,47.55688],[10.2266,47.55716],[10.22653,47.55719],[10.22592,47.55738],[10.22575,47.55743],[10.22565,47.55746],[10.2256,47.55748],[10.22513,47.55763],[10.22487,47.55767],[10.22466,47.55769],[10.22439,47.55768],[10.22387,47.55768],[10.22354,47.55771],[10.22329,47.55776],[10.22299,47.55782],[10.22292,47.55784],[10.22272,47.55792],[10.22266,47.55794],[10.22242,47.55805],[10.22189,47.55825],[10.22181,47.55827],[10.22158,47.55833],[10.22138,47.55836],[10.22108,47.55837],[10.22092,47.55837],[10.22048,47.55834],[10.22012,47.55834],[10.21976,47.55835],[10.21922,47.55841],[10.2188,47.55847],[10.21858,47.55851],[10.21829,47.55855],[10.218,47.5586],[10.21733,47.5587],[10.2172,47.55871],[10.2166,47.55881],[10.21671,47.55891],[10.21695,47.55887]],"type":"LineString"},"properties":{"quelle":"OSRM router.project-osrm.org, Profil driving","von":[47.43834,10.22044],"nach":[47.559,10.217],"distanz_m":19439.8,"dauer_s":1193.4,"punkte":536}}
