{"type":"Feature","geometry":{"coordinates":[[10.13672,47.59248],[10.13678,47.59248],[10.13739,47.59246],[10.13798,47.59244],[10.13816,47.59243],[10.13892,47.5924],[10.14019,47.59234],[10.14091,47.59231],[10.14159,47.59229],[10.14237,47.59225],[10.14445,47.59212],[10.1456,47.59205],[10.14594,47.59203],[10.14624,47.59203],[10.14813,47.59204],[10.1492,47.59203],[10.15038,47.592],[10.15081,47.59198],[10.1513,47.59193],[10.15216,47.59182],[10.15263,47.59175],[10.15315,47.59171],[10.15366,47.59169],[10.15415,47.5917],[10.15482,47.59173],[10.1554,47.59173],[10.15585,47.59172],[10.15617,47.59168],[10.15649,47.59162],[10.15672,47.59157],[10.15714,47.59145],[10.15764,47.59129],[10.15775,47.59125],[10.15821,47.59111],[10.15868,47.59102],[10.15918,47.59094],[10.15965,47.59091],[10.16009,47.59091],[10.1604,47.59092],[10.16171,47.59098],[10.16279,47.59103],[10.16287,47.59103],[10.16293,47.59103],[10.16326,47.59103],[10.16356,47.59101],[10.16404,47.59092],[10.16445,47.59085],[10.165,47.59079],[10.16658,47.59074],[10.16735,47.59071],[10.16787,47.59073],[10.16832,47.59079],[10.16875,47.59093],[10.16906,47.59109],[10.16941,47.5913],[10.16955,47.5914],[10.16976,47.59155],[10.17037,47.59193],[10.17071,47.59209],[10.17104,47.59219],[10.17135,47.59226],[10.17209,47.59231],[10.17259,47.59236],[10.17296,47.59243],[10.17374,47.59258],[10.17427,47.59264],[10.1745,47.59265],[10.17466,47.59265],[10.17502,47.59262],[10.17536,47.59256],[10.17571,47.59244],[10.17605,47.59228],[10.17639,47.59206],[10.17676,47.59185],[10.17703,47.59172],[10.17729,47.59162],[10.17762,47.59153],[10.17795,47.59147],[10.17827,47.59143],[10.17853,47.59142],[10.17893,47.59143],[10.17915,47.59146],[10.17935,47.59149],[10.17954,47.59152],[10.17973,47.59156],[10.17992,47.5916],[10.18002,47.59163],[10.18036,47.59171],[10.18068,47.59178],[10.18112,47.59183],[10.18186,47.59188],[10.1827,47.59193],[10.18335,47.59195],[10.18366,47.59193],[10.18406,47.59186],[10.18434,47.59175],[10.18454,47.59163],[10.18475,47.59146],[10.1849,47.59128],[10.18498,47.59109],[10.18508,47.59082],[10.18517,47.59069],[10.18531,47.59056],[10.1855,47.59043],[10.18565,47.5903],[10.18572,47.59024],[10.18578,47.59014],[10.18582,47.59006],[10.18583,47.58996],[10.18582,47.58988],[10.18576,47.58971],[10.1857,47.58958],[10.18566,47.5895],[10.18564,47.58943],[10.18563,47.58931],[10.18566,47.58922],[10.18586,47.58892],[10.18588,47.58884],[10.18587,47.58877],[10.18585,47.58871],[10.18578,47.58861],[10.18567,47.58855],[10.18546,47.58843],[10.18525,47.58832],[10.18519,47.58826],[10.18517,47.58818],[10.18518,47.58812],[10.18522,47.58806],[10.18531,47.588],[10.18537,47.58798],[10.18545,47.58797],[10.18553,47.58798],[10.1856,47.58801],[10.18566,47.58804],[10.18571,47.58808],[10.18579,47.58818],[10.18588,47.58827],[10.18602,47.58837],[10.18614,47.58842],[10.18632,47.58846],[10.18699,47.58857],[10.18761,47.58866],[10.18766,47.58867],[10.18788,47.5887],[10.18852,47.58878],[10.1891,47.58882],[10.18973,47.58884],[10.19002,47.58884],[10.19028,47.58884],[10.19084,47.58882],[10.19122,47.58879],[10.19195,47.5887],[10.19239,47.58861],[10.1927,47.5885],[10.19291,47.5884],[10.19305,47.58848],[10.19312,47.58852],[10.19335,47.5886],[10.19371,47.58865],[10.19439,47.58868],[10.19496,47.58875],[10.19544,47.58885],[10.19607,47.58902],[10.19643,47.5891],[10.19682,47.58916],[10.19726,47.5892],[10.19807,47.58923],[10.19861,47.58928],[10.199,47.58934],[10.19941,47.58944],[10.19997,47.58962],[10.20034,47.58976],[10.20065,47.58991],[10.20132,47.59026],[10.2016,47.59041],[10.20188,47.59056],[10.20218,47.59067],[10.2025,47.59074],[10.20278,47.59078],[10.20322,47.59078],[10.20387,47.59069],[10.20419,47.59068],[10.20453,47.59071],[10.20511,47.59081],[10.20688,47.59111],[10.20734,47.59119],[10.20805,47.59132],[10.21046,47.59174],[10.21079,47.59178],[10.21137,47.59179],[10.21135,47.59138],[10.21138,47.59126],[10.21144,47.59115],[10.21146,47.59112],[10.21154,47.59102],[10.21167,47.59093],[10.21188,47.59083],[10.21214,47.59076],[10.21335,47.59064],[10.214,47.59051],[10.2143,47.59042],[10.21465,47.59031],[10.21666,47.58967],[10.21719,47.58946],[10.21747,47.58933],[10.21773,47.58916],[10.21805,47.58894],[10.21827,47.58875],[10.21875,47.58834],[10.21941,47.58777],[10.21967,47.58761],[10.21996,47.5875],[10.2203,47.58745],[10.22063,47.58747],[10.22207,47.58785],[10.22244,47.58795],[10.22281,47.58803],[10.22352,47.58819],[10.22417,47.58831],[10.22514,47.58843],[10.22574,47.58846],[10.22644,47.5885],[10.22679,47.58849],[10.22709,47.58846],[10.22749,47.58841],[10.22791,47.58834],[10.22825,47.58827],[10.22869,47.58818],[10.22897,47.58813],[10.22931,47.5881],[10.22966,47.58811],[10.22996,47.58815],[10.23034,47.58822],[10.23198,47.58861],[10.23265,47.58876],[10.23308,47.58884],[10.23327,47.58886],[10.2335,47.58888],[10.23378,47.58886],[10.23402,47.58881],[10.23434,47.58869],[10.23463,47.58855],[10.23489,47.58838],[10.23528,47.58809],[10.2355,47.58786],[10.23567,47.58771],[10.23577,47.58764],[10.23583,47.58761],[10.23609,47.58752],[10.23638,47.58743],[10.23714,47.58728],[10.23749,47.58721],[10.23777,47.58714],[10.23792,47.5871],[10.23806,47.58705],[10.2384,47.58684],[10.23895,47.58651],[10.23924,47.58635],[10.23949,47.58625],[10.23991,47.58615],[10.24009,47.58612],[10.24025,47.58609],[10.24047,47.58605],[10.2415,47.58593],[10.24178,47.58589],[10.24193,47.58585],[10.24199,47.58583],[10.24215,47.58579],[10.2423,47.58573],[10.24239,47.58583],[10.24254,47.58599],[10.24357,47.58711],[10.24459,47.58819],[10.24475,47.58835],[10.2449,47.58851],[10.24579,47.58948],[10.2467,47.59044],[10.24715,47.59092],[10.24752,47.5913],[10.24855,47.59233],[10.24888,47.59266],[10.24891,47.59269],[10.24932,47.59309],[10.25002,47.59378],[10.25023,47.59399],[10.25048,47.59426],[10.25099,47.59485],[10.25113,47.595],[10.25127,47.59517],[10.25136,47.59526],[10.25137,47.59527],[10.25153,47.59545],[10.25178,47.59577],[10.25198,47.59611],[10.25225,47.59659],[10.2525,47.59704],[10.25256,47.59717],[10.25258,47.59727],[10.25263,47.59744],[10.25264,47.5975],[10.25265,47.59755],[10.25266,47.59758],[10.2527,47.59778],[10.2528,47.59815],[10.2529,47.59839],[10.25316,47.5989],[10.2535,47.59943],[10.25383,47.59992],[10.25404,47.60019],[10.25451,47.60073],[10.25484,47.60109],[10.25494,47.60123],[10.25503,47.60138],[10.25522,47.60178],[10.25546,47.60229],[10.25572,47.6028],[10.25598,47.60318],[10.2562,47.60342],[10.2565,47.60372],[10.25715,47.60433],[10.25779,47.60492],[10.25863,47.60569],[10.25891,47.60593],[10.25917,47.60612],[10.25952,47.60634],[10.25999,47.60658],[10.26043,47.60679],[10.26128,47.60714],[10.26252,47.60765],[10.26335,47.60798],[10.26386,47.60815],[10.26414,47.60823],[10.26446,47.60829],[10.26482,47.60832],[10.26514,47.60833],[10.26548,47.60832],[10.26582,47.6083],[10.26626,47.60826],[10.26665,47.60824],[10.26695,47.60822],[10.26714,47.60824],[10.26735,47.60826],[10.26767,47.60832],[10.26789,47.60837],[10.26796,47.60839],[10.26808,47.60843],[10.26822,47.60848],[10.26841,47.60856],[10.26858,47.60865],[10.26874,47.60875],[10.26891,47.60888],[10.26909,47.60904],[10.26924,47.60919],[10.26935,47.60933],[10.26967,47.60974],[10.2698,47.60989],[10.27009,47.61016],[10.27053,47.61044],[10.27082,47.61058],[10.27112,47.61071],[10.2713,47.61078],[10.27168,47.61094],[10.27192,47.61107],[10.27216,47.6112],[10.27237,47.61137],[10.27246,47.61145],[10.27256,47.61159],[10.2727,47.61178],[10.27275,47.61187],[10.27284,47.6121],[10.27294,47.61246],[10.27297,47.61264],[10.27301,47.61282],[10.27302,47.61288],[10.27309,47.61307],[10.27318,47.61322],[10.27327,47.61333],[10.27338,47.61344],[10.27352,47.61355],[10.27372,47.61366],[10.27386,47.61372],[10.274,47.61378],[10.27424,47.61385],[10.27446,47.61391],[10.27462,47.61396],[10.27518,47.61411],[10.27536,47.61416],[10.27535,47.6143],[10.27544,47.61472],[10.27568,47.61567],[10.27577,47.6161],[10.2758,47.61631],[10.27582,47.61653],[10.27584,47.61675],[10.2758,47.61689],[10.27592,47.61757],[10.27594,47.61771],[10.27599,47.61812],[10.27604,47.6186],[10.27618,47.61985],[10.27631,47.62082],[10.27653,47.62212],[10.27668,47.62273],[10.27688,47.62346],[10.27714,47.62429],[10.2773,47.6247],[10.27754,47.62535],[10.27782,47.62601],[10.27824,47.62686],[10.27843,47.62726],[10.27873,47.62782],[10.2792,47.62862],[10.27957,47.62921],[10.27974,47.62949],[10.28032,47.63043],[10.28102,47.63156],[10.28157,47.63244],[10.28205,47.63318],[10.28226,47.63348],[10.28249,47.63378],[10.28289,47.63423],[10.28323,47.63459],[10.28363,47.63499],[10.28439,47.63567],[10.28538,47.63659],[10.28559,47.63679],[10.2858,47.63702],[10.28598,47.63723],[10.28614,47.63746],[10.2863,47.6377],[10.28642,47.63793],[10.28653,47.63815],[10.28665,47.63843],[10.28673,47.63867],[10.28682,47.63903],[10.28689,47.63939],[10.28701,47.64003],[10.28707,47.64027],[10.28716,47.64059],[10.28731,47.64104],[10.28746,47.64136],[10.28757,47.64159],[10.28774,47.64189],[10.28791,47.64217],[10.28807,47.64239],[10.28852,47.64294],[10.28904,47.64349],[10.28933,47.64375],[10.28978,47.6441],[10.28985,47.64415],[10.29039,47.64455],[10.29114,47.64507],[10.29195,47.6456],[10.29278,47.64616],[10.29359,47.64674],[10.29389,47.64699],[10.29413,47.64719],[10.29438,47.64742],[10.29458,47.64761],[10.29481,47.64785],[10.29482,47.64787],[10.29522,47.64837],[10.2953,47.64848],[10.29551,47.64884],[10.29569,47.64921],[10.29577,47.64942],[10.29587,47.64968],[10.29596,47.65013],[10.29601,47.65065],[10.29597,47.65219],[10.296,47.65273],[10.2961,47.65324],[10.29624,47.65365],[10.29642,47.65405],[10.29675,47.65458],[10.29735,47.6554],[10.29774,47.65596],[10.29791,47.65625],[10.29807,47.65654],[10.2982,47.65685],[10.2984,47.65736],[10.29854,47.65787],[10.29861,47.65822],[10.29866,47.65857],[10.29868,47.65915],[10.29868,47.65973],[10.29867,47.66067],[10.2987,47.66135],[10.29875,47.66172],[10.29891,47.6624],[10.29915,47.66328],[10.29924,47.66378],[10.2993,47.66415],[10.2993,47.66472],[10.29925,47.66521],[10.29913,47.6657],[10.29883,47.66644],[10.29868,47.66679],[10.29842,47.66733],[10.29838,47.66742],[10.29826,47.66775],[10.29819,47.66801],[10.29813,47.66835],[10.2981,47.66873],[10.29811,47.6691],[10.29815,47.66933],[10.29825,47.66963],[10.29846,47.67017],[10.29868,47.67054],[10.29895,47.6709],[10.29926,47.67124],[10.29983,47.67173],[10.30017,47.67201],[10.30056,47.67234],[10.3008,47.67259],[10.301,47.67282],[10.30118,47.67307],[10.30135,47.67337],[10.30146,47.67362],[10.30153,47.67383],[10.30161,47.67409],[10.30166,47.67432],[10.30182,47.67529],[10.30187,47.67544],[10.30193,47.67567],[10.30198,47.67583],[10.3021,47.67609],[10.30222,47.67627],[10.30232,47.67642],[10.30255,47.67671],[10.30274,47.67692],[10.30292,47.67709],[10.30349,47.6776],[10.3037,47.67781],[10.3039,47.67802],[10.30411,47.67829],[10.30426,47.67856],[10.30432,47.67867],[10.30437,47.67879],[10.30441,47.67888],[10.30444,47.67896],[10.30452,47.67921],[10.30457,47.67945],[10.30454,47.67961],[10.30466,47.67997],[10.30473,47.68018],[10.30476,47.68028],[10.30482,47.68046],[10.30488,47.68065],[10.30499,47.68091],[10.30508,47.68113],[10.30514,47.68128],[10.30519,47.68141],[10.30523,47.68149],[10.30527,47.68158],[10.3053,47.68166],[10.3054,47.68192],[10.30546,47.68206],[10.30582,47.68282],[10.30593,47.683],[10.30609,47.68318],[10.30631,47.6834],[10.30652,47.6836],[10.30734,47.68418],[10.30747,47.68427],[10.30768,47.68445],[10.30771,47.68447],[10.30778,47.68454],[10.30786,47.68462],[10.30807,47.68484],[10.30822,47.68503],[10.30841,47.68527],[10.30864,47.68565],[10.30873,47.6858],[10.30898,47.6862],[10.30911,47.68636],[10.30922,47.6865],[10.30924,47.68653],[10.30931,47.68663],[10.30936,47.6867],[10.30942,47.68677],[10.3097,47.68715],[10.30979,47.68727],[10.30984,47.68734],[10.31007,47.68767],[10.31035,47.68818],[10.31058,47.6887],[10.31069,47.68912],[10.31072,47.68935],[10.31071,47.68962],[10.3106,47.69043],[10.31058,47.69091],[10.31059,47.69113],[10.3106,47.69132],[10.31077,47.69194],[10.31089,47.69219],[10.31129,47.69295],[10.31135,47.69305],[10.3114,47.69313],[10.31152,47.69333],[10.31155,47.69338],[10.3121,47.69425],[10.31221,47.69456],[10.31227,47.69502],[10.31228,47.69587],[10.31229,47.69602],[10.31231,47.69618],[10.31234,47.69634],[10.31239,47.69647],[10.31245,47.6966],[10.31257,47.69683],[10.31268,47.69704],[10.31279,47.69722],[10.31292,47.69745],[10.31294,47.69751],[10.313,47.69763],[10.31307,47.6978],[10.3131,47.69793],[10.31312,47.69804],[10.31315,47.69826],[10.31315,47.69851],[10.31314,47.69881],[10.31309,47.69923],[10.31298,47.70011],[10.31291,47.70079],[10.31289,47.70112],[10.31288,47.70143],[10.31288,47.70175],[10.31289,47.70196],[10.3129,47.7022],[10.31291,47.70253],[10.31292,47.70267],[10.31292,47.70284],[10.31292,47.70287],[10.31293,47.70318],[10.31291,47.70357],[10.31287,47.70392],[10.31283,47.70417],[10.31281,47.70427],[10.31278,47.70439],[10.31275,47.7045],[10.31259,47.70492],[10.31244,47.70533],[10.31229,47.70588],[10.3121,47.70629],[10.31203,47.70643],[10.31197,47.70656],[10.31189,47.70672],[10.31184,47.70685],[10.31177,47.70712],[10.31174,47.70729],[10.31169,47.70763],[10.3117,47.70799],[10.31172,47.70815],[10.31176,47.7083],[10.31178,47.70834],[10.31192,47.7086],[10.31216,47.70891],[10.31249,47.70927],[10.31271,47.70949],[10.31313,47.70992],[10.31325,47.71004],[10.31344,47.71022],[10.31366,47.71043],[10.31385,47.7106],[10.31405,47.71081],[10.31418,47.71095],[10.31435,47.71117],[10.31446,47.71131],[10.31472,47.7117],[10.31492,47.71211],[10.31508,47.71253],[10.31521,47.71314],[10.31527,47.71375],[10.31526,47.71401],[10.31526,47.71408],[10.31524,47.71417],[10.31519,47.71449],[10.31514,47.71472],[10.31517,47.7148],[10.31518,47.71491],[10.31519,47.71499],[10.31521,47.71504],[10.31525,47.7151],[10.3154,47.71522],[10.31545,47.71528],[10.31592,47.71544],[10.31677,47.71567],[10.31713,47.71574],[10.3172,47.71576],[10.31734,47.71577],[10.31757,47.7158],[10.31778,47.71582],[10.31803,47.71583],[10.31829,47.71583],[10.31863,47.71582],[10.31898,47.71578],[10.31932,47.71572],[10.31964,47.71566],[10.31989,47.71562],[10.32017,47.71556],[10.32035,47.71552],[10.32039,47.71563],[10.32041,47.71569],[10.32041,47.71574],[10.32039,47.71592],[10.32029,47.71604],[10.32024,47.71611],[10.32026,47.71625],[10.32026,47.7163],[10.32031,47.71637],[10.32039,47.71642],[10.32052,47.71648],[10.32062,47.71649],[10.32081,47.71651],[10.32104,47.71654],[10.32114,47.71656],[10.32129,47.71658],[10.32139,47.71661],[10.32144,47.71665],[10.32151,47.71672],[10.32154,47.71679],[10.32156,47.7169],[10.32158,47.71727],[10.32157,47.71773],[10.32156,47.71782],[10.32152,47.71808],[10.32142,47.71843],[10.32163,47.71846],[10.3218,47.71848],[10.32204,47.71845],[10.3219,47.71801]],"type":"LineString"},"properties":{"quelle":"OSRM router.project-osrm.org, Profil driving","von":[47.59226,10.13668],"nach":[47.718,10.322],"distanz_m":26120.2,"dauer_s":1527.5,"punkte":732}}
