{"type":"Feature","geometry":{"coordinates":[[10.28369,47.5153],[10.28369,47.5153],[10.28362,47.51459],[10.2835,47.51459],[10.28334,47.51459],[10.28263,47.51458],[10.28214,47.51457],[10.28199,47.51457],[10.28177,47.51456],[10.2816,47.51457],[10.28124,47.51457],[10.28126,47.51476],[10.28128,47.51493],[10.2813,47.51512],[10.28132,47.51526],[10.28112,47.51527],[10.28101,47.51528],[10.28097,47.51507]],"type":"LineString"},"properties":{"quelle":"OSRM router.project-osrm.org, Profil driving","von":[47.51534,10.2835],"nach":[47.515,10.281],"distanz_m":380.9,"dauer_s":56.9,"punkte":18}}
