{"type":"Feature","geometry":{"coordinates":[[10.21695,47.55887],[10.21738,47.55879],[10.21733,47.5587],[10.218,47.5586],[10.21829,47.55855],[10.21858,47.55851],[10.2188,47.55847],[10.21922,47.55841],[10.21976,47.55835],[10.22012,47.55834],[10.22048,47.55834],[10.22092,47.55837],[10.22108,47.55837],[10.22138,47.55836],[10.22158,47.55833],[10.22181,47.55827],[10.22189,47.55825],[10.22242,47.55805],[10.22266,47.55794],[10.22272,47.55792],[10.22292,47.55784],[10.22299,47.55782],[10.22329,47.55776],[10.22354,47.55771],[10.22387,47.55768],[10.22439,47.55768],[10.22466,47.55769],[10.22487,47.55767],[10.22513,47.55763],[10.2256,47.55748],[10.22565,47.55746],[10.22575,47.55743],[10.22592,47.55738],[10.22653,47.55719],[10.2266,47.55716],[10.22754,47.55688],[10.22757,47.55686],[10.22842,47.55655],[10.22891,47.55633],[10.2294,47.55599],[10.22951,47.55592],[10.2297,47.55579],[10.22973,47.55577],[10.23007,47.55553],[10.23037,47.55533],[10.23044,47.55527],[10.23052,47.55521],[10.2309,47.55497],[10.231,47.55491],[10.23107,47.55487],[10.23127,47.55476],[10.23133,47.55473],[10.23144,47.55464],[10.2315,47.5546],[10.23152,47.55458],[10.2315,47.55456],[10.23149,47.55454],[10.23149,47.55452],[10.23149,47.5545],[10.2315,47.55448],[10.23151,47.55446],[10.23153,47.55444],[10.23157,47.55442],[10.23161,47.55441],[10.23165,47.55441],[10.23168,47.55441],[10.23171,47.55442],[10.23174,47.55443],[10.23177,47.55444],[10.23179,47.55446],[10.23181,47.55448],[10.23182,47.55451],[10.23182,47.55453],[10.23193,47.55462],[10.23201,47.5547],[10.23249,47.55492],[10.2327,47.55503],[10.23273,47.55504],[10.23386,47.55559],[10.23423,47.55574],[10.23428,47.55575],[10.23457,47.55584],[10.2349,47.55591],[10.2353,47.55598],[10.23587,47.55603],[10.23621,47.55605],[10.23635,47.55606],[10.23668,47.55606],[10.23726,47.55603],[10.2378,47.55597],[10.23841,47.55586],[10.23884,47.55576],[10.239,47.55571],[10.23975,47.55546],[10.24047,47.55519],[10.24107,47.55497],[10.24166,47.55477],[10.24217,47.55464],[10.24276,47.55453],[10.24325,47.55449],[10.24372,47.55448],[10.24403,47.55449],[10.24434,47.55452],[10.24473,47.55456],[10.24516,47.55465],[10.24536,47.55469],[10.24559,47.55476],[10.24615,47.55497],[10.24657,47.55516],[10.24706,47.55545],[10.24752,47.55584],[10.24776,47.55615],[10.2479,47.55631],[10.24797,47.55636],[10.24805,47.55643],[10.24808,47.55646],[10.24814,47.55646],[10.24822,47.55647],[10.24827,47.55649],[10.2483,47.55651],[10.24851,47.55644],[10.2487,47.5564],[10.24889,47.55638],[10.24905,47.5564],[10.24921,47.55647],[10.24949,47.55661],[10.24963,47.55666],[10.24973,47.55666],[10.24987,47.55665],[10.25019,47.55655],[10.25077,47.55616],[10.25113,47.55594],[10.25277,47.55485],[10.25511,47.55332],[10.25553,47.55305],[10.25758,47.55169],[10.25911,47.55069],[10.26146,47.54915],[10.26292,47.54819],[10.26365,47.54768],[10.26427,47.54725],[10.26494,47.54672],[10.26551,47.54621],[10.26597,47.54575],[10.2664,47.54522],[10.2667,47.54478],[10.26701,47.54424],[10.26719,47.54382],[10.26731,47.54348],[10.26741,47.54312],[10.26749,47.54274],[10.26754,47.54235],[10.26756,47.54205],[10.26756,47.54132],[10.2675,47.54062],[10.2674,47.53986],[10.2673,47.5392],[10.26702,47.53737],[10.26689,47.53642],[10.26678,47.53556],[10.26662,47.53407],[10.26658,47.53324],[10.26656,47.53251],[10.26657,47.53164],[10.26667,47.53053],[10.26679,47.52959],[10.26695,47.52869],[10.26705,47.52824],[10.2671,47.52801],[10.26745,47.52648],[10.26759,47.52598],[10.26802,47.52445],[10.26811,47.52413],[10.26839,47.52316],[10.26858,47.52251],[10.26867,47.52219],[10.26872,47.52198],[10.26881,47.52161],[10.26884,47.52144],[10.26889,47.52117],[10.26892,47.5209],[10.26895,47.52055],[10.26899,47.52015],[10.26903,47.51962],[10.26904,47.51949],[10.26906,47.51927],[10.2691,47.51902],[10.26915,47.51879],[10.2692,47.51861],[10.26925,47.51839],[10.26928,47.5183],[10.26933,47.51817],[10.26942,47.51794],[10.26954,47.51766],[10.26975,47.51725],[10.27023,47.51641],[10.27031,47.51626],[10.27038,47.5161],[10.2704,47.51607],[10.27049,47.51586],[10.27059,47.51563],[10.27071,47.51546],[10.27082,47.51512],[10.27092,47.51475],[10.27104,47.5142],[10.27106,47.51412],[10.27119,47.5135],[10.27131,47.51285],[10.27135,47.51262],[10.27146,47.51195],[10.27154,47.51144],[10.2716,47.51102],[10.27166,47.51065],[10.27169,47.51015],[10.27171,47.50991],[10.27171,47.50945],[10.2717,47.50914],[10.2717,47.50909],[10.27168,47.50888],[10.2716,47.50844],[10.27159,47.50836],[10.27151,47.508],[10.27139,47.50752],[10.27117,47.507],[10.27096,47.50653],[10.27083,47.50626],[10.27074,47.50611],[10.2706,47.5059],[10.27045,47.50565],[10.27023,47.50535],[10.27008,47.50514],[10.26976,47.50476],[10.26925,47.50423],[10.2686,47.50358],[10.26836,47.50332],[10.268,47.50293],[10.2676,47.50243],[10.26721,47.50187],[10.26692,47.50141],[10.26676,47.50111],[10.26653,47.50066],[10.26641,47.50039],[10.26633,47.50015],[10.26629,47.50006],[10.26612,47.49955],[10.266,47.49905],[10.26586,47.49842],[10.26567,47.49757],[10.2655,47.49671],[10.26543,47.49632],[10.26543,47.49618],[10.26545,47.49601],[10.26548,47.49588],[10.2655,47.49583],[10.26555,47.49571],[10.26614,47.49455],[10.26653,47.49378],[10.26661,47.49355],[10.26666,47.49332],[10.2667,47.49308],[10.26675,47.4919],[10.26675,47.49167],[10.26669,47.49122],[10.26664,47.49096],[10.26666,47.49068],[10.26685,47.48985],[10.26699,47.48901],[10.26702,47.48886],[10.26706,47.48836],[10.26703,47.48807],[10.26692,47.48761],[10.26691,47.48738],[10.26693,47.48716],[10.26701,47.4869],[10.26715,47.48648],[10.26718,47.48628],[10.26718,47.48607],[10.26712,47.48585],[10.26703,47.48564],[10.26653,47.48498],[10.26641,47.48476],[10.26635,47.48453],[10.26633,47.48421],[10.26633,47.48369],[10.26632,47.48345],[10.2663,47.48321],[10.26624,47.48284],[10.26616,47.48249],[10.26609,47.48218],[10.26601,47.48192],[10.26596,47.4816],[10.26596,47.48133],[10.26598,47.48118],[10.26603,47.48101],[10.26633,47.48047],[10.26661,47.47985],[10.26665,47.47965],[10.26666,47.47939],[10.26666,47.47905],[10.26665,47.47874],[10.26659,47.4782],[10.26657,47.47787],[10.26657,47.4776],[10.26659,47.47728],[10.26665,47.47691],[10.2667,47.47663],[10.26678,47.47632],[10.2668,47.47626],[10.26695,47.47579],[10.26719,47.47513],[10.2675,47.47421],[10.26768,47.4737],[10.26779,47.47329],[10.26786,47.47298],[10.26793,47.47266],[10.26797,47.47229],[10.26798,47.47193],[10.26798,47.47163],[10.26798,47.47147],[10.26799,47.4714],[10.26799,47.47109],[10.268,47.47102],[10.268,47.47091],[10.268,47.46992],[10.268,47.46976],[10.268,47.46964],[10.268,47.46957],[10.268,47.46947],[10.26801,47.46895],[10.26804,47.46861],[10.26808,47.46793],[10.2681,47.46769],[10.26815,47.46689],[10.26837,47.46409],[10.26837,47.46375],[10.26833,47.46335],[10.26823,47.46297],[10.26815,47.46274],[10.26803,47.46247],[10.26791,47.46221],[10.26786,47.46211],[10.26766,47.46175],[10.26749,47.46142],[10.26739,47.46116],[10.26735,47.46108],[10.26726,47.46078],[10.26719,47.46041],[10.26718,47.46039],[10.26716,47.46026],[10.26714,47.46012],[10.26714,47.45994],[10.26714,47.45983],[10.26716,47.45963],[10.26718,47.45951],[10.26722,47.45931],[10.26728,47.45907],[10.2674,47.45874],[10.26764,47.4583],[10.26788,47.45792],[10.26822,47.45752],[10.26906,47.45675],[10.2694,47.45644],[10.2697,47.45617],[10.26995,47.45593],[10.2701,47.45578],[10.27015,47.45573],[10.27042,47.45547],[10.27052,47.45537],[10.27056,47.45534],[10.27097,47.45488],[10.27107,47.45475],[10.27119,47.45459],[10.27139,47.45433],[10.27166,47.45387],[10.27174,47.45372],[10.27181,47.45359],[10.27184,47.45353],[10.27186,47.45347],[10.27188,47.45343],[10.27199,47.45316],[10.27215,47.45269],[10.27229,47.45208],[10.27256,47.44945],[10.27271,47.4482],[10.27276,47.44793],[10.27286,47.44742],[10.27298,47.44704],[10.27323,47.44638],[10.2735,47.44583],[10.27405,47.4447],[10.27456,47.44359],[10.27507,47.44232],[10.27525,47.44185],[10.27533,47.44148],[10.27545,47.44048],[10.27554,47.43978],[10.2757,47.4392],[10.2757,47.43919],[10.27582,47.43875],[10.27585,47.43861],[10.27587,47.43836],[10.27584,47.43806],[10.27581,47.43792],[10.27573,47.4377],[10.27568,47.43759],[10.27562,47.43748],[10.27551,47.4373],[10.27545,47.43722],[10.27534,47.43708],[10.2753,47.43703],[10.27518,47.43689],[10.27469,47.43635],[10.27438,47.436],[10.27398,47.4356],[10.27347,47.43515],[10.27298,47.43474],[10.27273,47.43453],[10.27127,47.43332],[10.2707,47.43282],[10.27063,47.43276],[10.27055,47.43279],[10.27063,47.43276],[10.2707,47.43282],[10.27127,47.43332],[10.27123,47.43334],[10.27119,47.43336],[10.27111,47.4334],[10.2708,47.43352],[10.27075,47.43355],[10.27064,47.43357],[10.27056,47.43358],[10.27048,47.43358],[10.27011,47.43353],[10.26999,47.43351],[10.2699,47.43351],[10.26971,47.43349],[10.26962,47.43346],[10.26955,47.43344],[10.26949,47.4334],[10.26937,47.43328],[10.26932,47.43325],[10.26926,47.43322],[10.26885,47.43304],[10.26875,47.43299],[10.26852,47.43285],[10.26837,47.43277],[10.26802,47.43256],[10.26775,47.43239],[10.26768,47.43236],[10.2676,47.43233],[10.26752,47.4323],[10.26744,47.43227],[10.26736,47.43226],[10.26731,47.43225],[10.26726,47.43225],[10.26718,47.43225],[10.26707,47.43226],[10.26677,47.4323],[10.26668,47.4323],[10.26654,47.4323],[10.26599,47.4322],[10.26587,47.43218],[10.26571,47.43213],[10.26544,47.43205],[10.26527,47.43198],[10.26412,47.43131],[10.26399,47.43126],[10.26387,47.43126],[10.26379,47.43127],[10.26375,47.43131],[10.26376,47.43137],[10.26416,47.4317],[10.26435,47.43186],[10.26457,47.43206],[10.26461,47.43215],[10.2646,47.43234],[10.26459,47.43268],[10.26462,47.43282],[10.2647,47.43294],[10.2648,47.43305],[10.26482,47.43308],[10.26482,47.43311],[10.26481,47.43315],[10.26479,47.43317],[10.26473,47.43318],[10.26467,47.43317],[10.26456,47.43315],[10.26441,47.43311],[10.26426,47.43306],[10.26413,47.43299],[10.26401,47.43292],[10.2639,47.43281],[10.26368,47.43261],[10.26347,47.43238],[10.26343,47.43235],[10.26339,47.43234],[10.26335,47.43234],[10.26335,47.43234]],"type":"LineString"},"properties":{"quelle":"OSRM router.project-osrm.org, Profil driving","von":[47.559,10.217],"nach":[47.43192,10.26337],"distanz_m":18746.4,"dauer_s":1255.8,"punkte":498}}
