{"type":"Feature","geometry":{"coordinates":[[10.3219,47.71801],[10.32204,47.71845],[10.3218,47.71848],[10.32163,47.71846],[10.32142,47.71843],[10.32152,47.71808],[10.32156,47.71782],[10.32157,47.71773],[10.32158,47.71727],[10.32156,47.7169],[10.32154,47.71679],[10.32151,47.71672],[10.32144,47.71665],[10.32139,47.71661],[10.32129,47.71658],[10.32114,47.71656],[10.32104,47.71654],[10.32081,47.71651],[10.32062,47.71649],[10.32052,47.71648],[10.32019,47.71644],[10.32003,47.71638],[10.32013,47.71626],[10.32024,47.71611],[10.32029,47.71604],[10.32025,47.7159],[10.32024,47.71581],[10.32018,47.71574],[10.32016,47.71572],[10.32004,47.7157],[10.31967,47.71578],[10.31899,47.71589],[10.31874,47.71592],[10.31863,47.71593],[10.31827,47.71594],[10.31777,47.71592],[10.31771,47.71592],[10.31751,47.7159],[10.31714,47.71585],[10.3167,47.71576],[10.31612,47.71558],[10.31591,47.71551],[10.31554,47.7154],[10.31513,47.71531],[10.31507,47.71529],[10.31495,47.71527],[10.31487,47.71522],[10.31476,47.71514],[10.31471,47.71503],[10.31466,47.71486],[10.31473,47.7146],[10.31485,47.71411],[10.31487,47.71402],[10.31496,47.71357],[10.31498,47.71332],[10.31499,47.7131],[10.31498,47.71293],[10.31493,47.71271],[10.31484,47.71239],[10.31479,47.71225],[10.31466,47.71197],[10.3145,47.7117],[10.31439,47.71151],[10.31429,47.71137],[10.31421,47.71126],[10.31411,47.71112],[10.314,47.711],[10.3139,47.71088],[10.31384,47.7108],[10.31379,47.71075],[10.31362,47.71057],[10.31336,47.71034],[10.31323,47.71021],[10.31311,47.7101],[10.31283,47.70982],[10.31255,47.70954],[10.31243,47.7094],[10.312,47.70893],[10.31186,47.70874],[10.31177,47.70862],[10.31169,47.70848],[10.31165,47.70843],[10.31162,47.70834],[10.31157,47.70817],[10.31154,47.70799],[10.31151,47.70764],[10.31154,47.70743],[10.31156,47.70727],[10.31161,47.70707],[10.31166,47.70682],[10.31172,47.70666],[10.31177,47.70653],[10.31191,47.70628],[10.31201,47.7061],[10.31206,47.706],[10.31223,47.70571],[10.31244,47.70533],[10.31259,47.70492],[10.31275,47.7045],[10.31278,47.70439],[10.31281,47.70427],[10.31283,47.70417],[10.31287,47.70392],[10.31291,47.70357],[10.31293,47.70318],[10.31292,47.70287],[10.31292,47.70284],[10.31292,47.70267],[10.31291,47.70253],[10.3129,47.7022],[10.31289,47.70196],[10.31288,47.70175],[10.31288,47.70143],[10.31289,47.70112],[10.31291,47.70079],[10.31298,47.70011],[10.31309,47.69923],[10.31314,47.69881],[10.31315,47.69851],[10.31315,47.69826],[10.31312,47.69804],[10.3131,47.69793],[10.31307,47.6978],[10.313,47.69763],[10.31294,47.69751],[10.31292,47.69745],[10.31279,47.69722],[10.31268,47.69704],[10.31257,47.69683],[10.31245,47.6966],[10.31239,47.69647],[10.31234,47.69634],[10.31231,47.69618],[10.31229,47.69602],[10.31228,47.69587],[10.31227,47.69502],[10.31221,47.69456],[10.3121,47.69425],[10.31155,47.69338],[10.31152,47.69333],[10.3114,47.69313],[10.31135,47.69305],[10.31129,47.69295],[10.31089,47.69219],[10.31077,47.69194],[10.3106,47.69132],[10.31059,47.69113],[10.31058,47.69091],[10.3106,47.69043],[10.31071,47.68962],[10.31072,47.68935],[10.31069,47.68912],[10.31058,47.6887],[10.31035,47.68818],[10.31007,47.68767],[10.30984,47.68734],[10.30979,47.68727],[10.3097,47.68715],[10.30942,47.68677],[10.30936,47.6867],[10.30931,47.68663],[10.30924,47.68653],[10.30922,47.6865],[10.30911,47.68636],[10.30898,47.6862],[10.30873,47.6858],[10.30864,47.68565],[10.30841,47.68527],[10.30822,47.68503],[10.30807,47.68484],[10.30786,47.68462],[10.30778,47.68454],[10.30771,47.68447],[10.30768,47.68445],[10.30747,47.68427],[10.30734,47.68418],[10.30652,47.6836],[10.30631,47.6834],[10.30609,47.68318],[10.30593,47.683],[10.30582,47.68282],[10.30546,47.68206],[10.3054,47.68192],[10.3053,47.68166],[10.30527,47.68158],[10.30523,47.68149],[10.30519,47.68141],[10.30514,47.68128],[10.30508,47.68113],[10.30499,47.68091],[10.30488,47.68065],[10.30482,47.68046],[10.30476,47.68028],[10.30473,47.68018],[10.30466,47.67997],[10.30454,47.67961],[10.30444,47.67947],[10.30428,47.67903],[10.30427,47.679],[10.30423,47.6789],[10.30415,47.6787],[10.30409,47.67858],[10.30386,47.67818],[10.30376,47.67805],[10.30363,47.67789],[10.30339,47.67766],[10.30263,47.67698],[10.30242,47.67676],[10.30218,47.67645],[10.30201,47.67617],[10.30187,47.67586],[10.30176,47.67556],[10.3017,47.67528],[10.30153,47.67432],[10.30149,47.67412],[10.30141,47.67385],[10.30133,47.67364],[10.30121,47.67339],[10.30105,47.67311],[10.30088,47.67286],[10.30069,47.67265],[10.30044,47.67239],[10.30006,47.67207],[10.29971,47.6718],[10.29914,47.67129],[10.29881,47.67095],[10.29854,47.67056],[10.29832,47.67022],[10.29808,47.66966],[10.298,47.66935],[10.29796,47.6691],[10.29795,47.66867],[10.29797,47.66837],[10.29804,47.66801],[10.29812,47.66773],[10.29828,47.66731],[10.29853,47.66676],[10.29897,47.6657],[10.29909,47.6652],[10.29915,47.6648],[10.29914,47.66415],[10.29909,47.66379],[10.299,47.6633],[10.29877,47.6624],[10.29863,47.6618],[10.29856,47.66136],[10.29851,47.66074],[10.29852,47.65994],[10.29852,47.65973],[10.29852,47.65966],[10.29852,47.65938],[10.29853,47.65915],[10.29851,47.65868],[10.2985,47.65859],[10.29845,47.65823],[10.29838,47.6579],[10.29823,47.65738],[10.29804,47.65686],[10.29795,47.65667],[10.29789,47.65657],[10.29774,47.65628],[10.29757,47.65599],[10.29719,47.65544],[10.29659,47.65463],[10.29625,47.65409],[10.29606,47.65368],[10.29592,47.65325],[10.29583,47.65275],[10.2958,47.65219],[10.29588,47.65065],[10.29584,47.65013],[10.29574,47.6497],[10.29566,47.64947],[10.29557,47.64923],[10.29538,47.64885],[10.29511,47.64841],[10.29481,47.64803],[10.29469,47.6479],[10.29446,47.64766],[10.29429,47.64748],[10.29403,47.64724],[10.29379,47.64705],[10.29346,47.64677],[10.29269,47.64623],[10.29238,47.64601],[10.29187,47.64567],[10.29106,47.64514],[10.2903,47.64462],[10.28975,47.6442],[10.28968,47.64416],[10.28922,47.64379],[10.28894,47.64354],[10.28839,47.64298],[10.28795,47.64242],[10.28776,47.64216],[10.2876,47.6419],[10.28748,47.64167],[10.28731,47.64135],[10.28718,47.64105],[10.28706,47.64072],[10.28695,47.64035],[10.28689,47.64008],[10.2868,47.63958],[10.28671,47.63912],[10.2866,47.63867],[10.28652,47.63843],[10.28642,47.6382],[10.28632,47.638],[10.28617,47.63774],[10.28602,47.63752],[10.28588,47.63731],[10.28568,47.63706],[10.28546,47.63682],[10.28528,47.63664],[10.28429,47.63573],[10.28363,47.63514],[10.28311,47.63466],[10.28274,47.63428],[10.28235,47.63382],[10.28215,47.63356],[10.2819,47.63321],[10.28132,47.63229],[10.28127,47.63221],[10.28112,47.63197],[10.28072,47.63135],[10.28018,47.63047],[10.27961,47.62953],[10.27943,47.62925],[10.27905,47.62865],[10.27858,47.62782],[10.2783,47.6273],[10.2781,47.62689],[10.27769,47.62604],[10.27741,47.62537],[10.27721,47.62485],[10.27702,47.6243],[10.27676,47.6235],[10.27656,47.62278],[10.27645,47.62231],[10.27634,47.62179],[10.27618,47.62084],[10.27605,47.61984],[10.27591,47.61859],[10.27586,47.61811],[10.27578,47.61752],[10.27566,47.61679],[10.27539,47.61578],[10.27526,47.61535],[10.27511,47.61492],[10.27486,47.61424],[10.27468,47.61379],[10.27433,47.61283],[10.2741,47.61209],[10.274,47.61169],[10.27388,47.61113],[10.27384,47.61084],[10.27381,47.61068],[10.27376,47.61019],[10.27368,47.60931],[10.27361,47.60857],[10.27357,47.60805],[10.27352,47.60746],[10.2735,47.60724],[10.27335,47.60599],[10.27322,47.60535],[10.27311,47.60493],[10.27301,47.60454],[10.27289,47.60415],[10.27271,47.60369],[10.27243,47.60308],[10.27211,47.60246],[10.27187,47.60205],[10.27165,47.60172],[10.27144,47.60142],[10.27123,47.60112],[10.27097,47.60079],[10.27052,47.60026],[10.27014,47.59986],[10.26982,47.59955],[10.26945,47.59919],[10.26902,47.59882],[10.26861,47.59849],[10.26772,47.59783],[10.2672,47.59748],[10.26618,47.59681],[10.26585,47.59661],[10.26542,47.59633],[10.26486,47.59594],[10.26471,47.59583],[10.26439,47.59559],[10.26398,47.59527],[10.26359,47.59494],[10.26321,47.59459],[10.26277,47.59417],[10.26242,47.59381],[10.26199,47.59336],[10.26154,47.59287],[10.26056,47.59182],[10.25928,47.59045],[10.25828,47.58939],[10.25703,47.58804],[10.25243,47.58311],[10.25184,47.58248],[10.25126,47.58184],[10.25095,47.58145],[10.25085,47.58133],[10.2506,47.58096],[10.25043,47.58067],[10.25023,47.58033],[10.25009,47.58003],[10.24993,47.57963],[10.24982,47.57929],[10.24975,47.57897],[10.24968,47.57858],[10.24966,47.57817],[10.24967,47.57774],[10.2497,47.57731],[10.24976,47.57683],[10.24981,47.57619],[10.2498,47.57584],[10.24978,47.57556],[10.24974,47.57528],[10.24967,47.575],[10.24957,47.5747],[10.24945,47.5744],[10.24932,47.57415],[10.24908,47.57377],[10.24881,47.57339],[10.24845,47.573],[10.24808,47.57266],[10.248,47.57259],[10.24769,47.57235],[10.24724,47.57205],[10.24696,47.57189],[10.24674,47.57183],[10.24605,47.5716],[10.24539,47.57138],[10.24464,47.57115],[10.24371,47.57085],[10.24366,47.57083],[10.24338,47.57104],[10.24307,47.57126],[10.24233,47.57167],[10.24164,47.57195],[10.24118,47.57211],[10.24012,47.57233],[10.23967,47.5724],[10.23917,47.57245],[10.23794,47.5725],[10.23771,47.57256],[10.23737,47.57265],[10.23731,47.57267],[10.23731,47.5727],[10.2373,47.57274],[10.23728,47.57277],[10.23726,47.5728],[10.23722,47.57283],[10.23718,47.57286],[10.23714,47.57288],[10.23709,47.57289],[10.23704,47.5729],[10.23696,47.57291],[10.23688,47.5729],[10.2368,47.57288],[10.23673,47.57285],[10.23668,47.57281],[10.23663,47.57277],[10.23661,47.57271],[10.23661,47.57267],[10.23661,47.57263],[10.23663,47.57258],[10.23666,47.57254],[10.23669,47.57251],[10.23673,47.57249],[10.23678,47.57247],[10.23681,47.5724],[10.23682,47.57236],[10.23681,47.57232],[10.23676,47.57219],[10.23671,47.5721],[10.23662,47.5719],[10.2365,47.57178],[10.23617,47.57145],[10.23594,47.57122],[10.23567,47.57097],[10.23556,47.57087],[10.23526,47.57056],[10.23516,47.57046],[10.2351,47.57041],[10.23497,47.57028],[10.23477,47.57006],[10.23465,47.56994],[10.23435,47.56963],[10.23422,47.56953],[10.23419,47.5695],[10.23392,47.56926],[10.23371,47.56911],[10.233,47.56864],[10.23272,47.56844],[10.23255,47.56831],[10.23234,47.56815],[10.23197,47.56782],[10.23179,47.56765],[10.23102,47.56693],[10.23042,47.56634],[10.2297,47.56565],[10.22948,47.56546],[10.22931,47.5653],[10.22906,47.56511],[10.22877,47.5649],[10.2285,47.56473],[10.22828,47.5646],[10.22823,47.56457],[10.22782,47.56437],[10.22741,47.56414],[10.22701,47.56386],[10.22692,47.56379],[10.22683,47.56372],[10.22672,47.5636],[10.22661,47.56349],[10.22642,47.56326],[10.2264,47.56323],[10.22617,47.56292],[10.22613,47.56287],[10.22607,47.5628],[10.22606,47.56278],[10.22583,47.56251],[10.22569,47.56233],[10.22559,47.56226],[10.22557,47.56227],[10.22555,47.56228],[10.22552,47.56228],[10.2255,47.56228],[10.22547,47.56228],[10.22545,47.56227],[10.22543,47.56226],[10.22541,47.56225],[10.2254,47.56224],[10.22539,47.56222],[10.22538,47.5622],[10.22538,47.56219],[10.22539,47.56217],[10.2254,47.56215],[10.22541,47.56214],[10.22543,47.56213],[10.22444,47.56156],[10.22416,47.56144],[10.22402,47.56139],[10.22372,47.56131],[10.2236,47.56128],[10.22347,47.56126],[10.22337,47.56124],[10.22309,47.56121],[10.22264,47.56116],[10.22181,47.56106],[10.22147,47.56103],[10.22136,47.56101],[10.22135,47.56103],[10.22133,47.56105],[10.22131,47.56106],[10.22129,47.56107],[10.22126,47.56108],[10.22123,47.56108],[10.2212,47.56108],[10.22117,47.56107],[10.22115,47.56106],[10.22113,47.56105],[10.22112,47.56103],[10.22111,47.56101],[10.22111,47.56099],[10.22111,47.56097],[10.22112,47.56096],[10.22114,47.56094],[10.22115,47.56093],[10.22117,47.56092],[10.22119,47.56092],[10.22122,47.56091],[10.22123,47.56088],[10.22124,47.56084],[10.22124,47.56078],[10.22122,47.56068],[10.22121,47.56063],[10.22116,47.56045],[10.22114,47.56037],[10.22106,47.5601],[10.22104,47.56001],[10.22096,47.55974],[10.22093,47.55964],[10.22089,47.55956],[10.22083,47.55946],[10.22078,47.5594],[10.22072,47.55933],[10.22069,47.55934],[10.22067,47.55935],[10.22064,47.55935],[10.22062,47.55935],[10.22059,47.55935],[10.22056,47.55935],[10.22054,47.55934],[10.22052,47.55933],[10.2205,47.55932],[10.22048,47.55929],[10.22047,47.55927],[10.22046,47.55924],[10.22047,47.55921],[10.22043,47.55918],[10.2204,47.55915],[10.22038,47.55911],[10.2203,47.559],[10.22026,47.55886],[10.22018,47.5586],[10.22017,47.55856],[10.22012,47.55834],[10.21976,47.55835],[10.21922,47.55841],[10.2188,47.55847],[10.21858,47.55851],[10.21829,47.55855],[10.218,47.5586],[10.21733,47.5587],[10.2172,47.55871],[10.2166,47.55881],[10.21671,47.55891],[10.21695,47.55887]],"type":"LineString"},"properties":{"quelle":"OSRM router.project-osrm.org, Profil driving","von":[47.718,10.322],"nach":[47.559,10.217],"distanz_m":21632.4,"dauer_s":1224.2,"punkte":624}}
