{"type":"Feature","geometry":{"coordinates":[[10.21695,47.55887],[10.21738,47.55879],[10.21733,47.5587],[10.218,47.5586],[10.21829,47.55855],[10.21858,47.55851],[10.2188,47.55847],[10.21922,47.55841],[10.21976,47.55835],[10.22012,47.55834],[10.22048,47.55834],[10.22092,47.55837],[10.22108,47.55837],[10.22138,47.55836],[10.22158,47.55833],[10.22181,47.55827],[10.22189,47.55825],[10.22242,47.55805],[10.22266,47.55794],[10.22272,47.55792],[10.22292,47.55784],[10.22299,47.55782],[10.22329,47.55776],[10.22354,47.55771],[10.22387,47.55768],[10.22439,47.55768],[10.22466,47.55769],[10.22487,47.55767],[10.22513,47.55763],[10.2256,47.55748],[10.22565,47.55746],[10.22575,47.55743],[10.22592,47.55738],[10.22653,47.55719],[10.2266,47.55716],[10.22754,47.55688],[10.22757,47.55686],[10.22842,47.55655],[10.22891,47.55633],[10.2294,47.55599],[10.22951,47.55592],[10.2297,47.55579],[10.22973,47.55577],[10.23007,47.55553],[10.23037,47.55533],[10.23044,47.55527],[10.23052,47.55521],[10.2309,47.55497],[10.231,47.55491],[10.23107,47.55487],[10.23127,47.55476],[10.23133,47.55473],[10.23144,47.55464],[10.2315,47.5546],[10.23152,47.55458],[10.2315,47.55456],[10.23149,47.55454],[10.23149,47.55452],[10.23149,47.5545],[10.2315,47.55448],[10.23151,47.55446],[10.23153,47.55444],[10.23157,47.55442],[10.23161,47.55441],[10.23165,47.55441],[10.23168,47.55441],[10.23171,47.55442],[10.23174,47.55443],[10.23177,47.55444],[10.23179,47.55446],[10.23181,47.55448],[10.23182,47.55451],[10.23182,47.55453],[10.23193,47.55462],[10.23201,47.5547],[10.23249,47.55492],[10.2327,47.55503],[10.23273,47.55504],[10.23386,47.55559],[10.23423,47.55574],[10.23428,47.55575],[10.23457,47.55584],[10.2349,47.55591],[10.2353,47.55598],[10.23587,47.55603],[10.23621,47.55605],[10.23635,47.55606],[10.23668,47.55606],[10.23726,47.55603],[10.2378,47.55597],[10.23841,47.55586],[10.23884,47.55576],[10.239,47.55571],[10.23975,47.55546],[10.24047,47.55519],[10.24107,47.55497],[10.24166,47.55477],[10.24217,47.55464],[10.24276,47.55453],[10.24325,47.55449],[10.24372,47.55448],[10.24403,47.55449],[10.24434,47.55452],[10.24473,47.55456],[10.24516,47.55465],[10.24536,47.55469],[10.24559,47.55476],[10.24615,47.55497],[10.24657,47.55516],[10.24706,47.55545],[10.24752,47.55584],[10.24776,47.55615],[10.2479,47.55631],[10.24797,47.55636],[10.24805,47.55643],[10.24808,47.55646],[10.24814,47.55646],[10.24822,47.55647],[10.24827,47.55649],[10.2483,47.55651],[10.24851,47.55644],[10.2487,47.5564],[10.24889,47.55638],[10.24905,47.5564],[10.24921,47.55647],[10.24949,47.55661],[10.24963,47.55666],[10.24973,47.55666],[10.24987,47.55665],[10.25019,47.55655],[10.25077,47.55616],[10.25113,47.55594],[10.25277,47.55485],[10.25511,47.55332],[10.25553,47.55305],[10.25758,47.55169],[10.25911,47.55069],[10.26146,47.54915],[10.26292,47.54819],[10.26365,47.54768],[10.26427,47.54725],[10.26494,47.54672],[10.26551,47.54621],[10.26597,47.54575],[10.2664,47.54522],[10.2667,47.54478],[10.26701,47.54424],[10.26719,47.54382],[10.26731,47.54348],[10.26741,47.54312],[10.26749,47.54274],[10.26754,47.54235],[10.26756,47.54205],[10.26756,47.54132],[10.2675,47.54062],[10.2674,47.53986],[10.2673,47.5392],[10.26702,47.53737],[10.26689,47.53642],[10.26678,47.53556],[10.26662,47.53407],[10.26658,47.53324],[10.26656,47.53251],[10.26657,47.53164],[10.26667,47.53053],[10.26679,47.52959],[10.26695,47.52869],[10.26705,47.52824],[10.2671,47.52801],[10.26745,47.52648],[10.26759,47.52598],[10.26802,47.52445],[10.26811,47.52413],[10.26839,47.52316],[10.26858,47.52251],[10.26867,47.52219],[10.26872,47.52198],[10.26881,47.52161],[10.26884,47.52144],[10.26889,47.52117],[10.26892,47.5209],[10.26895,47.52055],[10.26899,47.52015],[10.26903,47.51962],[10.26904,47.51949],[10.26906,47.51927],[10.2691,47.51902],[10.26915,47.51879],[10.2692,47.51861],[10.26925,47.51839],[10.26928,47.5183],[10.26933,47.51817],[10.26942,47.51794],[10.26954,47.51766],[10.26975,47.51725],[10.27023,47.51641],[10.27031,47.51626],[10.27038,47.5161],[10.2704,47.51607],[10.27049,47.51586],[10.27059,47.51563],[10.27071,47.51546],[10.27082,47.51512],[10.27092,47.51475],[10.27104,47.5142],[10.27106,47.51412],[10.27119,47.5135],[10.27131,47.51285],[10.27135,47.51262],[10.27146,47.51195],[10.27154,47.51144],[10.2716,47.51102],[10.27166,47.51065],[10.27156,47.51031],[10.27145,47.51004],[10.27121,47.50974],[10.27098,47.50956],[10.27072,47.50938],[10.27059,47.50921],[10.27056,47.50911],[10.27057,47.50901],[10.27055,47.50893],[10.27057,47.5088],[10.27067,47.50863],[10.27085,47.5085],[10.27107,47.50839],[10.27183,47.50815],[10.27206,47.50803],[10.27247,47.50775],[10.27269,47.50754],[10.27299,47.50729],[10.27312,47.50722],[10.27319,47.50719],[10.27335,47.5071],[10.27345,47.50707],[10.27361,47.50705],[10.27385,47.50706],[10.27406,47.50708],[10.27417,47.50711],[10.27423,47.50712],[10.2744,47.50719],[10.27492,47.50756],[10.27515,47.50773],[10.27545,47.50796],[10.27573,47.50817],[10.27591,47.50833],[10.27611,47.5085],[10.27617,47.50849],[10.27622,47.50849],[10.27628,47.50851],[10.27632,47.50854],[10.27635,47.50857],[10.27636,47.50861],[10.27635,47.50865],[10.27632,47.50869],[10.27643,47.5088],[10.27657,47.50889],[10.2769,47.50917],[10.2772,47.50942],[10.27724,47.50947],[10.27789,47.50933],[10.27857,47.50919],[10.27898,47.50911],[10.28022,47.50885],[10.28034,47.50882],[10.28044,47.50882],[10.28047,47.50884],[10.28049,47.50886],[10.28064,47.5092],[10.28075,47.50945],[10.2808,47.50956],[10.28083,47.50962],[10.28086,47.50971],[10.28085,47.50982],[10.28081,47.50995],[10.28078,47.51002],[10.2807,47.51012],[10.28067,47.51017],[10.28063,47.51021],[10.28039,47.51052],[10.28038,47.51055],[10.28036,47.51062],[10.28036,47.51074],[10.28046,47.51096],[10.28048,47.51102],[10.27991,47.51114],[10.27998,47.51132],[10.28003,47.51144]],"type":"LineString"},"properties":{"quelle":"OSRM router.project-osrm.org, Profil driving","von":[47.559,10.217],"nach":[47.51143,10.28011],"distanz_m":10059.4,"dauer_s":655.7,"punkte":288}}
