{"type":"Feature","geometry":{"coordinates":[[10.28931,47.53186],[10.28869,47.53212],[10.28824,47.53233],[10.28797,47.53246],[10.28768,47.53254],[10.28746,47.5322],[10.28739,47.5321],[10.28694,47.53257],[10.2867,47.53275],[10.28648,47.53291],[10.28603,47.53309],[10.28546,47.53323],[10.28383,47.53358],[10.28378,47.53352],[10.28362,47.53325],[10.28339,47.53287],[10.28321,47.53257],[10.28261,47.53142],[10.28257,47.53135],[10.28196,47.53024],[10.28191,47.53015],[10.28147,47.52944],[10.28105,47.52878],[10.28086,47.52837],[10.28074,47.52806],[10.28068,47.52778],[10.28065,47.52754],[10.28064,47.52745],[10.28064,47.52708],[10.28067,47.52674],[10.28081,47.52623],[10.28108,47.52557],[10.28153,47.52482],[10.28158,47.5247],[10.28162,47.52456],[10.28163,47.52452],[10.28163,47.52445],[10.28163,47.52438],[10.28161,47.52426],[10.28157,47.52406],[10.28157,47.52388],[10.28159,47.52379],[10.28163,47.52369],[10.28168,47.52359],[10.28184,47.52337],[10.28186,47.5233],[10.28191,47.5232],[10.28194,47.52313],[10.28195,47.52305],[10.28197,47.5229],[10.28198,47.5227],[10.28199,47.52261],[10.28199,47.52248],[10.28201,47.52215],[10.28202,47.52201],[10.28203,47.52182],[10.28203,47.52166],[10.28204,47.52138],[10.28203,47.52123],[10.28202,47.52092],[10.28201,47.52077],[10.28201,47.52074],[10.28196,47.52042],[10.28193,47.52021],[10.28189,47.52],[10.28187,47.51993],[10.28178,47.5196],[10.28167,47.51918],[10.28151,47.51879],[10.28142,47.51853],[10.28133,47.51829],[10.28132,47.51826],[10.28131,47.51823],[10.28125,47.51806],[10.28112,47.51771],[10.28102,47.51713],[10.281,47.51665],[10.281,47.51656],[10.28105,47.51637],[10.28116,47.51615],[10.28128,47.51592],[10.28133,47.51578],[10.28132,47.51526],[10.28112,47.51527],[10.28101,47.51528],[10.28097,47.51507]],"type":"LineString"},"properties":{"quelle":"OSRM router.project-osrm.org, Profil driving","von":[47.53169,10.28915],"nach":[47.515,10.281],"distanz_m":2680.6,"dauer_s":272.4,"punkte":86}}
