{
 "type": "Feature",
 "geometry": {
  "coordinates": [
   [
    10.280969,
    47.515073
   ],
   [
    10.281013,
    47.515277
   ],
   [
    10.281121,
    47.515271
   ],
   [
    10.281317,
    47.515261
   ],
   [
    10.281332,
    47.515784
   ],
   [
    10.281276,
    47.515923
   ],
   [
    10.281164,
    47.516149
   ],
   [
    10.281053,
    47.516375
   ],
   [
    10.281002,
    47.516557
   ],
   [
    10.280996,
    47.516648
   ],
   [
    10.281015,
    47.517127
   ],
   [
    10.281124,
    47.517712
   ],
   [
    10.28125,
    47.518062
   ],
   [
    10.281296,
    47.518192
   ],
   [
    10.281309,
    47.518228
   ],
   [
    10.281318,
    47.518255
   ],
   [
    10.28133,
    47.518286
   ],
   [
    10.281418,
    47.518533
   ],
   [
    10.281511,
    47.518795
   ],
   [
    10.281674,
    47.519181
   ],
   [
    10.281779,
    47.519595
   ],
   [
    10.281867,
    47.519927
   ],
   [
    10.281887,
    47.520001
   ],
   [
    10.281929,
    47.520208
   ],
   [
    10.281965,
    47.52042
   ],
   [
    10.282006,
    47.520739
   ],
   [
    10.282007,
    47.520769
   ],
   [
    10.282016,
    47.520925
   ],
   [
    10.282033,
    47.521233
   ],
   [
    10.282041,
    47.521378
   ],
   [
    10.282032,
    47.521656
   ],
   [
    10.282026,
    47.521824
   ],
   [
    10.282019,
    47.522012
   ],
   [
    10.282015,
    47.522145
   ],
   [
    10.281994,
    47.52248
   ],
   [
    10.281987,
    47.522612
   ],
   [
    10.281983,
    47.522702
   ],
   [
    10.281973,
    47.522903
   ],
   [
    10.281952,
    47.523051
   ],
   [
    10.281937,
    47.523134
   ],
   [
    10.281908,
    47.523203
   ],
   [
    10.281864,
    47.523304
   ],
   [
    10.281836,
    47.523369
   ],
   [
    10.281676,
    47.523591
   ],
   [
    10.281625,
    47.523693
   ],
   [
    10.281591,
    47.523793
   ],
   [
    10.28157,
    47.523881
   ],
   [
    10.281568,
    47.524059
   ],
   [
    10.281609,
    47.524265
   ],
   [
    10.281628,
    47.52438
   ],
   [
    10.281633,
    47.524454
   ],
   [
    10.281625,
    47.524521
   ],
   [
    10.28162,
    47.524557
   ],
   [
    10.281583,
    47.524699
   ],
   [
    10.281526,
    47.524819
   ],
   [
    10.281076,
    47.52557
   ],
   [
    10.280811,
    47.526229
   ],
   [
    10.280668,
    47.526737
   ],
   [
    10.280645,
    47.527076
   ],
   [
    10.280643,
    47.527452
   ],
   [
    10.280653,
    47.527537
   ],
   [
    10.280679,
    47.527777
   ],
   [
    10.280743,
    47.528065
   ],
   [
    10.280862,
    47.528372
   ],
   [
    10.281048,
    47.528777
   ],
   [
    10.281465,
    47.52944
   ],
   [
    10.281911,
    47.530147
   ],
   [
    10.281963,
    47.530241
   ],
   [
    10.282568,
    47.531348
   ],
   [
    10.282606,
    47.531421
   ],
   [
    10.28321,
    47.532568
   ],
   [
    10.283387,
    47.532866
   ],
   [
    10.28362,
    47.533247
   ],
   [
    10.283784,
    47.533517
   ],
   [
    10.283827,
    47.533577
   ],
   [
    10.285462,
    47.533232
   ],
   [
    10.286028,
    47.533094
   ],
   [
    10.286482,
    47.532913
   ],
   [
    10.2867,
    47.532746
   ],
   [
    10.286936,
    47.532566
   ],
   [
    10.287339,
    47.53215
   ]
  ],
  "type": "LineString"
 },
 "properties": {
  "quelle": "OSRM router.project-osrm.org, Profil driving",
  "von": [
   47.515,
   10.281
  ],
  "nach": [
   47.532,
   10.287
  ],
  "distanz_m": 2474.7,
  "dauer_s": 231.6,
  "punkte": 81
 }
}
