{
 "type": "Feature",
 "geometry": {
  "coordinates": [
   [
    10.287339,
    47.53215
   ],
   [
    10.28739,
    47.532098
   ],
   [
    10.287456,
    47.532205
   ],
   [
    10.287677,
    47.532545
   ],
   [
    10.287668,
    47.532728
   ],
   [
    10.287658,
    47.532915
   ],
   [
    10.287635,
    47.533134
   ],
   [
    10.287603,
    47.533559
   ],
   [
    10.2876,
    47.533629
   ],
   [
    10.287598,
    47.533729
   ],
   [
    10.287592,
    47.534039
   ],
   [
    10.287588,
    47.534233
   ],
   [
    10.287586,
    47.534519
   ],
   [
    10.287645,
    47.534882
   ],
   [
    10.287694,
    47.535205
   ],
   [
    10.287702,
    47.535363
   ],
   [
    10.287674,
    47.535448
   ],
   [
    10.287641,
    47.535553
   ],
   [
    10.287531,
    47.535764
   ],
   [
    10.287387,
    47.536039
   ],
   [
    10.287342,
    47.53618
   ],
   [
    10.287294,
    47.536331
   ],
   [
    10.287216,
    47.536458
   ],
   [
    10.287143,
    47.536578
   ],
   [
    10.287068,
    47.536743
   ],
   [
    10.287046,
    47.53693
   ],
   [
    10.287097,
    47.53712
   ],
   [
    10.287159,
    47.537412
   ],
   [
    10.287384,
    47.537536
   ],
   [
    10.287514,
    47.537698
   ],
   [
    10.287605,
    47.537867
   ],
   [
    10.287758,
    47.538107
   ],
   [
    10.287758,
    47.538283
   ],
   [
    10.287771,
    47.538362
   ],
   [
    10.287717,
    47.538436
   ],
   [
    10.287685,
    47.538513
   ],
   [
    10.287699,
    47.538759
   ],
   [
    10.287732,
    47.538849
   ],
   [
    10.287886,
    47.538893
   ],
   [
    10.288229,
    47.538978
   ],
   [
    10.288518,
    47.539037
   ],
   [
    10.28877,
    47.539089
   ],
   [
    10.288968,
    47.539109
   ],
   [
    10.289183,
    47.539125
   ],
   [
    10.2894,
    47.539138
   ],
   [
    10.28964,
    47.539151
   ],
   [
    10.289925,
    47.539148
   ],
   [
    10.289974,
    47.539232
   ],
   [
    10.290048,
    47.539358
   ],
   [
    10.290141,
    47.539514
   ],
   [
    10.290177,
    47.539588
   ],
   [
    10.290188,
    47.53965
   ],
   [
    10.290166,
    47.539768
   ],
   [
    10.290173,
    47.539822
   ],
   [
    10.290236,
    47.539887
   ],
   [
    10.290385,
    47.539996
   ],
   [
    10.290588,
    47.540146
   ],
   [
    10.290658,
    47.540219
   ],
   [
    10.290738,
    47.54027
   ],
   [
    10.290829,
    47.540299
   ],
   [
    10.290992,
    47.540352
   ],
   [
    10.291247,
    47.540388
   ],
   [
    10.291435,
    47.540386
   ],
   [
    10.291707,
    47.540357
   ],
   [
    10.292018,
    47.540307
   ],
   [
    10.292376,
    47.540226
   ],
   [
    10.292497,
    47.540183
   ],
   [
    10.292723,
    47.540091
   ],
   [
    10.292982,
    47.539969
   ],
   [
    10.293407,
    47.539742
   ],
   [
    10.293744,
    47.539538
   ],
   [
    10.293785,
    47.539508
   ],
   [
    10.294395,
    47.539113
   ],
   [
    10.294639,
    47.538875
   ],
   [
    10.294794,
    47.538664
   ],
   [
    10.295007,
    47.538324
   ],
   [
    10.295099,
    47.538239
   ],
   [
    10.295212,
    47.538168
   ],
   [
    10.295418,
    47.538099
   ],
   [
    10.295585,
    47.53804
   ],
   [
    10.295953,
    47.537977
   ],
   [
    10.296213,
    47.538001
   ],
   [
    10.296854,
    47.53821
   ],
   [
    10.297047,
    47.538276
   ],
   [
    10.297163,
    47.538267
   ],
   [
    10.297298,
    47.53825
   ],
   [
    10.297391,
    47.538215
   ],
   [
    10.297516,
    47.538178
   ],
   [
    10.29762,
    47.538125
   ],
   [
    10.297676,
    47.538018
   ],
   [
    10.297802,
    47.537889
   ],
   [
    10.298001,
    47.537795
   ],
   [
    10.298262,
    47.537763
   ],
   [
    10.29854,
    47.537739
   ],
   [
    10.298707,
    47.537746
   ],
   [
    10.298898,
    47.537753
   ],
   [
    10.299171,
    47.53779
   ],
   [
    10.299263,
    47.537802
   ],
   [
    10.299522,
    47.537831
   ],
   [
    10.299915,
    47.537786
   ],
   [
    10.300076,
    47.537734
   ],
   [
    10.300127,
    47.537723
   ],
   [
    10.30065,
    47.537547
   ],
   [
    10.301214,
    47.5373
   ],
   [
    10.301417,
    47.5372
   ],
   [
    10.3017,
    47.537058
   ],
   [
    10.301862,
    47.537022
   ],
   [
    10.301893,
    47.537015
   ],
   [
    10.302192,
    47.53703
   ],
   [
    10.302636,
    47.537071
   ],
   [
    10.302905,
    47.537096
   ],
   [
    10.303032,
    47.537107
   ],
   [
    10.303379,
    47.537135
   ],
   [
    10.303449,
    47.53714
   ],
   [
    10.303946,
    47.537175
   ],
   [
    10.304078,
    47.537181
   ],
   [
    10.304406,
    47.537184
   ],
   [
    10.304511,
    47.537182
   ],
   [
    10.30468,
    47.537179
   ],
   [
    10.304894,
    47.537175
   ],
   [
    10.305377,
    47.537165
   ],
   [
    10.305835,
    47.537145
   ],
   [
    10.306065,
    47.537104
   ],
   [
    10.306464,
    47.536973
   ],
   [
    10.306892,
    47.53671
   ],
   [
    10.306993,
    47.536655
   ],
   [
    10.307153,
    47.536568
   ],
   [
    10.307428,
    47.536431
   ],
   [
    10.307496,
    47.536409
   ],
   [
    10.307605,
    47.536388
   ],
   [
    10.308098,
    47.536296
   ],
   [
    10.308288,
    47.536281
   ],
   [
    10.308933,
    47.536317
   ],
   [
    10.309021,
    47.536322
   ],
   [
    10.309551,
    47.536345
   ],
   [
    10.309638,
    47.536349
   ],
   [
    10.310115,
    47.536366
   ],
   [
    10.310219,
    47.536374
   ],
   [
    10.310493,
    47.536393
   ],
   [
    10.310808,
    47.536457
   ],
   [
    10.31105,
    47.536534
   ],
   [
    10.311461,
    47.536768
   ],
   [
    10.311796,
    47.53704
   ],
   [
    10.312038,
    47.537242
   ],
   [
    10.312166,
    47.53738
   ],
   [
    10.312358,
    47.537538
   ],
   [
    10.312553,
    47.537624
   ],
   [
    10.312734,
    47.537714
   ],
   [
    10.312844,
    47.537757
   ],
   [
    10.312914,
    47.537799
   ],
   [
    10.313,
    47.537907
   ],
   [
    10.313198,
    47.538115
   ],
   [
    10.313342,
    47.538252
   ],
   [
    10.313543,
    47.538363
   ],
   [
    10.313763,
    47.538504
   ],
   [
    10.313807,
    47.538583
   ],
   [
    10.313871,
    47.538633
   ],
   [
    10.313934,
    47.538667
   ],
   [
    10.314049,
    47.538702
   ],
   [
    10.314259,
    47.538728
   ],
   [
    10.314539,
    47.538769
   ],
   [
    10.31467,
    47.538855
   ],
   [
    10.314719,
    47.538894
   ],
   [
    10.314806,
    47.538978
   ],
   [
    10.314982,
    47.539063
   ],
   [
    10.315212,
    47.539161
   ],
   [
    10.315523,
    47.539287
   ],
   [
    10.31584,
    47.539433
   ],
   [
    10.316024,
    47.53957
   ],
   [
    10.316257,
    47.539667
   ],
   [
    10.3165,
    47.53976
   ],
   [
    10.316679,
    47.539811
   ],
   [
    10.316976,
    47.539958
   ],
   [
    10.317042,
    47.540012
   ],
   [
    10.317128,
    47.540091
   ],
   [
    10.317172,
    47.540162
   ],
   [
    10.317231,
    47.540218
   ],
   [
    10.317347,
    47.540333
   ],
   [
    10.317448,
    47.540392
   ],
   [
    10.317539,
    47.540422
   ],
   [
    10.317654,
    47.540436
   ],
   [
    10.317831,
    47.540447
   ],
   [
    10.318088,
    47.540489
   ],
   [
    10.318481,
    47.540622
   ],
   [
    10.318996,
    47.540801
   ],
   [
    10.319513,
    47.54102
   ],
   [
    10.319929,
    47.541223
   ],
   [
    10.320039,
    47.541277
   ],
   [
    10.320362,
    47.541458
   ],
   [
    10.320533,
    47.541575
   ],
   [
    10.320745,
    47.541743
   ],
   [
    10.321329,
    47.542079
   ],
   [
    10.321641,
    47.542273
   ],
   [
    10.321854,
    47.542373
   ],
   [
    10.321907,
    47.542422
   ],
   [
    10.322017,
    47.542475
   ],
   [
    10.322137,
    47.542527
   ],
   [
    10.322204,
    47.542563
   ],
   [
    10.322244,
    47.542603
   ],
   [
    10.322271,
    47.542676
   ],
   [
    10.322255,
    47.542888
   ],
   [
    10.322272,
    47.542931
   ],
   [
    10.322318,
    47.542963
   ],
   [
    10.322353,
    47.543008
   ],
   [
    10.322422,
    47.543125
   ],
   [
    10.322481,
    47.543175
   ],
   [
    10.322542,
    47.543203
   ],
   [
    10.322664,
    47.543283
   ],
   [
    10.322741,
    47.543386
   ],
   [
    10.322798,
    47.543488
   ],
   [
    10.322781,
    47.543659
   ],
   [
    10.322789,
    47.543778
   ],
   [
    10.322795,
    47.543952
   ],
   [
    10.322739,
    47.544087
   ],
   [
    10.322743,
    47.544199
   ],
   [
    10.322783,
    47.544267
   ],
   [
    10.322844,
    47.544338
   ],
   [
    10.322878,
    47.5444
   ],
   [
    10.322899,
    47.544447
   ],
   [
    10.322899,
    47.54449
   ],
   [
    10.322734,
    47.544591
   ],
   [
    10.322614,
    47.544662
   ],
   [
    10.322368,
    47.544752
   ],
   [
    10.322267,
    47.544772
   ],
   [
    10.322201,
    47.544772
   ]
  ],
  "type": "LineString"
 },
 "properties": {
  "quelle": "OSRM router.project-osrm.org, Profil driving",
  "von": [
   47.532,
   10.287
  ],
  "nach": [
   47.548,
   10.321
  ],
  "distanz_m": 4230,
  "dauer_s": 1019.7,
  "punkte": 225
 }
}
