{
 "type": "Feature",
 "geometry": {
  "coordinates": [
   [
    10.332142,
    47.584081
   ],
   [
    10.332691,
    47.584774
   ],
   [
    10.333151,
    47.585343
   ],
   [
    10.333253,
    47.585585
   ],
   [
    10.333455,
    47.585845
   ],
   [
    10.333188,
    47.585748
   ],
   [
    10.332918,
    47.585658
   ],
   [
    10.332025,
    47.585525
   ],
   [
    10.331739,
    47.58549
   ],
   [
    10.331624,
    47.585476
   ],
   [
    10.331577,
    47.585484
   ],
   [
    10.331431,
    47.585483
   ],
   [
    10.331247,
    47.585455
   ],
   [
    10.33096,
    47.585357
   ],
   [
    10.330825,
    47.5853
   ],
   [
    10.3307,
    47.585276
   ],
   [
    10.330598,
    47.585292
   ],
   [
    10.330533,
    47.585351
   ],
   [
    10.330497,
    47.585497
   ],
   [
    10.330576,
    47.585696
   ],
   [
    10.330792,
    47.585947
   ],
   [
    10.330847,
    47.586037
   ],
   [
    10.330855,
    47.586094
   ],
   [
    10.330805,
    47.586168
   ],
   [
    10.330693,
    47.586185
   ],
   [
    10.330597,
    47.586174
   ],
   [
    10.330366,
    47.58608
   ],
   [
    10.329981,
    47.585886
   ],
   [
    10.329865,
    47.585847
   ],
   [
    10.32976,
    47.58581
   ],
   [
    10.329359,
    47.585703
   ],
   [
    10.329152,
    47.585646
   ],
   [
    10.329,
    47.58559
   ],
   [
    10.3288,
    47.585492
   ],
   [
    10.328621,
    47.585358
   ],
   [
    10.328533,
    47.58525
   ],
   [
    10.328238,
    47.584861
   ],
   [
    10.32807,
    47.584657
   ],
   [
    10.327975,
    47.584579
   ],
   [
    10.32787,
    47.584515
   ],
   [
    10.327722,
    47.584473
   ],
   [
    10.327606,
    47.584478
   ],
   [
    10.327536,
    47.584555
   ],
   [
    10.327505,
    47.584702
   ],
   [
    10.327448,
    47.584815
   ],
   [
    10.327301,
    47.585066
   ],
   [
    10.327243,
    47.58521
   ],
   [
    10.32722,
    47.585343
   ],
   [
    10.327235,
    47.585484
   ],
   [
    10.327245,
    47.585575
   ],
   [
    10.327252,
    47.585666
   ],
   [
    10.327219,
    47.585704
   ],
   [
    10.327136,
    47.585736
   ],
   [
    10.326334,
    47.585198
   ],
   [
    10.326283,
    47.585189
   ],
   [
    10.326181,
    47.585181
   ],
   [
    10.325981,
    47.585244
   ],
   [
    10.325902,
    47.585296
   ],
   [
    10.325873,
    47.585327
   ],
   [
    10.325841,
    47.585376
   ],
   [
    10.325802,
    47.585585
   ],
   [
    10.325732,
    47.585679
   ],
   [
    10.325613,
    47.585749
   ],
   [
    10.325335,
    47.585509
   ],
   [
    10.32532,
    47.58543
   ],
   [
    10.325291,
    47.585325
   ],
   [
    10.325282,
    47.585294
   ],
   [
    10.325177,
    47.585182
   ],
   [
    10.324999,
    47.585093
   ],
   [
    10.324887,
    47.585071
   ],
   [
    10.324763,
    47.585075
   ],
   [
    10.324629,
    47.585114
   ],
   [
    10.324549,
    47.585161
   ],
   [
    10.324417,
    47.585211
   ],
   [
    10.324368,
    47.585229
   ],
   [
    10.324273,
    47.585235
   ],
   [
    10.324087,
    47.585243
   ],
   [
    10.323929,
    47.585238
   ],
   [
    10.323893,
    47.585238
   ],
   [
    10.32355,
    47.585212
   ],
   [
    10.323075,
    47.585129
   ],
   [
    10.322594,
    47.585034
   ],
   [
    10.322411,
    47.584999
   ],
   [
    10.322239,
    47.584968
   ],
   [
    10.322069,
    47.584921
   ],
   [
    10.321892,
    47.584837
   ],
   [
    10.321541,
    47.584617
   ],
   [
    10.321263,
    47.58444
   ],
   [
    10.32093,
    47.584227
   ],
   [
    10.3206,
    47.58405
   ],
   [
    10.320356,
    47.583934
   ],
   [
    10.320279,
    47.583899
   ],
   [
    10.320166,
    47.583856
   ],
   [
    10.320025,
    47.583809
   ],
   [
    10.319898,
    47.583774
   ],
   [
    10.319822,
    47.583756
   ],
   [
    10.319519,
    47.583692
   ],
   [
    10.318941,
    47.583563
   ],
   [
    10.31835,
    47.5834
   ],
   [
    10.317902,
    47.58326
   ],
   [
    10.317644,
    47.583171
   ],
   [
    10.316437,
    47.582674
   ],
   [
    10.315734,
    47.582391
   ],
   [
    10.315203,
    47.5822
   ],
   [
    10.314929,
    47.582102
   ],
   [
    10.314446,
    47.581963
   ],
   [
    10.313932,
    47.58184
   ],
   [
    10.313382,
    47.581738
   ],
   [
    10.31275,
    47.581671
   ],
   [
    10.311909,
    47.581644
   ],
   [
    10.311301,
    47.58161
   ],
   [
    10.311049,
    47.581582
   ],
   [
    10.310777,
    47.581535
   ],
   [
    10.310329,
    47.58143
   ],
   [
    10.309947,
    47.58129
   ],
   [
    10.309748,
    47.581184
   ],
   [
    10.30881,
    47.580688
   ],
   [
    10.308475,
    47.580521
   ],
   [
    10.307823,
    47.580289
   ],
   [
    10.307064,
    47.580061
   ],
   [
    10.30596,
    47.579739
   ],
   [
    10.305766,
    47.57969
   ],
   [
    10.3056,
    47.579647
   ],
   [
    10.305133,
    47.5795
   ],
   [
    10.304599,
    47.579317
   ],
   [
    10.30408,
    47.579106
   ],
   [
    10.303785,
    47.578946
   ],
   [
    10.3035,
    47.578766
   ],
   [
    10.303007,
    47.578403
   ],
   [
    10.302394,
    47.57788
   ],
   [
    10.301807,
    47.577381
   ],
   [
    10.301607,
    47.577215
   ],
   [
    10.301349,
    47.577048
   ],
   [
    10.30093,
    47.576851
   ],
   [
    10.300216,
    47.576606
   ],
   [
    10.299503,
    47.576305
   ],
   [
    10.298944,
    47.575969
   ],
   [
    10.298394,
    47.575695
   ],
   [
    10.298192,
    47.575612
   ],
   [
    10.298038,
    47.575569
   ],
   [
    10.297823,
    47.575523
   ],
   [
    10.297653,
    47.57549
   ],
   [
    10.297378,
    47.575467
   ],
   [
    10.296834,
    47.575445
   ],
   [
    10.296519,
    47.575408
   ],
   [
    10.296366,
    47.575372
   ],
   [
    10.296195,
    47.575333
   ],
   [
    10.296154,
    47.575322
   ],
   [
    10.296001,
    47.575279
   ],
   [
    10.295714,
    47.575185
   ],
   [
    10.295407,
    47.575052
   ],
   [
    10.29531,
    47.575016
   ],
   [
    10.294904,
    47.574868
   ],
   [
    10.294513,
    47.574766
   ],
   [
    10.294157,
    47.574745
   ],
   [
    10.293737,
    47.574767
   ],
   [
    10.293318,
    47.574809
   ],
   [
    10.292975,
    47.574853
   ],
   [
    10.292872,
    47.574873
   ],
   [
    10.292764,
    47.57491
   ],
   [
    10.292524,
    47.575018
   ],
   [
    10.292281,
    47.575137
   ],
   [
    10.292103,
    47.575209
   ],
   [
    10.291834,
    47.575301
   ],
   [
    10.291655,
    47.57536
   ],
   [
    10.2915,
    47.575392
   ],
   [
    10.291407,
    47.575403
   ],
   [
    10.291293,
    47.575402
   ],
   [
    10.291188,
    47.575384
   ],
   [
    10.291094,
    47.575355
   ],
   [
    10.291016,
    47.575312
   ],
   [
    10.290729,
    47.574964
   ],
   [
    10.29072,
    47.574954
   ],
   [
    10.29055,
    47.574762
   ],
   [
    10.290493,
    47.574677
   ],
   [
    10.290474,
    47.574607
   ],
   [
    10.290429,
    47.574399
   ],
   [
    10.29042,
    47.574337
   ],
   [
    10.290402,
    47.574241
   ],
   [
    10.290387,
    47.574186
   ],
   [
    10.290361,
    47.574143
   ],
   [
    10.290309,
    47.574112
   ],
   [
    10.290237,
    47.574084
   ],
   [
    10.290168,
    47.574058
   ],
   [
    10.289624,
    47.573851
   ],
   [
    10.289301,
    47.573735
   ],
   [
    10.28919,
    47.573691
   ],
   [
    10.289098,
    47.573629
   ],
   [
    10.289052,
    47.573567
   ],
   [
    10.289045,
    47.57351
   ],
   [
    10.289121,
    47.573059
   ],
   [
    10.28917,
    47.57276
   ],
   [
    10.289192,
    47.572543
   ],
   [
    10.289192,
    47.572457
   ],
   [
    10.28917,
    47.572381
   ],
   [
    10.28908,
    47.572261
   ],
   [
    10.288938,
    47.572166
   ],
   [
    10.28887,
    47.57213
   ],
   [
    10.288762,
    47.572102
   ],
   [
    10.288594,
    47.572088
   ],
   [
    10.288445,
    47.572103
   ],
   [
    10.288264,
    47.572152
   ],
   [
    10.288031,
    47.572211
   ],
   [
    10.287811,
    47.572239
   ],
   [
    10.287541,
    47.572234
   ],
   [
    10.287293,
    47.572174
   ],
   [
    10.287173,
    47.572127
   ],
   [
    10.28701,
    47.57205
   ],
   [
    10.286861,
    47.571962
   ],
   [
    10.286636,
    47.571814
   ],
   [
    10.286518,
    47.571711
   ],
   [
    10.286371,
    47.571566
   ],
   [
    10.28623,
    47.571401
   ],
   [
    10.286139,
    47.571229
   ],
   [
    10.286052,
    47.571052
   ],
   [
    10.286,
    47.570803
   ],
   [
    10.285979,
    47.570361
   ],
   [
    10.285994,
    47.569412
   ],
   [
    10.28598,
    47.568812
   ],
   [
    10.285934,
    47.568535
   ],
   [
    10.285835,
    47.568229
   ],
   [
    10.285718,
    47.568
   ],
   [
    10.285558,
    47.567763
   ],
   [
    10.285168,
    47.56738
   ],
   [
    10.284917,
    47.567212
   ],
   [
    10.284656,
    47.567056
   ],
   [
    10.283993,
    47.566777
   ],
   [
    10.283874,
    47.566726
   ],
   [
    10.283703,
    47.566661
   ],
   [
    10.28346,
    47.566569
   ],
   [
    10.28309,
    47.566429
   ],
   [
    10.282654,
    47.566239
   ],
   [
    10.2822,
    47.565992
   ],
   [
    10.2817,
    47.565672
   ],
   [
    10.281238,
    47.565328
   ],
   [
    10.281057,
    47.565168
   ],
   [
    10.280688,
    47.564839
   ],
   [
    10.280214,
    47.564354
   ],
   [
    10.280041,
    47.564172
   ],
   [
    10.279108,
    47.563189
   ],
   [
    10.278172,
    47.562161
   ],
   [
    10.277167,
    47.560995
   ],
   [
    10.276972,
    47.560759
   ],
   [
    10.276873,
    47.560658
   ],
   [
    10.276743,
    47.560559
   ],
   [
    10.276675,
    47.560499
   ],
   [
    10.27664,
    47.560477
   ],
   [
    10.276569,
    47.560483
   ],
   [
    10.276499,
    47.560476
   ],
   [
    10.276447,
    47.560462
   ],
   [
    10.276401,
    47.56044
   ],
   [
    10.276363,
    47.560413
   ],
   [
    10.276328,
    47.560374
   ],
   [
    10.27631,
    47.56033
   ],
   [
    10.276309,
    47.560284
   ],
   [
    10.276324,
    47.56024
   ],
   [
    10.276355,
    47.5602
   ],
   [
    10.2764,
    47.560167
   ],
   [
    10.276454,
    47.560143
   ],
   [
    10.276514,
    47.560128
   ],
   [
    10.276577,
    47.560124
   ],
   [
    10.276641,
    47.56013
   ],
   [
    10.276708,
    47.560059
   ],
   [
    10.276844,
    47.559906
   ],
   [
    10.276965,
    47.559705
   ],
   [
    10.277042,
    47.559599
   ],
   [
    10.277273,
    47.559246
   ],
   [
    10.278142,
    47.55793
   ],
   [
    10.278306,
    47.557651
   ],
   [
    10.278425,
    47.557391
   ],
   [
    10.278524,
    47.557168
   ],
   [
    10.278573,
    47.557019
   ],
   [
    10.278608,
    47.556802
   ],
   [
    10.278621,
    47.556456
   ],
   [
    10.278646,
    47.555995
   ],
   [
    10.2787,
    47.55576
   ],
   [
    10.279097,
    47.554997
   ],
   [
    10.279303,
    47.554698
   ],
   [
    10.279507,
    47.554442
   ],
   [
    10.279792,
    47.554066
   ],
   [
    10.279858,
    47.553963
   ],
   [
    10.279928,
    47.553838
   ],
   [
    10.280048,
    47.55354
   ],
   [
    10.280185,
    47.553201
   ],
   [
    10.28021,
    47.553039
   ],
   [
    10.280203,
    47.55293
   ],
   [
    10.280181,
    47.552823
   ],
   [
    10.280123,
    47.552658
   ],
   [
    10.279983,
    47.552294
   ],
   [
    10.279949,
    47.55219
   ],
   [
    10.279918,
    47.552063
   ],
   [
    10.279893,
    47.551871
   ],
   [
    10.279853,
    47.551609
   ],
   [
    10.279779,
    47.551389
   ],
   [
    10.27968,
    47.551227
   ],
   [
    10.279556,
    47.551094
   ],
   [
    10.279475,
    47.550955
   ],
   [
    10.279437,
    47.550855
   ],
   [
    10.279426,
    47.55074
   ],
   [
    10.279462,
    47.550624
   ],
   [
    10.279521,
    47.550527
   ],
   [
    10.279573,
    47.550463
   ],
   [
    10.279637,
    47.550385
   ],
   [
    10.279698,
    47.550309
   ],
   [
    10.280087,
    47.549895
   ],
   [
    10.280656,
    47.549128
   ],
   [
    10.280803,
    47.548943
   ],
   [
    10.280841,
    47.548885
   ],
   [
    10.280824,
    47.548696
   ],
   [
    10.280796,
    47.548337
   ],
   [
    10.280781,
    47.547818
   ],
   [
    10.280792,
    47.547673
   ],
   [
    10.280822,
    47.547585
   ],
   [
    10.280937,
    47.547412
   ],
   [
    10.281238,
    47.54703
   ],
   [
    10.281639,
    47.546506
   ],
   [
    10.28171,
    47.54641
   ],
   [
    10.281781,
    47.546309
   ],
   [
    10.281868,
    47.546118
   ],
   [
    10.281893,
    47.546043
   ],
   [
    10.281904,
    47.545945
   ],
   [
    10.281918,
    47.545729
   ],
   [
    10.281908,
    47.545678
   ],
   [
    10.281896,
    47.545607
   ],
   [
    10.28186,
    47.545466
   ],
   [
    10.281821,
    47.545352
   ],
   [
    10.281694,
    47.545096
   ],
   [
    10.281613,
    47.54491
   ],
   [
    10.281568,
    47.544593
   ],
   [
    10.281578,
    47.544481
   ],
   [
    10.281605,
    47.544359
   ],
   [
    10.281662,
    47.544211
   ],
   [
    10.281777,
    47.544037
   ],
   [
    10.281863,
    47.54391
   ],
   [
    10.281975,
    47.543797
   ],
   [
    10.282015,
    47.543763
   ],
   [
    10.282145,
    47.543663
   ],
   [
    10.282472,
    47.543477
   ],
   [
    10.282686,
    47.543359
   ],
   [
    10.283084,
    47.543087
   ],
   [
    10.283163,
    47.543034
   ],
   [
    10.283632,
    47.542662
   ],
   [
    10.28375,
    47.542543
   ],
   [
    10.283796,
    47.542465
   ],
   [
    10.283913,
    47.542183
   ],
   [
    10.284099,
    47.541733
   ],
   [
    10.284112,
    47.541704
   ],
   [
    10.28415,
    47.541619
   ],
   [
    10.284245,
    47.54149
   ],
   [
    10.284368,
    47.541388
   ],
   [
    10.284455,
    47.541353
   ],
   [
    10.28465,
    47.541279
   ],
   [
    10.28506,
    47.541179
   ],
   [
    10.285492,
    47.541074
   ],
   [
    10.285704,
    47.541001
   ],
   [
    10.285837,
    47.540921
   ],
   [
    10.28594,
    47.540806
   ],
   [
    10.285998,
    47.540697
   ],
   [
    10.286008,
    47.540629
   ],
   [
    10.285985,
    47.540526
   ],
   [
    10.285825,
    47.540199
   ],
   [
    10.285679,
    47.539885
   ],
   [
    10.285651,
    47.539734
   ],
   [
    10.28563,
    47.539617
   ],
   [
    10.285625,
    47.539588
   ],
   [
    10.285609,
    47.539413
   ],
   [
    10.285605,
    47.539359
   ],
   [
    10.285614,
    47.539234
   ],
   [
    10.285643,
    47.539114
   ],
   [
    10.28565,
    47.53909
   ],
   [
    10.285656,
    47.539062
   ],
   [
    10.285723,
    47.53879
   ],
   [
    10.285709,
    47.538632
   ],
   [
    10.285605,
    47.53843
   ],
   [
    10.285571,
    47.538378
   ],
   [
    10.285488,
    47.538243
   ],
   [
    10.285433,
    47.538183
   ],
   [
    10.285395,
    47.538081
   ],
   [
    10.285375,
    47.53795
   ],
   [
    10.285364,
    47.537761
   ],
   [
    10.28539,
    47.537591
   ],
   [
    10.285419,
    47.537478
   ],
   [
    10.285437,
    47.53741
   ],
   [
    10.285451,
    47.537358
   ],
   [
    10.285579,
    47.537143
   ],
   [
    10.285626,
    47.537069
   ],
   [
    10.285688,
    47.536971
   ],
   [
    10.285714,
    47.536889
   ],
   [
    10.285726,
    47.536791
   ],
   [
    10.285707,
    47.536659
   ],
   [
    10.285601,
    47.5365
   ],
   [
    10.285459,
    47.536285
   ],
   [
    10.285428,
    47.536238
   ],
   [
    10.285243,
    47.535896
   ],
   [
    10.285228,
    47.535863
   ],
   [
    10.285113,
    47.535611
   ],
   [
    10.285078,
    47.535521
   ],
   [
    10.28482,
    47.534949
   ],
   [
    10.284747,
    47.534832
   ],
   [
    10.284519,
    47.534498
   ],
   [
    10.284435,
    47.534397
   ],
   [
    10.284273,
    47.534191
   ],
   [
    10.283827,
    47.533577
   ],
   [
    10.283784,
    47.533517
   ],
   [
    10.28362,
    47.533247
   ],
   [
    10.283387,
    47.532866
   ],
   [
    10.28321,
    47.532568
   ],
   [
    10.282606,
    47.531421
   ],
   [
    10.282568,
    47.531348
   ],
   [
    10.281963,
    47.530241
   ],
   [
    10.281911,
    47.530147
   ],
   [
    10.281465,
    47.52944
   ],
   [
    10.281048,
    47.528777
   ],
   [
    10.280862,
    47.528372
   ],
   [
    10.280743,
    47.528065
   ],
   [
    10.280679,
    47.527777
   ],
   [
    10.280653,
    47.527537
   ],
   [
    10.280643,
    47.527452
   ],
   [
    10.280645,
    47.527076
   ],
   [
    10.280668,
    47.526737
   ],
   [
    10.280811,
    47.526229
   ],
   [
    10.281076,
    47.52557
   ],
   [
    10.281526,
    47.524819
   ],
   [
    10.281583,
    47.524699
   ],
   [
    10.28162,
    47.524557
   ],
   [
    10.281625,
    47.524521
   ],
   [
    10.281633,
    47.524454
   ],
   [
    10.281628,
    47.52438
   ],
   [
    10.281609,
    47.524265
   ],
   [
    10.281568,
    47.524059
   ],
   [
    10.28157,
    47.523881
   ],
   [
    10.281591,
    47.523793
   ],
   [
    10.281625,
    47.523693
   ],
   [
    10.281676,
    47.523591
   ],
   [
    10.281836,
    47.523369
   ],
   [
    10.281864,
    47.523304
   ],
   [
    10.281908,
    47.523203
   ],
   [
    10.281937,
    47.523134
   ],
   [
    10.281952,
    47.523051
   ],
   [
    10.281973,
    47.522903
   ],
   [
    10.281983,
    47.522702
   ],
   [
    10.281987,
    47.522612
   ],
   [
    10.281994,
    47.52248
   ],
   [
    10.282015,
    47.522145
   ],
   [
    10.282019,
    47.522012
   ],
   [
    10.282026,
    47.521824
   ],
   [
    10.282032,
    47.521656
   ],
   [
    10.282041,
    47.521378
   ],
   [
    10.282033,
    47.521233
   ],
   [
    10.282016,
    47.520925
   ],
   [
    10.282007,
    47.520769
   ],
   [
    10.282006,
    47.520739
   ],
   [
    10.281965,
    47.52042
   ],
   [
    10.281929,
    47.520208
   ],
   [
    10.281887,
    47.520001
   ],
   [
    10.281867,
    47.519927
   ],
   [
    10.281779,
    47.519595
   ],
   [
    10.281674,
    47.519181
   ],
   [
    10.281511,
    47.518795
   ],
   [
    10.281418,
    47.518533
   ],
   [
    10.28133,
    47.518286
   ],
   [
    10.281318,
    47.518255
   ],
   [
    10.281309,
    47.518228
   ],
   [
    10.281296,
    47.518192
   ],
   [
    10.28125,
    47.518062
   ],
   [
    10.281124,
    47.517712
   ],
   [
    10.281015,
    47.517127
   ],
   [
    10.280996,
    47.516648
   ],
   [
    10.281002,
    47.516557
   ],
   [
    10.281053,
    47.516375
   ],
   [
    10.281164,
    47.516149
   ],
   [
    10.281276,
    47.515923
   ],
   [
    10.281332,
    47.515784
   ],
   [
    10.281317,
    47.515261
   ],
   [
    10.281121,
    47.515271
   ],
   [
    10.281013,
    47.515277
   ],
   [
    10.280969,
    47.515073
   ]
  ],
  "type": "LineString"
 },
 "properties": {
  "quelle": "OSRM router.project-osrm.org, Profil driving",
  "von": [
   47.5835,
   10.3325
  ],
  "nach": [
   47.515,
   10.281
  ],
  "distanz_m": 11853.5,
  "dauer_s": 1030.2,
  "punkte": 477
 }
}
