{
 "type": "Feature",
 "geometry": {
  "coordinates": [
   [
    10.218623,
    47.560813
   ],
   [
    10.218878,
    47.560768
   ],
   [
    10.219463,
    47.56065
   ],
   [
    10.219506,
    47.560637
   ],
   [
    10.219596,
    47.560755
   ],
   [
    10.219608,
    47.560791
   ],
   [
    10.2197,
    47.560976
   ],
   [
    10.219779,
    47.561109
   ],
   [
    10.219852,
    47.561202
   ],
   [
    10.2199,
    47.561169
   ],
   [
    10.22002,
    47.561133
   ],
   [
    10.220522,
    47.560982
   ],
   [
    10.220583,
    47.560964
   ],
   [
    10.220804,
    47.560932
   ],
   [
    10.220912,
    47.56093
   ],
   [
    10.221011,
    47.560938
   ],
   [
    10.221114,
    47.56097
   ],
   [
    10.221123,
    47.560956
   ],
   [
    10.221136,
    47.560943
   ],
   [
    10.221153,
    47.560932
   ],
   [
    10.221172,
    47.560923
   ],
   [
    10.221194,
    47.560916
   ],
   [
    10.221216,
    47.560913
   ],
   [
    10.221243,
    47.560912
   ],
   [
    10.221269,
    47.560916
   ],
   [
    10.221293,
    47.560922
   ],
   [
    10.221315,
    47.560933
   ],
   [
    10.221333,
    47.560946
   ],
   [
    10.221347,
    47.560961
   ],
   [
    10.221355,
    47.560978
   ],
   [
    10.221358,
    47.560996
   ],
   [
    10.221355,
    47.561014
   ],
   [
    10.221473,
    47.561025
   ],
   [
    10.221807,
    47.561059
   ],
   [
    10.222637,
    47.56116
   ],
   [
    10.223089,
    47.561215
   ],
   [
    10.223372,
    47.56124
   ],
   [
    10.223472,
    47.561258
   ],
   [
    10.223598,
    47.561284
   ],
   [
    10.223718,
    47.561308
   ],
   [
    10.224016,
    47.56139
   ],
   [
    10.224161,
    47.561437
   ],
   [
    10.224438,
    47.561557
   ],
   [
    10.225435,
    47.562128
   ],
   [
    10.225457,
    47.562119
   ],
   [
    10.225481,
    47.562114
   ],
   [
    10.225506,
    47.562112
   ],
   [
    10.225531,
    47.562114
   ],
   [
    10.225555,
    47.562119
   ],
   [
    10.225578,
    47.562127
   ],
   [
    10.225597,
    47.562138
   ],
   [
    10.225614,
    47.562153
   ],
   [
    10.225626,
    47.56217
   ],
   [
    10.225632,
    47.562189
   ],
   [
    10.225632,
    47.562208
   ],
   [
    10.225625,
    47.562226
   ],
   [
    10.225612,
    47.562243
   ],
   [
    10.225594,
    47.562258
   ],
   [
    10.225694,
    47.562332
   ],
   [
    10.225833,
    47.562507
   ],
   [
    10.226061,
    47.562779
   ],
   [
    10.226075,
    47.562799
   ],
   [
    10.22613,
    47.562872
   ],
   [
    10.226167,
    47.562923
   ],
   [
    10.226397,
    47.563235
   ],
   [
    10.226418,
    47.563261
   ],
   [
    10.226607,
    47.563486
   ],
   [
    10.226718,
    47.563601
   ],
   [
    10.226833,
    47.563716
   ],
   [
    10.226919,
    47.563794
   ],
   [
    10.227011,
    47.563864
   ],
   [
    10.22741,
    47.564142
   ],
   [
    10.22782,
    47.564373
   ],
   [
    10.228227,
    47.564573
   ],
   [
    10.228275,
    47.564601
   ],
   [
    10.228499,
    47.564734
   ],
   [
    10.228773,
    47.564903
   ],
   [
    10.22906,
    47.565114
   ],
   [
    10.229306,
    47.565299
   ],
   [
    10.229484,
    47.565457
   ],
   [
    10.229696,
    47.565652
   ],
   [
    10.230423,
    47.566337
   ],
   [
    10.231023,
    47.566933
   ],
   [
    10.231787,
    47.567648
   ],
   [
    10.231968,
    47.567819
   ],
   [
    10.232342,
    47.568149
   ],
   [
    10.232551,
    47.568308
   ],
   [
    10.232723,
    47.568439
   ],
   [
    10.232997,
    47.568641
   ],
   [
    10.233714,
    47.569107
   ],
   [
    10.233923,
    47.569263
   ],
   [
    10.234187,
    47.569498
   ],
   [
    10.234222,
    47.569528
   ],
   [
    10.234346,
    47.569633
   ],
   [
    10.234646,
    47.569938
   ],
   [
    10.234769,
    47.570062
   ],
   [
    10.234973,
    47.570281
   ],
   [
    10.235099,
    47.570408
   ],
   [
    10.235157,
    47.570464
   ],
   [
    10.235259,
    47.570564
   ],
   [
    10.235565,
    47.570866
   ],
   [
    10.235671,
    47.570975
   ],
   [
    10.235937,
    47.571221
   ],
   [
    10.236166,
    47.571447
   ],
   [
    10.236505,
    47.571785
   ],
   [
    10.236616,
    47.571902
   ],
   [
    10.236768,
    47.572065
   ],
   [
    10.236776,
    47.572074
   ],
   [
    10.236839,
    47.572165
   ],
   [
    10.236847,
    47.572183
   ],
   [
    10.236921,
    47.572321
   ],
   [
    10.23697,
    47.572391
   ],
   [
    10.236995,
    47.572417
   ],
   [
    10.237032,
    47.572438
   ],
   [
    10.237094,
    47.572451
   ],
   [
    10.237151,
    47.572471
   ],
   [
    10.237202,
    47.572498
   ],
   [
    10.237312,
    47.572521
   ],
   [
    10.237458,
    47.572524
   ],
   [
    10.237936,
    47.572501
   ],
   [
    10.239172,
    47.572449
   ],
   [
    10.23967,
    47.572402
   ],
   [
    10.240123,
    47.572334
   ],
   [
    10.241185,
    47.57211
   ],
   [
    10.241639,
    47.571952
   ],
   [
    10.242328,
    47.571666
   ],
   [
    10.24307,
    47.571255
   ],
   [
    10.243377,
    47.571039
   ],
   [
    10.243656,
    47.570831
   ],
   [
    10.243953,
    47.570582
   ],
   [
    10.244232,
    47.570302
   ],
   [
    10.244355,
    47.570094
   ],
   [
    10.24441,
    47.569895
   ],
   [
    10.244409,
    47.569716
   ],
   [
    10.244345,
    47.56951
   ],
   [
    10.244215,
    47.569334
   ],
   [
    10.244014,
    47.569174
   ],
   [
    10.24392,
    47.569113
   ],
   [
    10.243755,
    47.569035
   ],
   [
    10.243521,
    47.568994
   ],
   [
    10.243302,
    47.568999
   ],
   [
    10.243137,
    47.569049
   ],
   [
    10.242992,
    47.569154
   ],
   [
    10.242915,
    47.569328
   ],
   [
    10.242993,
    47.569496
   ],
   [
    10.243076,
    47.569574
   ],
   [
    10.243141,
    47.569713
   ],
   [
    10.243599,
    47.570052
   ],
   [
    10.243938,
    47.570279
   ],
   [
    10.244329,
    47.57052
   ],
   [
    10.244702,
    47.570724
   ],
   [
    10.245127,
    47.570925
   ],
   [
    10.24577,
    47.571203
   ],
   [
    10.246873,
    47.571722
   ],
   [
    10.247369,
    47.572002
   ],
   [
    10.247748,
    47.572259
   ],
   [
    10.248093,
    47.572521
   ],
   [
    10.248564,
    47.572957
   ],
   [
    10.248962,
    47.573387
   ],
   [
    10.249196,
    47.573703
   ],
   [
    10.249426,
    47.574065
   ],
   [
    10.249546,
    47.574293
   ],
   [
    10.249694,
    47.57465
   ],
   [
    10.249792,
    47.574938
   ],
   [
    10.249943,
    47.57581
   ],
   [
    10.249954,
    47.57604
   ],
   [
    10.24996,
    47.576158
   ],
   [
    10.249943,
    47.576321
   ],
   [
    10.24989,
    47.576859
   ],
   [
    10.249805,
    47.577746
   ],
   [
    10.249805,
    47.578147
   ],
   [
    10.249831,
    47.578531
   ],
   [
    10.249892,
    47.578963
   ],
   [
    10.249975,
    47.579275
   ],
   [
    10.250071,
    47.579594
   ],
   [
    10.250233,
    47.580012
   ],
   [
    10.250403,
    47.580349
   ],
   [
    10.250605,
    47.580704
   ],
   [
    10.250798,
    47.581031
   ],
   [
    10.250985,
    47.581295
   ],
   [
    10.251082,
    47.581409
   ],
   [
    10.251385,
    47.581785
   ],
   [
    10.25194,
    47.582417
   ],
   [
    10.252532,
    47.583052
   ],
   [
    10.25336,
    47.583952
   ],
   [
    10.254236,
    47.584878
   ],
   [
    10.257104,
    47.587962
   ],
   [
    10.258451,
    47.589395
   ],
   [
    10.2594,
    47.590413
   ],
   [
    10.260677,
    47.591783
   ],
   [
    10.261631,
    47.592809
   ],
   [
    10.262132,
    47.593337
   ],
   [
    10.262553,
    47.593787
   ],
   [
    10.2629,
    47.594139
   ],
   [
    10.263322,
    47.594548
   ],
   [
    10.263689,
    47.594884
   ],
   [
    10.264113,
    47.595237
   ],
   [
    10.264979,
    47.595907
   ],
   [
    10.265944,
    47.596548
   ],
   [
    10.267303,
    47.597415
   ],
   [
    10.267831,
    47.597775
   ],
   [
    10.268698,
    47.598428
   ],
   [
    10.269109,
    47.598755
   ],
   [
    10.269543,
    47.599137
   ],
   [
    10.270261,
    47.599838
   ],
   [
    10.270721,
    47.600324
   ],
   [
    10.271084,
    47.600738
   ],
   [
    10.271328,
    47.601054
   ],
   [
    10.271556,
    47.601383
   ],
   [
    10.271761,
    47.601673
   ],
   [
    10.271976,
    47.602001
   ],
   [
    10.272229,
    47.60242
   ],
   [
    10.272512,
    47.602979
   ],
   [
    10.272825,
    47.603644
   ],
   [
    10.272997,
    47.60408
   ],
   [
    10.273152,
    47.604534
   ],
   [
    10.273284,
    47.605007
   ],
   [
    10.273343,
    47.605344
   ],
   [
    10.273472,
    47.606002
   ],
   [
    10.273637,
    47.607304
   ],
   [
    10.273644,
    47.607459
   ],
   [
    10.273694,
    47.608058
   ],
   [
    10.273736,
    47.608488
   ],
   [
    10.273814,
    47.609319
   ],
   [
    10.273907,
    47.610298
   ],
   [
    10.273962,
    47.610817
   ],
   [
    10.274052,
    47.611288
   ],
   [
    10.274133,
    47.611707
   ],
   [
    10.274224,
    47.612073
   ],
   [
    10.27446,
    47.612809
   ],
   [
    10.27484,
    47.613828
   ],
   [
    10.275006,
    47.614273
   ],
   [
    10.275259,
    47.614965
   ],
   [
    10.275569,
    47.615903
   ],
   [
    10.275708,
    47.616451
   ],
   [
    10.2758,
    47.616895
   ],
   [
    10.275916,
    47.617568
   ],
   [
    10.27594,
    47.617707
   ],
   [
    10.275994,
    47.618122
   ],
   [
    10.276044,
    47.618601
   ],
   [
    10.276179,
    47.619847
   ],
   [
    10.27631,
    47.620823
   ],
   [
    10.276534,
    47.622119
   ],
   [
    10.27668,
    47.622726
   ],
   [
    10.276882,
    47.623459
   ],
   [
    10.277142,
    47.624288
   ],
   [
    10.277295,
    47.624704
   ],
   [
    10.277544,
    47.625349
   ],
   [
    10.277825,
    47.62601
   ],
   [
    10.278235,
    47.62686
   ],
   [
    10.278435,
    47.627263
   ],
   [
    10.278735,
    47.627818
   ],
   [
    10.279205,
    47.628621
   ],
   [
    10.279567,
    47.629209
   ],
   [
    10.279742,
    47.629494
   ],
   [
    10.280316,
    47.630427
   ],
   [
    10.281023,
    47.63156
   ],
   [
    10.281571,
    47.632438
   ],
   [
    10.282054,
    47.633182
   ],
   [
    10.282263,
    47.633484
   ],
   [
    10.282489,
    47.63378
   ],
   [
    10.282885,
    47.634233
   ],
   [
    10.283232,
    47.63459
   ],
   [
    10.283629,
    47.634985
   ],
   [
    10.284393,
    47.635667
   ],
   [
    10.285375,
    47.636586
   ],
   [
    10.285587,
    47.636789
   ],
   [
    10.285802,
    47.637023
   ],
   [
    10.285977,
    47.637233
   ],
   [
    10.286143,
    47.63746
   ],
   [
    10.2863,
    47.637705
   ],
   [
    10.286421,
    47.637926
   ],
   [
    10.286532,
    47.63815
   ],
   [
    10.286646,
    47.638432
   ],
   [
    10.286732,
    47.638675
   ],
   [
    10.286817,
    47.639028
   ],
   [
    10.286892,
    47.639388
   ],
   [
    10.287009,
    47.640033
   ],
   [
    10.287067,
    47.640274
   ],
   [
    10.287161,
    47.640595
   ],
   [
    10.287314,
    47.641043
   ],
   [
    10.287458,
    47.641361
   ],
   [
    10.287569,
    47.641593
   ],
   [
    10.287739,
    47.641891
   ],
   [
    10.287914,
    47.642167
   ],
   [
    10.288072,
    47.642394
   ],
   [
    10.288515,
    47.642938
   ],
   [
    10.289044,
    47.64349
   ],
   [
    10.289326,
    47.643747
   ],
   [
    10.289783,
    47.644099
   ],
   [
    10.289846,
    47.644146
   ],
   [
    10.290389,
    47.644551
   ],
   [
    10.291137,
    47.645069
   ],
   [
    10.291952,
    47.645602
   ],
   [
    10.292776,
    47.646163
   ],
   [
    10.29359,
    47.64674
   ],
   [
    10.293886,
    47.646988
   ],
   [
    10.29413,
    47.647191
   ],
   [
    10.294382,
    47.64742
   ],
   [
    10.29458,
    47.647607
   ],
   [
    10.294807,
    47.647853
   ],
   [
    10.294821,
    47.64787
   ],
   [
    10.295223,
    47.648371
   ],
   [
    10.295299,
    47.648483
   ],
   [
    10.295507,
    47.648836
   ],
   [
    10.295685,
    47.649205
   ],
   [
    10.295766,
    47.649418
   ],
   [
    10.295867,
    47.649682
   ],
   [
    10.295957,
    47.650129
   ],
   [
    10.296007,
    47.650649
   ],
   [
    10.295965,
    47.65219
   ],
   [
    10.296003,
    47.652734
   ],
   [
    10.296097,
    47.653236
   ],
   [
    10.296238,
    47.653654
   ],
   [
    10.296423,
    47.654051
   ],
   [
    10.296747,
    47.654582
   ],
   [
    10.297348,
    47.655403
   ],
   [
    10.297736,
    47.65596
   ],
   [
    10.297908,
    47.656247
   ],
   [
    10.298069,
    47.656539
   ],
   [
    10.298204,
    47.656846
   ],
   [
    10.2984,
    47.657362
   ],
   [
    10.298543,
    47.657874
   ],
   [
    10.298611,
    47.658222
   ],
   [
    10.298659,
    47.658575
   ],
   [
    10.298679,
    47.659148
   ],
   [
    10.298678,
    47.659734
   ],
   [
    10.298666,
    47.660665
   ],
   [
    10.298705,
    47.661346
   ],
   [
    10.298754,
    47.661717
   ],
   [
    10.298914,
    47.6624
   ],
   [
    10.299149,
    47.663284
   ],
   [
    10.299244,
    47.66378
   ],
   [
    10.299302,
    47.664147
   ],
   [
    10.299298,
    47.664722
   ],
   [
    10.299252,
    47.665207
   ],
   [
    10.299135,
    47.665696
   ],
   [
    10.29883,
    47.666441
   ],
   [
    10.298678,
    47.666793
   ],
   [
    10.29842,
    47.667334
   ],
   [
    10.298378,
    47.667418
   ],
   [
    10.298259,
    47.667749
   ],
   [
    10.298188,
    47.66801
   ],
   [
    10.298126,
    47.668355
   ],
   [
    10.2981,
    47.668725
   ],
   [
    10.298115,
    47.669096
   ],
   [
    10.298154,
    47.669334
   ],
   [
    10.298252,
    47.669628
   ],
   [
    10.298461,
    47.670168
   ],
   [
    10.298679,
    47.670539
   ],
   [
    10.298951,
    47.670904
   ],
   [
    10.29926,
    47.671235
   ],
   [
    10.299827,
    47.671731
   ],
   [
    10.300175,
    47.672013
   ],
   [
    10.300558,
    47.672343
   ],
   [
    10.300798,
    47.672592
   ],
   [
    10.300996,
    47.672819
   ],
   [
    10.301183,
    47.673075
   ],
   [
    10.301346,
    47.673367
   ],
   [
    10.301463,
    47.673621
   ],
   [
    10.301531,
    47.673827
   ],
   [
    10.30161,
    47.674088
   ],
   [
    10.301662,
    47.674317
   ],
   [
    10.301825,
    47.675286
   ],
   [
    10.301867,
    47.675442
   ],
   [
    10.301927,
    47.675665
   ],
   [
    10.301981,
    47.675829
   ],
   [
    10.302103,
    47.676095
   ],
   [
    10.302215,
    47.676265
   ],
   [
    10.302323,
    47.676419
   ],
   [
    10.302553,
    47.67671
   ],
   [
    10.30274,
    47.676924
   ],
   [
    10.302921,
    47.677092
   ],
   [
    10.303495,
    47.677597
   ],
   [
    10.303699,
    47.677811
   ],
   [
    10.303903,
    47.678019
   ],
   [
    10.30411,
    47.678285
   ],
   [
    10.304264,
    47.678559
   ],
   [
    10.304324,
    47.678667
   ],
   [
    10.304374,
    47.67879
   ],
   [
    10.304411,
    47.678882
   ],
   [
    10.304438,
    47.678957
   ],
   [
    10.304481,
    47.679004
   ],
   [
    10.304536,
    47.67915
   ],
   [
    10.304603,
    47.679255
   ],
   [
    10.304636,
    47.679297
   ],
   [
    10.304764,
    47.679392
   ],
   [
    10.304946,
    47.679458
   ],
   [
    10.305173,
    47.679497
   ],
   [
    10.305573,
    47.679485
   ],
   [
    10.305836,
    47.6795
   ],
   [
    10.30608,
    47.679548
   ],
   [
    10.306365,
    47.679647
   ],
   [
    10.306619,
    47.679778
   ],
   [
    10.306844,
    47.679928
   ],
   [
    10.307121,
    47.680107
   ],
   [
    10.307308,
    47.680209
   ],
   [
    10.307584,
    47.680319
   ],
   [
    10.307841,
    47.680387
   ],
   [
    10.308304,
    47.680461
   ],
   [
    10.309044,
    47.680482
   ],
   [
    10.309333,
    47.680534
   ],
   [
    10.310094,
    47.680568
   ],
   [
    10.310595,
    47.680593
   ],
   [
    10.312037,
    47.680698
   ],
   [
    10.313254,
    47.680822
   ],
   [
    10.313921,
    47.680899
   ],
   [
    10.316749,
    47.681308
   ],
   [
    10.321616,
    47.682043
   ],
   [
    10.322261,
    47.682142
   ],
   [
    10.324979,
    47.682555
   ],
   [
    10.32846,
    47.683076
   ],
   [
    10.328764,
    47.683114
   ],
   [
    10.329147,
    47.683175
   ],
   [
    10.330017,
    47.683326
   ],
   [
    10.330952,
    47.683476
   ],
   [
    10.332476,
    47.683736
   ],
   [
    10.334747,
    47.684136
   ],
   [
    10.335207,
    47.684221
   ],
   [
    10.335451,
    47.684265
   ],
   [
    10.342178,
    47.685533
   ],
   [
    10.343738,
    47.685813
   ],
   [
    10.345615,
    47.686109
   ],
   [
    10.347116,
    47.686331
   ],
   [
    10.348629,
    47.68653
   ],
   [
    10.349157,
    47.686593
   ],
   [
    10.351138,
    47.686818
   ],
   [
    10.352882,
    47.686979
   ],
   [
    10.353727,
    47.687049
   ],
   [
    10.355034,
    47.687139
   ],
   [
    10.356372,
    47.687226
   ],
   [
    10.357514,
    47.687286
   ],
   [
    10.358531,
    47.687327
   ],
   [
    10.358922,
    47.687334
   ],
   [
    10.360001,
    47.687359
   ],
   [
    10.361421,
    47.687376
   ],
   [
    10.363292,
    47.687406
   ],
   [
    10.364947,
    47.687395
   ],
   [
    10.365445,
    47.687391
   ],
   [
    10.367136,
    47.687355
   ],
   [
    10.367458,
    47.687342
   ],
   [
    10.368456,
    47.6873
   ],
   [
    10.368799,
    47.68725
   ],
   [
    10.36912,
    47.687184
   ],
   [
    10.369408,
    47.687112
   ],
   [
    10.369668,
    47.687016
   ],
   [
    10.369847,
    47.686917
   ],
   [
    10.369943,
    47.686833
   ],
   [
    10.370009,
    47.686712
   ],
   [
    10.370045,
    47.686583
   ],
   [
    10.370026,
    47.686475
   ],
   [
    10.369964,
    47.686363
   ],
   [
    10.369871,
    47.68627
   ],
   [
    10.369774,
    47.686201
   ],
   [
    10.36966,
    47.686149
   ],
   [
    10.369472,
    47.686102
   ],
   [
    10.369281,
    47.686094
   ],
   [
    10.369072,
    47.686123
   ],
   [
    10.368912,
    47.686176
   ],
   [
    10.368779,
    47.686261
   ],
   [
    10.368698,
    47.686349
   ],
   [
    10.36862,
    47.686465
   ],
   [
    10.368455,
    47.686719
   ],
   [
    10.368285,
    47.6871
   ],
   [
    10.368004,
    47.687754
   ],
   [
    10.367982,
    47.68781
   ],
   [
    10.367569,
    47.688886
   ],
   [
    10.367191,
    47.690014
   ],
   [
    10.367007,
    47.690529
   ],
   [
    10.366959,
    47.690664
   ],
   [
    10.366778,
    47.691074
   ],
   [
    10.366739,
    47.691285
   ],
   [
    10.36662,
    47.69193
   ],
   [
    10.366359,
    47.693257
   ],
   [
    10.366292,
    47.693782
   ],
   [
    10.366268,
    47.694109
   ],
   [
    10.366236,
    47.694396
   ],
   [
    10.366174,
    47.696284
   ],
   [
    10.366194,
    47.697053
   ],
   [
    10.366208,
    47.697274
   ],
   [
    10.366266,
    47.698238
   ],
   [
    10.366395,
    47.699159
   ],
   [
    10.366488,
    47.699795
   ],
   [
    10.366816,
    47.701405
   ],
   [
    10.366866,
    47.701598
   ],
   [
    10.366911,
    47.701829
   ],
   [
    10.366998,
    47.702412
   ],
   [
    10.367014,
    47.703224
   ],
   [
    10.366982,
    47.703849
   ],
   [
    10.366888,
    47.704474
   ],
   [
    10.366841,
    47.704746
   ],
   [
    10.366645,
    47.705482
   ],
   [
    10.366318,
    47.706352
   ],
   [
    10.36625,
    47.706487
   ],
   [
    10.365975,
    47.707045
   ],
   [
    10.364945,
    47.708656
   ],
   [
    10.364592,
    47.709161
   ],
   [
    10.364064,
    47.709889
   ],
   [
    10.363273,
    47.7111
   ],
   [
    10.362761,
    47.71195
   ],
   [
    10.362491,
    47.712444
   ],
   [
    10.362212,
    47.713067
   ],
   [
    10.361953,
    47.713708
   ],
   [
    10.361754,
    47.714445
   ],
   [
    10.361634,
    47.715036
   ],
   [
    10.361536,
    47.71572
   ],
   [
    10.36148,
    47.716347
   ],
   [
    10.361431,
    47.71682
   ],
   [
    10.361415,
    47.716947
   ],
   [
    10.361352,
    47.717439
   ],
   [
    10.361289,
    47.717815
   ],
   [
    10.361179,
    47.718437
   ],
   [
    10.360963,
    47.719235
   ],
   [
    10.360884,
    47.719428
   ],
   [
    10.360679,
    47.719941
   ],
   [
    10.360416,
    47.720482
   ],
   [
    10.360198,
    47.720863
   ],
   [
    10.360007,
    47.721155
   ],
   [
    10.359886,
    47.721334
   ],
   [
    10.359715,
    47.72157
   ],
   [
    10.359474,
    47.721882
   ],
   [
    10.359013,
    47.722426
   ],
   [
    10.358429,
    47.723039
   ],
   [
    10.357871,
    47.723559
   ],
   [
    10.357276,
    47.724082
   ],
   [
    10.356604,
    47.724645
   ],
   [
    10.355847,
    47.725258
   ],
   [
    10.355391,
    47.725624
   ],
   [
    10.354397,
    47.726448
   ],
   [
    10.353413,
    47.727298
   ],
   [
    10.352646,
    47.728002
   ],
   [
    10.351503,
    47.729147
   ],
   [
    10.350701,
    47.730004
   ],
   [
    10.346739,
    47.734382
   ],
   [
    10.34521,
    47.736061
   ],
   [
    10.344993,
    47.736295
   ],
   [
    10.34435,
    47.737005
   ],
   [
    10.341885,
    47.73973
   ],
   [
    10.341451,
    47.740193
   ],
   [
    10.339149,
    47.742741
   ],
   [
    10.338588,
    47.743355
   ],
   [
    10.337899,
    47.744115
   ],
   [
    10.336847,
    47.745304
   ],
   [
    10.33445,
    47.747996
   ],
   [
    10.333554,
    47.749035
   ],
   [
    10.332806,
    47.749973
   ],
   [
    10.332282,
    47.750672
   ],
   [
    10.331866,
    47.751254
   ],
   [
    10.330786,
    47.752919
   ],
   [
    10.330015,
    47.754343
   ],
   [
    10.329921,
    47.754534
   ],
   [
    10.329733,
    47.754914
   ],
   [
    10.32959,
    47.755218
   ],
   [
    10.329427,
    47.755631
   ],
   [
    10.329155,
    47.756264
   ],
   [
    10.328973,
    47.756679
   ],
   [
    10.328378,
    47.758273
   ],
   [
    10.327399,
    47.760973
   ],
   [
    10.327343,
    47.761141
   ],
   [
    10.326961,
    47.762127
   ],
   [
    10.326509,
    47.763383
   ],
   [
    10.326111,
    47.764462
   ],
   [
    10.325684,
    47.765726
   ],
   [
    10.325597,
    47.766054
   ],
   [
    10.32543,
    47.766667
   ],
   [
    10.325274,
    47.76758
   ],
   [
    10.325237,
    47.767896
   ],
   [
    10.325217,
    47.768204
   ],
   [
    10.325189,
    47.768982
   ],
   [
    10.325244,
    47.769807
   ],
   [
    10.325336,
    47.770399
   ],
   [
    10.325399,
    47.770773
   ],
   [
    10.325423,
    47.77092
   ],
   [
    10.325459,
    47.771075
   ],
   [
    10.325506,
    47.771268
   ],
   [
    10.325979,
    47.77316
   ],
   [
    10.326235,
    47.774074
   ],
   [
    10.326346,
    47.774406
   ],
   [
    10.326631,
    47.775428
   ],
   [
    10.326848,
    47.776377
   ],
   [
    10.326975,
    47.777111
   ],
   [
    10.327086,
    47.778195
   ],
   [
    10.327104,
    47.778488
   ],
   [
    10.327171,
    47.779759
   ],
   [
    10.327171,
    47.781012
   ],
   [
    10.327042,
    47.782283
   ],
   [
    10.326862,
    47.783524
   ],
   [
    10.326521,
    47.785009
   ],
   [
    10.326136,
    47.78624
   ],
   [
    10.325763,
    47.787177
   ],
   [
    10.325221,
    47.788395
   ],
   [
    10.324561,
    47.789655
   ],
   [
    10.324056,
    47.790473
   ],
   [
    10.323778,
    47.790908
   ],
   [
    10.3229,
    47.792159
   ],
   [
    10.322704,
    47.79241
   ],
   [
    10.321805,
    47.793517
   ],
   [
    10.320967,
    47.794462
   ],
   [
    10.320288,
    47.795168
   ],
   [
    10.319414,
    47.796001
   ],
   [
    10.318072,
    47.797166
   ],
   [
    10.316718,
    47.79828
   ],
   [
    10.316514,
    47.798458
   ],
   [
    10.315553,
    47.799287
   ],
   [
    10.311344,
    47.802776
   ],
   [
    10.311058,
    47.803012
   ],
   [
    10.309905,
    47.803987
   ],
   [
    10.306318,
    47.806983
   ],
   [
    10.304619,
    47.80842
   ],
   [
    10.302609,
    47.810182
   ],
   [
    10.301815,
    47.810908
   ],
   [
    10.301022,
    47.811656
   ],
   [
    10.299918,
    47.812729
   ],
   [
    10.298329,
    47.814349
   ],
   [
    10.296958,
    47.815849
   ],
   [
    10.296728,
    47.816096
   ],
   [
    10.294889,
    47.818252
   ],
   [
    10.293102,
    47.820539
   ],
   [
    10.291229,
    47.823208
   ],
   [
    10.289852,
    47.825398
   ],
   [
    10.289142,
    47.82662
   ],
   [
    10.287914,
    47.828893
   ],
   [
    10.287293,
    47.830148
   ],
   [
    10.286653,
    47.831553
   ],
   [
    10.286083,
    47.832911
   ],
   [
    10.285586,
    47.834179
   ],
   [
    10.284629,
    47.836987
   ],
   [
    10.283824,
    47.839824
   ],
   [
    10.283076,
    47.843108
   ],
   [
    10.283027,
    47.843364
   ],
   [
    10.28298,
    47.843615
   ],
   [
    10.282672,
    47.845022
   ],
   [
    10.282316,
    47.846838
   ],
   [
    10.282016,
    47.848438
   ],
   [
    10.281541,
    47.850698
   ],
   [
    10.281354,
    47.8515
   ],
   [
    10.2813,
    47.851695
   ],
   [
    10.281174,
    47.852165
   ],
   [
    10.280891,
    47.853173
   ],
   [
    10.280547,
    47.854174
   ],
   [
    10.28019,
    47.855137
   ],
   [
    10.279632,
    47.856359
   ],
   [
    10.278308,
    47.858537
   ],
   [
    10.2774,
    47.859672
   ],
   [
    10.276465,
    47.860693
   ],
   [
    10.27512,
    47.861936
   ],
   [
    10.272921,
    47.863569
   ],
   [
    10.27237,
    47.863907
   ],
   [
    10.27083,
    47.864791
   ],
   [
    10.269292,
    47.865551
   ],
   [
    10.267672,
    47.866237
   ],
   [
    10.266384,
    47.866727
   ],
   [
    10.263401,
    47.867778
   ],
   [
    10.259575,
    47.869084
   ],
   [
    10.258029,
    47.869683
   ],
   [
    10.255831,
    47.870648
   ],
   [
    10.255228,
    47.870944
   ],
   [
    10.25402,
    47.871591
   ],
   [
    10.252862,
    47.87234
   ],
   [
    10.251423,
    47.873419
   ],
   [
    10.250903,
    47.873875
   ],
   [
    10.25036,
    47.874379
   ],
   [
    10.249796,
    47.874983
   ],
   [
    10.24943,
    47.875418
   ],
   [
    10.249137,
    47.875764
   ],
   [
    10.24891,
    47.87608
   ],
   [
    10.248753,
    47.876286
   ],
   [
    10.24836,
    47.876881
   ],
   [
    10.24756,
    47.878382
   ],
   [
    10.247218,
    47.879237
   ],
   [
    10.246933,
    47.880171
   ],
   [
    10.246691,
    47.881132
   ],
   [
    10.246564,
    47.881741
   ],
   [
    10.246432,
    47.882704
   ],
   [
    10.246346,
    47.883129
   ],
   [
    10.246313,
    47.883425
   ],
   [
    10.246274,
    47.88377
   ],
   [
    10.246197,
    47.884449
   ],
   [
    10.246157,
    47.884892
   ],
   [
    10.245944,
    47.887239
   ],
   [
    10.245675,
    47.89004
   ],
   [
    10.245457,
    47.892355
   ],
   [
    10.245328,
    47.893463
   ],
   [
    10.245235,
    47.894145
   ],
   [
    10.245138,
    47.894818
   ],
   [
    10.244771,
    47.89675
   ],
   [
    10.244725,
    47.896952
   ],
   [
    10.244455,
    47.898015
   ],
   [
    10.244243,
    47.898744
   ],
   [
    10.244065,
    47.899271
   ],
   [
    10.243865,
    47.899805
   ],
   [
    10.243652,
    47.900368
   ],
   [
    10.243342,
    47.901119
   ],
   [
    10.243232,
    47.901366
   ],
   [
    10.242966,
    47.901926
   ],
   [
    10.242679,
    47.902508
   ],
   [
    10.242429,
    47.902978
   ],
   [
    10.242193,
    47.903401
   ],
   [
    10.241919,
    47.903873
   ],
   [
    10.241641,
    47.904327
   ],
   [
    10.241083,
    47.905196
   ],
   [
    10.240551,
    47.905954
   ],
   [
    10.239999,
    47.906691
   ],
   [
    10.239427,
    47.907408
   ],
   [
    10.238844,
    47.908096
   ],
   [
    10.238216,
    47.908794
   ],
   [
    10.237579,
    47.909469
   ],
   [
    10.236914,
    47.910131
   ],
   [
    10.236241,
    47.910764
   ],
   [
    10.235529,
    47.911402
   ],
   [
    10.234906,
    47.911927
   ],
   [
    10.234178,
    47.912521
   ],
   [
    10.233517,
    47.913037
   ],
   [
    10.233319,
    47.913187
   ],
   [
    10.232675,
    47.913661
   ],
   [
    10.232055,
    47.914095
   ],
   [
    10.231517,
    47.914464
   ],
   [
    10.230995,
    47.914811
   ],
   [
    10.230268,
    47.915281
   ],
   [
    10.229648,
    47.915671
   ],
   [
    10.22894,
    47.916101
   ],
   [
    10.228397,
    47.916429
   ],
   [
    10.227769,
    47.916812
   ],
   [
    10.227167,
    47.917173
   ],
   [
    10.225953,
    47.917886
   ],
   [
    10.225558,
    47.918114
   ],
   [
    10.224604,
    47.91868
   ],
   [
    10.223667,
    47.919227
   ],
   [
    10.222811,
    47.919734
   ],
   [
    10.221893,
    47.920278
   ],
   [
    10.221564,
    47.920472
   ],
   [
    10.220615,
    47.921035
   ],
   [
    10.219767,
    47.921539
   ],
   [
    10.218132,
    47.922542
   ],
   [
    10.216294,
    47.923692
   ],
   [
    10.215244,
    47.924395
   ],
   [
    10.21465,
    47.924785
   ],
   [
    10.21423,
    47.925075
   ],
   [
    10.214098,
    47.925159
   ],
   [
    10.213803,
    47.925359
   ],
   [
    10.213154,
    47.925814
   ],
   [
    10.212533,
    47.926259
   ],
   [
    10.211907,
    47.926724
   ],
   [
    10.211352,
    47.927143
   ],
   [
    10.210222,
    47.928022
   ],
   [
    10.209317,
    47.928775
   ],
   [
    10.208353,
    47.929625
   ],
   [
    10.208148,
    47.929808
   ],
   [
    10.207409,
    47.930483
   ],
   [
    10.206733,
    47.931144
   ],
   [
    10.20603,
    47.931849
   ],
   [
    10.20533,
    47.932578
   ],
   [
    10.204115,
    47.933956
   ],
   [
    10.203548,
    47.934649
   ],
   [
    10.202984,
    47.935377
   ],
   [
    10.202105,
    47.936572
   ],
   [
    10.201336,
    47.937722
   ],
   [
    10.201187,
    47.937957
   ],
   [
    10.200301,
    47.939392
   ],
   [
    10.199871,
    47.940183
   ],
   [
    10.199406,
    47.941064
   ],
   [
    10.198847,
    47.9422
   ],
   [
    10.198086,
    47.943791
   ],
   [
    10.1979,
    47.944192
   ],
   [
    10.197793,
    47.944413
   ],
   [
    10.196845,
    47.946385
   ],
   [
    10.196355,
    47.947376
   ],
   [
    10.195845,
    47.948366
   ],
   [
    10.195327,
    47.949332
   ],
   [
    10.194794,
    47.950288
   ],
   [
    10.194243,
    47.951228
   ],
   [
    10.193676,
    47.952133
   ],
   [
    10.193138,
    47.952943
   ],
   [
    10.192596,
    47.95372
   ],
   [
    10.191459,
    47.955241
   ],
   [
    10.190489,
    47.956434
   ],
   [
    10.189473,
    47.957598
   ],
   [
    10.188702,
    47.95843
   ],
   [
    10.18794,
    47.959218
   ],
   [
    10.186976,
    47.960156
   ],
   [
    10.186015,
    47.961054
   ],
   [
    10.18513,
    47.961836
   ],
   [
    10.184813,
    47.962095
   ],
   [
    10.184307,
    47.962533
   ],
   [
    10.183902,
    47.962871
   ],
   [
    10.18308,
    47.963532
   ],
   [
    10.182833,
    47.963732
   ],
   [
    10.182641,
    47.96388
   ],
   [
    10.182145,
    47.964239
   ],
   [
    10.181656,
    47.964608
   ],
   [
    10.181021,
    47.965073
   ],
   [
    10.180674,
    47.965316
   ],
   [
    10.179991,
    47.965788
   ],
   [
    10.179317,
    47.966247
   ],
   [
    10.177939,
    47.967131
   ],
   [
    10.177389,
    47.967476
   ],
   [
    10.177253,
    47.967556
   ],
   [
    10.176693,
    47.967893
   ],
   [
    10.176239,
    47.968154
   ],
   [
    10.175758,
    47.968435
   ],
   [
    10.175276,
    47.968706
   ],
   [
    10.174355,
    47.969204
   ],
   [
    10.17341,
    47.9697
   ],
   [
    10.172389,
    47.9702
   ],
   [
    10.171295,
    47.970713
   ],
   [
    10.170974,
    47.970854
   ],
   [
    10.170162,
    47.971203
   ],
   [
    10.169469,
    47.971497
   ],
   [
    10.168844,
    47.971741
   ],
   [
    10.167524,
    47.972249
   ],
   [
    10.16668,
    47.972558
   ],
   [
    10.165845,
    47.972877
   ],
   [
    10.165004,
    47.973196
   ],
   [
    10.164233,
    47.973494
   ],
   [
    10.163386,
    47.973839
   ],
   [
    10.162877,
    47.974055
   ],
   [
    10.16239,
    47.974271
   ],
   [
    10.161586,
    47.974647
   ],
   [
    10.160767,
    47.975058
   ],
   [
    10.160014,
    47.975475
   ],
   [
    10.159595,
    47.975721
   ],
   [
    10.159225,
    47.975943
   ],
   [
    10.158783,
    47.976223
   ],
   [
    10.15814,
    47.976654
   ],
   [
    10.157357,
    47.977215
   ],
   [
    10.156632,
    47.977786
   ],
   [
    10.155946,
    47.978365
   ],
   [
    10.155279,
    47.978986
   ],
   [
    10.154817,
    47.979453
   ],
   [
    10.154363,
    47.979946
   ],
   [
    10.153929,
    47.98045
   ],
   [
    10.153497,
    47.98098
   ],
   [
    10.153099,
    47.981524
   ],
   [
    10.152814,
    47.981959
   ],
   [
    10.152459,
    47.982528
   ],
   [
    10.152207,
    47.98296
   ],
   [
    10.151995,
    47.983353
   ],
   [
    10.151691,
    47.983995
   ],
   [
    10.151427,
    47.984625
   ],
   [
    10.151229,
    47.98519
   ],
   [
    10.151146,
    47.985447
   ],
   [
    10.150972,
    47.98602
   ],
   [
    10.150817,
    47.986628
   ],
   [
    10.150781,
    47.986843
   ],
   [
    10.150707,
    47.987286
   ],
   [
    10.150649,
    47.987692
   ],
   [
    10.150608,
    47.98808
   ],
   [
    10.150579,
    47.988515
   ],
   [
    10.150562,
    47.988956
   ],
   [
    10.150562,
    47.98938
   ],
   [
    10.150567,
    47.989766
   ],
   [
    10.150591,
    47.990402
   ],
   [
    10.150608,
    47.990697
   ],
   [
    10.15063,
    47.991137
   ],
   [
    10.150685,
    47.991677
   ],
   [
    10.150727,
    47.992315
   ],
   [
    10.150741,
    47.992477
   ],
   [
    10.150802,
    47.99312
   ],
   [
    10.150862,
    47.994236
   ],
   [
    10.15087,
    47.995072
   ],
   [
    10.150819,
    47.995837
   ],
   [
    10.15079,
    47.996284
   ],
   [
    10.150667,
    47.997217
   ],
   [
    10.150468,
    47.998164
   ],
   [
    10.150243,
    47.999028
   ],
   [
    10.149994,
    47.999858
   ],
   [
    10.149621,
    48.000811
   ],
   [
    10.149358,
    48.001398
   ],
   [
    10.148883,
    48.002342
   ],
   [
    10.148507,
    48.003019
   ],
   [
    10.148106,
    48.003663
   ],
   [
    10.1479,
    48.004001
   ],
   [
    10.14775,
    48.004214
   ],
   [
    10.147447,
    48.004631
   ],
   [
    10.146858,
    48.005394
   ],
   [
    10.146451,
    48.005894
   ],
   [
    10.145935,
    48.006482
   ],
   [
    10.145333,
    48.007115
   ],
   [
    10.144528,
    48.007934
   ],
   [
    10.14363,
    48.008777
   ],
   [
    10.142133,
    48.010129
   ],
   [
    10.141322,
    48.010838
   ],
   [
    10.140542,
    48.011533
   ],
   [
    10.139123,
    48.012866
   ],
   [
    10.138166,
    48.013794
   ],
   [
    10.137154,
    48.014862
   ],
   [
    10.136686,
    48.01541
   ],
   [
    10.13582,
    48.016537
   ],
   [
    10.13567,
    48.016755
   ],
   [
    10.134875,
    48.017936
   ],
   [
    10.134325,
    48.018793
   ],
   [
    10.133982,
    48.01939
   ],
   [
    10.133718,
    48.019851
   ],
   [
    10.133274,
    48.020761
   ],
   [
    10.133075,
    48.021226
   ],
   [
    10.132936,
    48.021592
   ],
   [
    10.132844,
    48.021862
   ],
   [
    10.132512,
    48.022791
   ],
   [
    10.132207,
    48.02373
   ],
   [
    10.13204,
    48.024384
   ],
   [
    10.131904,
    48.02502
   ],
   [
    10.131842,
    48.025376
   ],
   [
    10.131739,
    48.025966
   ],
   [
    10.131655,
    48.026602
   ],
   [
    10.131583,
    48.02723
   ],
   [
    10.131525,
    48.02806
   ],
   [
    10.131485,
    48.028857
   ],
   [
    10.131472,
    48.029646
   ],
   [
    10.13147,
    48.030642
   ],
   [
    10.131497,
    48.031429
   ],
   [
    10.131541,
    48.032144
   ],
   [
    10.131566,
    48.032861
   ],
   [
    10.131681,
    48.034018
   ],
   [
    10.131733,
    48.034519
   ],
   [
    10.131776,
    48.034849
   ],
   [
    10.131911,
    48.035757
   ],
   [
    10.132209,
    48.03741
   ],
   [
    10.132427,
    48.038378
   ],
   [
    10.132604,
    48.039111
   ],
   [
    10.132805,
    48.03989
   ],
   [
    10.133398,
    48.041802
   ],
   [
    10.133892,
    48.043258
   ],
   [
    10.136373,
    48.049389
   ],
   [
    10.137426,
    48.052229
   ],
   [
    10.138144,
    48.054743
   ],
   [
    10.13875,
    48.05729
   ],
   [
    10.13898,
    48.058636
   ],
   [
    10.139162,
    48.059969
   ],
   [
    10.139254,
    48.060892
   ],
   [
    10.139323,
    48.061796
   ],
   [
    10.139387,
    48.062729
   ],
   [
    10.13942,
    48.06363
   ],
   [
    10.13942,
    48.064751
   ],
   [
    10.139385,
    48.066048
   ],
   [
    10.139209,
    48.068462
   ],
   [
    10.138973,
    48.070915
   ],
   [
    10.138851,
    48.072112
   ],
   [
    10.138663,
    48.074051
   ],
   [
    10.138513,
    48.075181
   ],
   [
    10.138376,
    48.076229
   ],
   [
    10.137902,
    48.079083
   ],
   [
    10.137619,
    48.080651
   ],
   [
    10.137456,
    48.08159
   ],
   [
    10.13727,
    48.08249
   ],
   [
    10.136907,
    48.084262
   ],
   [
    10.136636,
    48.085468
   ],
   [
    10.13631,
    48.086985
   ],
   [
    10.13582,
    48.089097
   ],
   [
    10.135234,
    48.091201
   ],
   [
    10.134652,
    48.093285
   ],
   [
    10.134069,
    48.095285
   ],
   [
    10.133211,
    48.09776
   ],
   [
    10.132197,
    48.100045
   ],
   [
    10.131035,
    48.102079
   ],
   [
    10.130055,
    48.103424
   ],
   [
    10.129646,
    48.103974
   ],
   [
    10.128843,
    48.104932
   ],
   [
    10.128201,
    48.105633
   ],
   [
    10.127889,
    48.105956
   ],
   [
    10.127313,
    48.106541
   ],
   [
    10.126556,
    48.10727
   ],
   [
    10.126174,
    48.107603
   ],
   [
    10.125674,
    48.108032
   ],
   [
    10.124844,
    48.108726
   ],
   [
    10.124173,
    48.109267
   ],
   [
    10.122377,
    48.11068
   ],
   [
    10.120069,
    48.112484
   ],
   [
    10.11897,
    48.113366
   ],
   [
    10.11781,
    48.114391
   ],
   [
    10.11692,
    48.115254
   ],
   [
    10.116059,
    48.11617
   ],
   [
    10.115349,
    48.116992
   ],
   [
    10.114602,
    48.117913
   ],
   [
    10.113744,
    48.119106
   ],
   [
    10.113442,
    48.119578
   ],
   [
    10.11271,
    48.12079
   ],
   [
    10.112301,
    48.121568
   ],
   [
    10.112001,
    48.122173
   ],
   [
    10.111716,
    48.122812
   ],
   [
    10.111462,
    48.12343
   ],
   [
    10.111279,
    48.12392
   ],
   [
    10.110882,
    48.125141
   ],
   [
    10.110714,
    48.125753
   ],
   [
    10.110471,
    48.126785
   ],
   [
    10.110368,
    48.127381
   ],
   [
    10.110289,
    48.127912
   ],
   [
    10.110227,
    48.128382
   ],
   [
    10.110186,
    48.128859
   ],
   [
    10.110167,
    48.129105
   ],
   [
    10.110149,
    48.12935
   ],
   [
    10.110128,
    48.129857
   ],
   [
    10.11012,
    48.130553
   ],
   [
    10.110171,
    48.13163
   ],
   [
    10.110214,
    48.132228
   ],
   [
    10.11033,
    48.133118
   ],
   [
    10.110503,
    48.13404
   ],
   [
    10.110637,
    48.134682
   ],
   [
    10.11082,
    48.13541
   ],
   [
    10.111193,
    48.136725
   ],
   [
    10.111767,
    48.138098
   ],
   [
    10.112429,
    48.139461
   ],
   [
    10.113987,
    48.141999
   ],
   [
    10.115117,
    48.143417
   ],
   [
    10.115471,
    48.143854
   ],
   [
    10.116056,
    48.144524
   ],
   [
    10.116929,
    48.145444
   ],
   [
    10.117999,
    48.146466
   ],
   [
    10.118927,
    48.147338
   ],
   [
    10.119504,
    48.147852
   ],
   [
    10.120071,
    48.148356
   ],
   [
    10.121146,
    48.149338
   ],
   [
    10.121758,
    48.149842
   ],
   [
    10.124336,
    48.152237
   ],
   [
    10.126314,
    48.154262
   ],
   [
    10.127221,
    48.155334
   ],
   [
    10.128079,
    48.156442
   ],
   [
    10.128543,
    48.157107
   ],
   [
    10.128863,
    48.15759
   ],
   [
    10.129169,
    48.158076
   ],
   [
    10.129462,
    48.158568
   ],
   [
    10.129748,
    48.159079
   ],
   [
    10.129877,
    48.159324
   ],
   [
    10.130112,
    48.159773
   ],
   [
    10.13089,
    48.161444
   ],
   [
    10.131359,
    48.162708
   ],
   [
    10.131436,
    48.162971
   ],
   [
    10.131552,
    48.163349
   ],
   [
    10.131756,
    48.164112
   ],
   [
    10.131933,
    48.164757
   ],
   [
    10.132039,
    48.16538
   ],
   [
    10.132081,
    48.16606
   ],
   [
    10.132097,
    48.167359
   ],
   [
    10.132092,
    48.167747
   ],
   [
    10.132028,
    48.168612
   ],
   [
    10.13186,
    48.169616
   ],
   [
    10.131574,
    48.170693
   ],
   [
    10.131257,
    48.171585
   ],
   [
    10.130898,
    48.172462
   ],
   [
    10.129356,
    48.175749
   ],
   [
    10.128233,
    48.178129
   ],
   [
    10.127738,
    48.179541
   ],
   [
    10.127343,
    48.180866
   ],
   [
    10.127195,
    48.181466
   ],
   [
    10.127013,
    48.182256
   ],
   [
    10.126677,
    48.183834
   ],
   [
    10.125478,
    48.188746
   ],
   [
    10.123817,
    48.193826
   ],
   [
    10.12302,
    48.196795
   ],
   [
    10.122744,
    48.198275
   ],
   [
    10.122574,
    48.19982
   ],
   [
    10.122521,
    48.200871
   ],
   [
    10.122515,
    48.20192
   ],
   [
    10.122511,
    48.202141
   ],
   [
    10.122545,
    48.203137
   ],
   [
    10.122613,
    48.204088
   ],
   [
    10.122646,
    48.20435
   ],
   [
    10.123204,
    48.207877
   ],
   [
    10.124794,
    48.214878
   ],
   [
    10.125123,
    48.216495
   ],
   [
    10.125346,
    48.217821
   ],
   [
    10.125511,
    48.219045
   ],
   [
    10.125571,
    48.219657
   ],
   [
    10.125616,
    48.220205
   ],
   [
    10.125637,
    48.220525
   ],
   [
    10.125651,
    48.220855
   ],
   [
    10.125676,
    48.221478
   ],
   [
    10.125694,
    48.222432
   ],
   [
    10.125673,
    48.223433
   ],
   [
    10.125645,
    48.224136
   ],
   [
    10.125573,
    48.225141
   ],
   [
    10.125518,
    48.225778
   ],
   [
    10.12541,
    48.226687
   ],
   [
    10.12525,
    48.227685
   ],
   [
    10.125083,
    48.228544
   ],
   [
    10.124839,
    48.229654
   ],
   [
    10.124315,
    48.231571
   ],
   [
    10.124197,
    48.231957
   ],
   [
    10.123955,
    48.232673
   ],
   [
    10.123507,
    48.233872
   ],
   [
    10.123073,
    48.234951
   ],
   [
    10.122585,
    48.236027
   ],
   [
    10.122405,
    48.236385
   ],
   [
    10.122059,
    48.237075
   ],
   [
    10.121784,
    48.237602
   ],
   [
    10.12142,
    48.238286
   ],
   [
    10.121016,
    48.238972
   ],
   [
    10.120648,
    48.239597
   ],
   [
    10.120206,
    48.240309
   ],
   [
    10.119492,
    48.241416
   ],
   [
    10.118522,
    48.242895
   ],
   [
    10.117858,
    48.243933
   ],
   [
    10.117179,
    48.245007
   ],
   [
    10.116604,
    48.245954
   ],
   [
    10.116274,
    48.246528
   ],
   [
    10.115852,
    48.247326
   ],
   [
    10.115447,
    48.248134
   ],
   [
    10.115222,
    48.248598
   ],
   [
    10.114949,
    48.249248
   ],
   [
    10.114743,
    48.249812
   ],
   [
    10.114529,
    48.250391
   ],
   [
    10.114308,
    48.251121
   ],
   [
    10.114129,
    48.251832
   ],
   [
    10.114036,
    48.252287
   ],
   [
    10.113934,
    48.252856
   ],
   [
    10.113849,
    48.253495
   ],
   [
    10.113808,
    48.253849
   ],
   [
    10.11378,
    48.254292
   ],
   [
    10.113764,
    48.254614
   ],
   [
    10.113748,
    48.254991
   ],
   [
    10.113758,
    48.255573
   ],
   [
    10.113792,
    48.256215
   ],
   [
    10.113862,
    48.256888
   ],
   [
    10.113956,
    48.257744
   ],
   [
    10.114088,
    48.25851
   ],
   [
    10.114239,
    48.259221
   ],
   [
    10.114396,
    48.259979
   ],
   [
    10.114844,
    48.262393
   ],
   [
    10.114919,
    48.262949
   ],
   [
    10.11499,
    48.263707
   ],
   [
    10.114996,
    48.263803
   ],
   [
    10.115046,
    48.264562
   ],
   [
    10.115049,
    48.26547
   ],
   [
    10.115019,
    48.266111
   ],
   [
    10.11501,
    48.266243
   ],
   [
    10.114962,
    48.266864
   ],
   [
    10.114891,
    48.26745
   ],
   [
    10.114803,
    48.268036
   ],
   [
    10.114638,
    48.268979
   ],
   [
    10.114576,
    48.269281
   ],
   [
    10.114403,
    48.270111
   ],
   [
    10.114102,
    48.271583
   ],
   [
    10.114055,
    48.27183
   ],
   [
    10.113956,
    48.272393
   ],
   [
    10.113844,
    48.273021
   ],
   [
    10.113738,
    48.273702
   ],
   [
    10.113679,
    48.274286
   ],
   [
    10.113635,
    48.275417
   ],
   [
    10.113638,
    48.275993
   ],
   [
    10.113683,
    48.277136
   ],
   [
    10.113767,
    48.27803
   ],
   [
    10.113855,
    48.278645
   ],
   [
    10.114101,
    48.279946
   ],
   [
    10.11452,
    48.282098
   ],
   [
    10.114653,
    48.282846
   ],
   [
    10.114812,
    48.2839
   ],
   [
    10.114858,
    48.284269
   ],
   [
    10.114927,
    48.285404
   ],
   [
    10.114933,
    48.286252
   ],
   [
    10.114796,
    48.288112
   ],
   [
    10.114743,
    48.288448
   ],
   [
    10.114695,
    48.28875
   ],
   [
    10.11468,
    48.288847
   ],
   [
    10.114413,
    48.290139
   ],
   [
    10.114385,
    48.290253
   ],
   [
    10.114243,
    48.290733
   ],
   [
    10.114116,
    48.291144
   ],
   [
    10.113541,
    48.292737
   ],
   [
    10.112446,
    48.294907
   ],
   [
    10.111801,
    48.295931
   ],
   [
    10.111669,
    48.296128
   ],
   [
    10.110797,
    48.297344
   ],
   [
    10.11042,
    48.297795
   ],
   [
    10.110176,
    48.298098
   ],
   [
    10.10953,
    48.298843
   ],
   [
    10.108944,
    48.299475
   ],
   [
    10.107886,
    48.30055
   ],
   [
    10.106712,
    48.30166
   ],
   [
    10.106071,
    48.302255
   ],
   [
    10.105711,
    48.302569
   ],
   [
    10.104912,
    48.303259
   ],
   [
    10.104582,
    48.303549
   ],
   [
    10.099318,
    48.308004
   ],
   [
    10.098081,
    48.309113
   ],
   [
    10.097197,
    48.309947
   ],
   [
    10.09639,
    48.310734
   ],
   [
    10.095706,
    48.311446
   ],
   [
    10.095209,
    48.311991
   ],
   [
    10.094724,
    48.312543
   ],
   [
    10.094323,
    48.313031
   ],
   [
    10.094146,
    48.313255
   ],
   [
    10.093996,
    48.313446
   ],
   [
    10.093762,
    48.313743
   ],
   [
    10.093056,
    48.314708
   ],
   [
    10.092521,
    48.315503
   ],
   [
    10.092103,
    48.316197
   ],
   [
    10.091864,
    48.31661
   ],
   [
    10.091552,
    48.317151
   ],
   [
    10.091281,
    48.317719
   ],
   [
    10.091164,
    48.317961
   ],
   [
    10.091084,
    48.318124
   ],
   [
    10.091015,
    48.318287
   ],
   [
    10.090755,
    48.318831
   ],
   [
    10.090725,
    48.319027
   ],
   [
    10.090634,
    48.319316
   ],
   [
    10.090537,
    48.319636
   ],
   [
    10.090472,
    48.319874
   ],
   [
    10.090401,
    48.320216
   ],
   [
    10.090356,
    48.320502
   ],
   [
    10.090331,
    48.320783
   ],
   [
    10.090192,
    48.322626
   ],
   [
    10.090087,
    48.323134
   ],
   [
    10.089929,
    48.323642
   ],
   [
    10.089786,
    48.323968
   ],
   [
    10.089628,
    48.324231
   ],
   [
    10.089396,
    48.324574
   ],
   [
    10.088973,
    48.325071
   ],
   [
    10.088678,
    48.325357
   ],
   [
    10.0883,
    48.325673
   ],
   [
    10.087968,
    48.32593
   ],
   [
    10.087701,
    48.32611
   ],
   [
    10.087347,
    48.326315
   ],
   [
    10.086524,
    48.326725
   ],
   [
    10.085421,
    48.327215
   ],
   [
    10.084421,
    48.327615
   ],
   [
    10.083558,
    48.327958
   ],
   [
    10.081877,
    48.328548
   ],
   [
    10.08127,
    48.32874
   ],
   [
    10.080706,
    48.328921
   ],
   [
    10.080335,
    48.32903
   ],
   [
    10.078262,
    48.329607
   ],
   [
    10.076394,
    48.330046
   ],
   [
    10.074908,
    48.330348
   ],
   [
    10.073425,
    48.33061
   ],
   [
    10.071766,
    48.330859
   ],
   [
    10.070001,
    48.33107
   ],
   [
    10.0685,
    48.331213
   ],
   [
    10.066983,
    48.33133
   ],
   [
    10.065466,
    48.331432
   ],
   [
    10.063964,
    48.331509
   ],
   [
    10.061504,
    48.331623
   ],
   [
    10.059069,
    48.33175
   ],
   [
    10.057013,
    48.331863
   ],
   [
    10.054178,
    48.332074
   ],
   [
    10.051408,
    48.332368
   ],
   [
    10.049859,
    48.332572
   ],
   [
    10.047632,
    48.332928
   ],
   [
    10.046027,
    48.333229
   ],
   [
    10.044163,
    48.333625
   ],
   [
    10.042774,
    48.333947
   ],
   [
    10.042285,
    48.33407
   ],
   [
    10.0406,
    48.33454
   ],
   [
    10.039897,
    48.334746
   ],
   [
    10.039081,
    48.334996
   ],
   [
    10.037668,
    48.33548
   ],
   [
    10.036146,
    48.336058
   ],
   [
    10.035466,
    48.336323
   ],
   [
    10.035036,
    48.336504
   ],
   [
    10.034148,
    48.336891
   ],
   [
    10.033859,
    48.337031
   ],
   [
    10.033466,
    48.337215
   ],
   [
    10.03228,
    48.337793
   ],
   [
    10.031243,
    48.338316
   ],
   [
    10.029395,
    48.339364
   ],
   [
    10.028001,
    48.340216
   ],
   [
    10.026364,
    48.341314
   ],
   [
    10.025037,
    48.342273
   ],
   [
    10.023516,
    48.343438
   ],
   [
    10.0218,
    48.344802
   ],
   [
    10.019626,
    48.346733
   ],
   [
    10.018073,
    48.348211
   ],
   [
    10.01727,
    48.348984
   ],
   [
    10.01676,
    48.349475
   ],
   [
    10.015208,
    48.351052
   ],
   [
    10.014107,
    48.352162
   ],
   [
    10.01249,
    48.35381
   ],
   [
    10.012242,
    48.354054
   ],
   [
    10.003678,
    48.362806
   ],
   [
    10.003332,
    48.363171
   ],
   [
    10.000295,
    48.366304
   ],
   [
    9.999038,
    48.367625
   ],
   [
    9.998578,
    48.368099
   ],
   [
    9.997336,
    48.369368
   ],
   [
    9.996719,
    48.370002
   ],
   [
    9.996369,
    48.37035
   ],
   [
    9.99591,
    48.370807
   ],
   [
    9.995013,
    48.371734
   ],
   [
    9.994631,
    48.372146
   ],
   [
    9.994293,
    48.372544
   ],
   [
    9.994034,
    48.37288
   ],
   [
    9.993729,
    48.37332
   ],
   [
    9.993472,
    48.373768
   ],
   [
    9.993248,
    48.374228
   ],
   [
    9.993127,
    48.374509
   ],
   [
    9.993042,
    48.374739
   ],
   [
    9.992947,
    48.375005
   ],
   [
    9.992873,
    48.375261
   ],
   [
    9.992791,
    48.375624
   ],
   [
    9.992753,
    48.37581
   ],
   [
    9.992711,
    48.376121
   ],
   [
    9.992688,
    48.376312
   ],
   [
    9.992674,
    48.3766
   ],
   [
    9.992678,
    48.377015
   ],
   [
    9.992689,
    48.377312
   ],
   [
    9.992755,
    48.377659
   ],
   [
    9.992764,
    48.377832
   ],
   [
    9.992827,
    48.378158
   ],
   [
    9.992846,
    48.378269
   ],
   [
    9.992879,
    48.37836
   ],
   [
    9.992959,
    48.378655
   ],
   [
    9.993099,
    48.379087
   ],
   [
    9.993105,
    48.379106
   ],
   [
    9.993192,
    48.379349
   ],
   [
    9.993353,
    48.37979
   ],
   [
    9.993536,
    48.380235
   ],
   [
    9.993721,
    48.380749
   ],
   [
    9.993916,
    48.381314
   ],
   [
    9.994013,
    48.381607
   ],
   [
    9.994091,
    48.381844
   ],
   [
    9.994161,
    48.382082
   ],
   [
    9.994262,
    48.382425
   ],
   [
    9.994346,
    48.382735
   ],
   [
    9.994378,
    48.382871
   ],
   [
    9.994426,
    48.383399
   ],
   [
    9.994401,
    48.383824
   ],
   [
    9.994329,
    48.384156
   ],
   [
    9.994155,
    48.384556
   ],
   [
    9.99398,
    48.384893
   ],
   [
    9.993598,
    48.385395
   ],
   [
    9.993338,
    48.385663
   ],
   [
    9.992961,
    48.385974
   ],
   [
    9.992443,
    48.38634
   ],
   [
    9.991015,
    48.387158
   ],
   [
    9.990457,
    48.387474
   ],
   [
    9.987662,
    48.389074
   ],
   [
    9.987572,
    48.389126
   ],
   [
    9.987262,
    48.389298
   ],
   [
    9.985644,
    48.39023
   ],
   [
    9.9853,
    48.390458
   ],
   [
    9.98528,
    48.390471
   ],
   [
    9.98499,
    48.390665
   ],
   [
    9.984451,
    48.391063
   ],
   [
    9.984227,
    48.391311
   ],
   [
    9.983715,
    48.391784
   ],
   [
    9.983031,
    48.392332
   ],
   [
    9.982862,
    48.392463
   ],
   [
    9.982559,
    48.39267
   ],
   [
    9.982301,
    48.392803
   ],
   [
    9.982146,
    48.392901
   ],
   [
    9.982068,
    48.392954
   ],
   [
    9.98159,
    48.393284
   ],
   [
    9.981549,
    48.393315
   ],
   [
    9.981439,
    48.393398
   ],
   [
    9.981541,
    48.393462
   ],
   [
    9.981632,
    48.393523
   ],
   [
    9.981928,
    48.39372
   ],
   [
    9.982132,
    48.393852
   ],
   [
    9.982306,
    48.393965
   ],
   [
    9.982336,
    48.393985
   ],
   [
    9.982467,
    48.394073
   ],
   [
    9.982803,
    48.394282
   ],
   [
    9.983065,
    48.394445
   ],
   [
    9.983298,
    48.394594
   ],
   [
    9.983673,
    48.394821
   ],
   [
    9.98379,
    48.394891
   ],
   [
    9.983882,
    48.394945
   ],
   [
    9.984016,
    48.395008
   ],
   [
    9.984222,
    48.395098
   ],
   [
    9.984398,
    48.395174
   ],
   [
    9.984421,
    48.395183
   ],
   [
    9.984639,
    48.395287
   ],
   [
    9.984752,
    48.395362
   ],
   [
    9.984827,
    48.39543
   ],
   [
    9.984879,
    48.395494
   ],
   [
    9.984935,
    48.395562
   ],
   [
    9.984981,
    48.395666
   ],
   [
    9.985006,
    48.395752
   ],
   [
    9.985021,
    48.395826
   ],
   [
    9.985033,
    48.395898
   ],
   [
    9.985045,
    48.395986
   ],
   [
    9.985061,
    48.396117
   ],
   [
    9.985093,
    48.396423
   ],
   [
    9.985101,
    48.396523
   ],
   [
    9.985097,
    48.396652
   ],
   [
    9.985094,
    48.396733
   ],
   [
    9.985089,
    48.396787
   ],
   [
    9.985085,
    48.396831
   ],
   [
    9.985077,
    48.39688
   ],
   [
    9.985067,
    48.396918
   ],
   [
    9.985053,
    48.396956
   ],
   [
    9.985031,
    48.397001
   ],
   [
    9.985006,
    48.397044
   ],
   [
    9.984981,
    48.397085
   ],
   [
    9.984955,
    48.397124
   ],
   [
    9.984929,
    48.397161
   ],
   [
    9.984892,
    48.397212
   ],
   [
    9.984854,
    48.397265
   ],
   [
    9.98482,
    48.397316
   ],
   [
    9.9848,
    48.397348
   ],
   [
    9.984782,
    48.39738
   ],
   [
    9.984764,
    48.397412
   ],
   [
    9.984748,
    48.397439
   ],
   [
    9.984725,
    48.397471
   ],
   [
    9.984623,
    48.397603
   ],
   [
    9.984558,
    48.397698
   ],
   [
    9.984531,
    48.397737
   ],
   [
    9.984505,
    48.397787
   ],
   [
    9.984487,
    48.397829
   ],
   [
    9.984473,
    48.397867
   ],
   [
    9.984459,
    48.397925
   ],
   [
    9.98445,
    48.397971
   ],
   [
    9.984441,
    48.398023
   ],
   [
    9.984434,
    48.398082
   ],
   [
    9.984415,
    48.398362
   ],
   [
    9.984406,
    48.398492
   ],
   [
    9.984401,
    48.398554
   ],
   [
    9.984364,
    48.398986
   ],
   [
    9.984326,
    48.399554
   ],
   [
    9.984322,
    48.399614
   ],
   [
    9.984315,
    48.399727
   ],
   [
    9.984316,
    48.399762
   ],
   [
    9.984317,
    48.399794
   ],
   [
    9.98432,
    48.399826
   ],
   [
    9.984326,
    48.399858
   ],
   [
    9.984339,
    48.399887
   ],
   [
    9.984353,
    48.399915
   ],
   [
    9.984374,
    48.399945
   ],
   [
    9.984399,
    48.399974
   ],
   [
    9.984425,
    48.399999
   ],
   [
    9.984455,
    48.400023
   ],
   [
    9.984485,
    48.400044
   ],
   [
    9.984517,
    48.400065
   ],
   [
    9.984548,
    48.400083
   ],
   [
    9.984583,
    48.4001
   ],
   [
    9.984688,
    48.400144
   ],
   [
    9.984772,
    48.400178
   ],
   [
    9.984895,
    48.400224
   ],
   [
    9.985076,
    48.400291
   ],
   [
    9.985214,
    48.400341
   ],
   [
    9.985335,
    48.400383
   ],
   [
    9.985444,
    48.400419
   ],
   [
    9.985556,
    48.400455
   ],
   [
    9.985672,
    48.400491
   ],
   [
    9.985925,
    48.400563
   ],
   [
    9.986215,
    48.400642
   ],
   [
    9.986303,
    48.400664
   ],
   [
    9.986399,
    48.400687
   ],
   [
    9.986481,
    48.400706
   ],
   [
    9.986583,
    48.400728
   ],
   [
    9.986676,
    48.40075
   ],
   [
    9.986772,
    48.400773
   ],
   [
    9.986873,
    48.4008
   ],
   [
    9.987074,
    48.400854
   ],
   [
    9.987138,
    48.400872
   ],
   [
    9.987219,
    48.400894
   ],
   [
    9.987284,
    48.400909
   ],
   [
    9.987351,
    48.400925
   ],
   [
    9.987435,
    48.400943
   ],
   [
    9.987501,
    48.400958
   ],
   [
    9.987729,
    48.401012
   ],
   [
    9.988028,
    48.401085
   ],
   [
    9.988174,
    48.401122
   ],
   [
    9.988293,
    48.401155
   ],
   [
    9.988437,
    48.401196
   ],
   [
    9.988611,
    48.401248
   ],
   [
    9.988736,
    48.401283
   ],
   [
    9.988866,
    48.401317
   ],
   [
    9.989332,
    48.401429
   ],
   [
    9.989472,
    48.401459
   ],
   [
    9.989627,
    48.401488
   ],
   [
    9.989672,
    48.401496
   ],
   [
    9.989797,
    48.401519
   ],
   [
    9.989775,
    48.40156
   ],
   [
    9.98976,
    48.401586
   ],
   [
    9.989738,
    48.401625
   ],
   [
    9.989675,
    48.401613
   ],
   [
    9.989624,
    48.401603
   ],
   [
    9.989563,
    48.401592
   ],
   [
    9.989445,
    48.40157
   ],
   [
    9.98932,
    48.401545
   ],
   [
    9.98919,
    48.401518
   ],
   [
    9.989077,
    48.401492
   ],
   [
    9.988742,
    48.401413
   ],
   [
    9.98865,
    48.401393
   ],
   [
    9.988572,
    48.401379
   ],
   [
    9.988481,
    48.401366
   ],
   [
    9.988427,
    48.40136
   ],
   [
    9.98837,
    48.401353
   ],
   [
    9.988292,
    48.401341
   ],
   [
    9.988215,
    48.401326
   ],
   [
    9.987675,
    48.401193
   ],
   [
    9.987633,
    48.401182
   ],
   [
    9.987565,
    48.401166
   ]
  ],
  "type": "LineString"
 },
 "properties": {
  "quelle": "OSRM router.project-osrm.org, Profil driving",
  "von": [
   47.5605,
   10.2185
  ],
  "nach": [
   48.4011,
   9.9876
  ],
  "distanz_m": 113752.4,
  "dauer_s": 4306,
  "punkte": 1482
 }
}
