{
 "type": "Feature",
 "geometry": {
  "coordinates": [
   [
    10.327728,
    47.583017
   ],
   [
    10.327748,
    47.583052
   ],
   [
    10.32775,
    47.583106
   ],
   [
    10.327473,
    47.583385
   ],
   [
    10.327044,
    47.583608
   ],
   [
    10.3267,
    47.58373
   ],
   [
    10.326411,
    47.583773
   ],
   [
    10.326161,
    47.583823
   ],
   [
    10.325696,
    47.584066
   ],
   [
    10.325267,
    47.58442
   ],
   [
    10.324882,
    47.584729
   ],
   [
    10.324821,
    47.584783
   ],
   [
    10.324771,
    47.584845
   ],
   [
    10.32471,
    47.584886
   ],
   [
    10.324652,
    47.584931
   ],
   [
    10.324654,
    47.585006
   ],
   [
    10.324629,
    47.585114
   ],
   [
    10.324763,
    47.585075
   ],
   [
    10.324887,
    47.585071
   ],
   [
    10.324999,
    47.585093
   ],
   [
    10.325177,
    47.585182
   ],
   [
    10.325282,
    47.585294
   ],
   [
    10.325291,
    47.585325
   ],
   [
    10.32532,
    47.58543
   ],
   [
    10.325335,
    47.585509
   ],
   [
    10.325613,
    47.585749
   ],
   [
    10.325732,
    47.585679
   ],
   [
    10.325802,
    47.585585
   ],
   [
    10.325841,
    47.585376
   ],
   [
    10.325873,
    47.585327
   ],
   [
    10.325902,
    47.585296
   ],
   [
    10.325981,
    47.585244
   ],
   [
    10.326181,
    47.585181
   ],
   [
    10.326283,
    47.585189
   ],
   [
    10.326334,
    47.585198
   ],
   [
    10.327136,
    47.585736
   ],
   [
    10.327219,
    47.585704
   ],
   [
    10.327252,
    47.585666
   ],
   [
    10.327245,
    47.585575
   ],
   [
    10.327235,
    47.585484
   ],
   [
    10.32722,
    47.585343
   ],
   [
    10.327243,
    47.58521
   ],
   [
    10.327301,
    47.585066
   ],
   [
    10.327448,
    47.584815
   ],
   [
    10.327505,
    47.584702
   ],
   [
    10.327536,
    47.584555
   ],
   [
    10.327606,
    47.584478
   ],
   [
    10.327722,
    47.584473
   ],
   [
    10.32787,
    47.584515
   ],
   [
    10.327975,
    47.584579
   ],
   [
    10.32807,
    47.584657
   ],
   [
    10.328238,
    47.584861
   ],
   [
    10.328533,
    47.58525
   ],
   [
    10.328621,
    47.585358
   ],
   [
    10.3288,
    47.585492
   ],
   [
    10.329,
    47.58559
   ],
   [
    10.329152,
    47.585646
   ],
   [
    10.329359,
    47.585703
   ],
   [
    10.32976,
    47.58581
   ],
   [
    10.329865,
    47.585847
   ],
   [
    10.329981,
    47.585886
   ],
   [
    10.330366,
    47.58608
   ],
   [
    10.330597,
    47.586174
   ],
   [
    10.330693,
    47.586185
   ],
   [
    10.330805,
    47.586168
   ],
   [
    10.330855,
    47.586094
   ],
   [
    10.330847,
    47.586037
   ],
   [
    10.330792,
    47.585947
   ],
   [
    10.330576,
    47.585696
   ],
   [
    10.330497,
    47.585497
   ],
   [
    10.330533,
    47.585351
   ],
   [
    10.330598,
    47.585292
   ],
   [
    10.3307,
    47.585276
   ],
   [
    10.330825,
    47.5853
   ],
   [
    10.33096,
    47.585357
   ],
   [
    10.331247,
    47.585455
   ],
   [
    10.331431,
    47.585483
   ],
   [
    10.331577,
    47.585484
   ],
   [
    10.331624,
    47.585476
   ],
   [
    10.331681,
    47.585444
   ],
   [
    10.331751,
    47.585385
   ],
   [
    10.331793,
    47.585298
   ],
   [
    10.331804,
    47.585249
   ],
   [
    10.331806,
    47.585176
   ],
   [
    10.331792,
    47.58508
   ],
   [
    10.331759,
    47.584964
   ],
   [
    10.331695,
    47.584878
   ],
   [
    10.331482,
    47.584659
   ],
   [
    10.33102,
    47.584296
   ],
   [
    10.330914,
    47.584186
   ],
   [
    10.33078,
    47.583817
   ]
  ],
  "type": "LineString"
 },
 "properties": {
  "quelle": "OSRM router.project-osrm.org, Profil driving",
  "von": [
   47.5825,
   10.3295
  ],
  "nach": [
   47.583,
   10.331
  ],
  "distanz_m": 1518.3,
  "dauer_s": 221.9,
  "punkte": 91
 }
}
