{
 "type": "Feature",
 "geometry": {
  "coordinates": [
   [
    10.216946,
    47.55887
   ],
   [
    10.217376,
    47.558789
   ],
   [
    10.217334,
    47.558696
   ],
   [
    10.218001,
    47.558597
   ],
   [
    10.218295,
    47.55855
   ],
   [
    10.218583,
    47.558511
   ],
   [
    10.218799,
    47.558471
   ],
   [
    10.219216,
    47.558409
   ],
   [
    10.219758,
    47.558347
   ],
   [
    10.220125,
    47.558337
   ],
   [
    10.22017,
    47.558556
   ],
   [
    10.220178,
    47.5586
   ],
   [
    10.22026,
    47.558865
   ],
   [
    10.220303,
    47.559002
   ],
   [
    10.220377,
    47.559113
   ],
   [
    10.220404,
    47.559152
   ],
   [
    10.220426,
    47.559185
   ],
   [
    10.220474,
    47.559209
   ],
   [
    10.220484,
    47.559195
   ],
   [
    10.220497,
    47.559182
   ],
   [
    10.220513,
    47.55917
   ],
   [
    10.220532,
    47.55916
   ],
   [
    10.220552,
    47.559152
   ],
   [
    10.220574,
    47.559146
   ],
   [
    10.220597,
    47.559143
   ],
   [
    10.220621,
    47.559141
   ],
   [
    10.220644,
    47.559143
   ],
   [
    10.220667,
    47.559146
   ],
   [
    10.22069,
    47.559152
   ],
   [
    10.220712,
    47.559161
   ],
   [
    10.220731,
    47.559171
   ],
   [
    10.220748,
    47.559184
   ],
   [
    10.220761,
    47.559198
   ],
   [
    10.220771,
    47.559214
   ],
   [
    10.220777,
    47.55923
   ],
   [
    10.220779,
    47.559246
   ],
   [
    10.220778,
    47.559263
   ],
   [
    10.220772,
    47.55928
   ],
   [
    10.220836,
    47.559352
   ],
   [
    10.22085,
    47.559369
   ],
   [
    10.220931,
    47.559466
   ],
   [
    10.220982,
    47.559546
   ],
   [
    10.221015,
    47.559633
   ],
   [
    10.221038,
    47.55973
   ],
   [
    10.221075,
    47.559869
   ],
   [
    10.221117,
    47.560003
   ],
   [
    10.22114,
    47.560094
   ],
   [
    10.221274,
    47.560557
   ],
   [
    10.221291,
    47.560615
   ],
   [
    10.221315,
    47.560733
   ],
   [
    10.221329,
    47.560845
   ],
   [
    10.221328,
    47.560899
   ],
   [
    10.221333,
    47.560946
   ],
   [
    10.221347,
    47.560961
   ],
   [
    10.221355,
    47.560978
   ],
   [
    10.221358,
    47.560996
   ],
   [
    10.221355,
    47.561014
   ],
   [
    10.221346,
    47.561032
   ],
   [
    10.221331,
    47.561049
   ],
   [
    10.221311,
    47.561063
   ],
   [
    10.221286,
    47.561073
   ],
   [
    10.221258,
    47.561079
   ],
   [
    10.221229,
    47.561081
   ],
   [
    10.221201,
    47.561078
   ],
   [
    10.221174,
    47.561071
   ],
   [
    10.22115,
    47.56106
   ],
   [
    10.22113,
    47.561045
   ],
   [
    10.221117,
    47.561028
   ],
   [
    10.221109,
    47.561009
   ],
   [
    10.221108,
    47.56099
   ],
   [
    10.221114,
    47.56097
   ],
   [
    10.221011,
    47.560938
   ],
   [
    10.220912,
    47.56093
   ],
   [
    10.220804,
    47.560932
   ],
   [
    10.220583,
    47.560964
   ],
   [
    10.220522,
    47.560982
   ],
   [
    10.22002,
    47.561133
   ],
   [
    10.2199,
    47.561169
   ],
   [
    10.219852,
    47.561202
   ],
   [
    10.219779,
    47.561109
   ],
   [
    10.2197,
    47.560976
   ],
   [
    10.219608,
    47.560791
   ],
   [
    10.219596,
    47.560755
   ],
   [
    10.219506,
    47.560637
   ],
   [
    10.219463,
    47.56065
   ],
   [
    10.218878,
    47.560768
   ],
   [
    10.218623,
    47.560813
   ]
  ],
  "type": "LineString"
 },
 "properties": {
  "quelle": "OSRM router.project-osrm.org, Profil driving",
  "von": [
   47.559,
   10.217
  ],
  "nach": [
   47.5605,
   10.2185
  ],
  "distanz_m": 867.3,
  "dauer_s": 152,
  "punkte": 87
 }
}
