{"type":"Feature","geometry":{"coordinates":[[10.21695,47.55887],[10.21738,47.55879],[10.21733,47.5587],[10.2172,47.55871],[10.2166,47.55881],[10.2164,47.55884],[10.21558,47.55895],[10.21547,47.55897],[10.21537,47.55899],[10.21527,47.55903],[10.21519,47.55906],[10.21502,47.55917],[10.21491,47.55923],[10.21469,47.55932],[10.21463,47.55935],[10.21456,47.55937],[10.21432,47.55941],[10.21383,47.55946],[10.21363,47.55949],[10.21339,47.55953],[10.2129,47.55961],[10.21245,47.55968],[10.2122,47.55972],[10.21212,47.55973],[10.21195,47.55981],[10.21186,47.55985],[10.21184,47.55987],[10.21184,47.55989],[10.21184,47.55992],[10.21183,47.55994],[10.21181,47.55996],[10.21179,47.55998],[10.21177,47.56],[10.21176,47.56007],[10.21173,47.56011],[10.21171,47.56014],[10.2117,47.56021],[10.21145,47.56088],[10.21138,47.56112],[10.21138,47.56118],[10.21138,47.56122],[10.21139,47.56127],[10.21142,47.56127],[10.21145,47.56127],[10.21147,47.56127],[10.2115,47.56128],[10.21152,47.56129],[10.21154,47.5613],[10.21156,47.56132],[10.21157,47.56133],[10.21158,47.56135],[10.21159,47.56137],[10.21158,47.56139],[10.21158,47.56141],[10.21157,47.56143],[10.21155,47.56145],[10.21153,47.56146],[10.2115,47.56147],[10.21148,47.56148],[10.21145,47.56149],[10.21142,47.56149],[10.21139,47.56148],[10.21136,47.56148],[10.21133,47.56147],[10.21132,47.56146],[10.21126,47.56151],[10.21123,47.56155],[10.21121,47.56158],[10.2112,47.56161],[10.21111,47.56184],[10.21109,47.56191],[10.21103,47.56208],[10.21097,47.5622],[10.21083,47.56249],[10.21074,47.5626],[10.21038,47.563],[10.21035,47.56302],[10.20979,47.56358],[10.2094,47.56395],[10.20921,47.56413],[10.20904,47.56428],[10.20868,47.56457],[10.20849,47.56471],[10.20796,47.56505],[10.20768,47.56522],[10.20709,47.5655],[10.2064,47.56579],[10.20484,47.56639],[10.20457,47.5665],[10.20435,47.5666],[10.20403,47.56672],[10.20357,47.56691],[10.20309,47.56711],[10.20271,47.5673],[10.20252,47.56741],[10.20233,47.56754],[10.20212,47.56771],[10.20191,47.56796],[10.20177,47.56818],[10.20166,47.56843],[10.20145,47.56907],[10.20104,47.57041],[10.20087,47.57083],[10.20065,47.57142],[10.20046,47.5719],[10.20026,47.57239],[10.2002,47.57251],[10.19997,47.57285],[10.19957,47.57317],[10.19941,47.57331],[10.19928,47.57346],[10.19923,47.57359],[10.19921,47.57373],[10.19922,47.57389],[10.19926,47.57405],[10.19937,47.57433],[10.1994,47.57445],[10.19939,47.57458],[10.19935,47.57479],[10.19927,47.57499],[10.19923,47.57515],[10.19923,47.57519],[10.19925,47.57532],[10.19928,47.57539],[10.19933,47.57546],[10.19939,47.57553],[10.19941,47.57555],[10.19962,47.57569],[10.19978,47.5758],[10.19992,47.57593],[10.20007,47.57607],[10.20015,47.57612],[10.20025,47.57617],[10.20037,47.57621],[10.20047,47.57624],[10.20055,47.57625],[10.20073,47.57627],[10.20103,47.57629],[10.20149,47.57631],[10.20172,47.57637],[10.20192,47.57644],[10.20207,47.57654],[10.20217,47.57665],[10.2022,47.57673],[10.20222,47.57679],[10.20222,47.57695],[10.20219,47.57714],[10.20218,47.57726],[10.20221,47.57738],[10.20226,47.57748],[10.20236,47.57758],[10.20256,47.57772],[10.20279,47.57785],[10.20303,47.57797],[10.20308,47.57799],[10.20321,47.57805],[10.20345,47.57817],[10.20437,47.57868],[10.20448,47.57876],[10.20449,47.57878],[10.20457,47.57886],[10.2046,47.57894],[10.20463,47.57905],[10.2046,47.57925],[10.20449,47.57936],[10.20436,47.57948],[10.2043,47.5795],[10.20418,47.57955],[10.20382,47.57963],[10.20347,47.57969],[10.2032,47.57977],[10.20302,47.57989],[10.20288,47.58005],[10.20278,47.58025],[10.20261,47.58048],[10.20242,47.58064],[10.20224,47.58073],[10.20208,47.58079],[10.20188,47.58085],[10.20173,47.58089],[10.20145,47.58095],[10.20104,47.58109],[10.20083,47.58118],[10.20073,47.58125],[10.20067,47.58129],[10.20051,47.58143],[10.20039,47.5816],[10.20035,47.58168],[10.20031,47.58178],[10.20025,47.58206],[10.2002,47.58226],[10.20015,47.58243],[10.20013,47.58249],[10.2001,47.58256],[10.20001,47.5827],[10.1999,47.58283],[10.19982,47.58293],[10.19963,47.5831],[10.19904,47.58366],[10.1985,47.58416],[10.19768,47.58494],[10.19716,47.58542],[10.19702,47.58555],[10.19684,47.58568],[10.19666,47.58581],[10.19632,47.58602],[10.19589,47.58621],[10.19558,47.58632],[10.19538,47.58638],[10.19512,47.58646],[10.19479,47.58658],[10.19462,47.58664],[10.1944,47.58676],[10.19425,47.58686],[10.19406,47.58701],[10.1938,47.58727],[10.1936,47.58758],[10.19338,47.58798],[10.19316,47.58821],[10.19291,47.5884],[10.1927,47.5885],[10.19239,47.58861],[10.19195,47.5887],[10.19122,47.58879],[10.19084,47.58882],[10.19028,47.58884],[10.19002,47.58884],[10.18973,47.58884],[10.1891,47.58882],[10.18852,47.58878],[10.18788,47.5887],[10.18766,47.58867],[10.18761,47.58866],[10.18699,47.58857],[10.18632,47.58846],[10.18614,47.58842],[10.18602,47.58837],[10.18588,47.58827],[10.18579,47.58818],[10.18571,47.58808],[10.18566,47.58804],[10.1856,47.58801],[10.18553,47.58798],[10.18545,47.58797],[10.18537,47.58798],[10.18531,47.588],[10.18522,47.58806],[10.18518,47.58812],[10.18517,47.58818],[10.18519,47.58826],[10.18525,47.58832],[10.18546,47.58843],[10.18567,47.58855],[10.18578,47.58861],[10.18585,47.58871],[10.18587,47.58877],[10.18588,47.58884],[10.18586,47.58892],[10.18566,47.58922],[10.18563,47.58931],[10.18564,47.58943],[10.18566,47.5895],[10.1857,47.58958],[10.18576,47.58971],[10.18582,47.58988],[10.18583,47.58996],[10.18582,47.59006],[10.18578,47.59014],[10.18572,47.59024],[10.18565,47.5903],[10.1855,47.59043],[10.18531,47.59056],[10.18517,47.59069],[10.18508,47.59082],[10.18498,47.59109],[10.1849,47.59128],[10.18475,47.59146],[10.18454,47.59163],[10.18434,47.59175],[10.18406,47.59186],[10.18366,47.59193],[10.18335,47.59195],[10.1827,47.59193],[10.18186,47.59188],[10.18112,47.59183],[10.18068,47.59178],[10.18036,47.59171],[10.18002,47.59163],[10.17992,47.5916],[10.17973,47.59156],[10.17954,47.59152],[10.17935,47.59149],[10.17915,47.59146],[10.17893,47.59143],[10.17853,47.59142],[10.17827,47.59143],[10.17795,47.59147],[10.17762,47.59153],[10.17729,47.59162],[10.17703,47.59172],[10.17676,47.59185],[10.17639,47.59206],[10.17605,47.59228],[10.17571,47.59244],[10.17536,47.59256],[10.17502,47.59262],[10.17466,47.59265],[10.1745,47.59265],[10.17427,47.59264],[10.17374,47.59258],[10.17296,47.59243],[10.17259,47.59236],[10.17209,47.59231],[10.17135,47.59226],[10.17104,47.59219],[10.17071,47.59209],[10.17037,47.59193],[10.16976,47.59155],[10.16955,47.5914],[10.16941,47.5913],[10.16906,47.59109],[10.16875,47.59093],[10.16832,47.59079],[10.16787,47.59073],[10.16735,47.59071],[10.16658,47.59074],[10.165,47.59079],[10.16445,47.59085],[10.16404,47.59092],[10.16356,47.59101],[10.16326,47.59103],[10.16293,47.59103],[10.16287,47.59103],[10.16279,47.59103],[10.16171,47.59098],[10.1604,47.59092],[10.16009,47.59091],[10.15965,47.59091],[10.15918,47.59094],[10.15868,47.59102],[10.15821,47.59111],[10.15775,47.59125],[10.15764,47.59129],[10.15714,47.59145],[10.15672,47.59157],[10.15649,47.59162],[10.15617,47.59168],[10.15585,47.59172],[10.1554,47.59173],[10.15482,47.59173],[10.15415,47.5917],[10.15366,47.59169],[10.15315,47.59171],[10.15263,47.59175],[10.15216,47.59182],[10.1513,47.59193],[10.15081,47.59198],[10.15038,47.592],[10.1492,47.59203],[10.14813,47.59204],[10.14624,47.59203],[10.14594,47.59203],[10.1456,47.59205],[10.14445,47.59212],[10.14237,47.59225],[10.14159,47.59229],[10.14091,47.59231],[10.14019,47.59234],[10.13892,47.5924],[10.13816,47.59243],[10.13798,47.59244],[10.13739,47.59246],[10.13678,47.59248],[10.13645,47.5925],[10.13608,47.59256],[10.13579,47.59262],[10.13555,47.59268],[10.13508,47.59283],[10.13447,47.59306],[10.13373,47.59336],[10.13326,47.59352],[10.13276,47.59365],[10.13214,47.59376],[10.13181,47.59379],[10.13129,47.59385],[10.13096,47.59391],[10.13063,47.59399],[10.13029,47.59412],[10.12996,47.59425],[10.12982,47.59432],[10.12947,47.59446],[10.1291,47.59465],[10.12886,47.59481],[10.12871,47.59497],[10.12857,47.59516],[10.12855,47.5952],[10.12847,47.59535],[10.12839,47.5958],[10.12833,47.59636],[10.12829,47.59651],[10.12816,47.59682],[10.12797,47.59713],[10.12793,47.5972],[10.12772,47.59753],[10.1277,47.59757],[10.12766,47.59759],[10.12762,47.59761],[10.12757,47.59762],[10.12751,47.59762],[10.12743,47.5976],[10.12712,47.59751],[10.12691,47.59748],[10.12674,47.59746],[10.12647,47.59747],[10.12614,47.59752],[10.12579,47.59762],[10.12545,47.59771],[10.12508,47.5978],[10.12441,47.59792],[10.12367,47.59808],[10.12324,47.59818],[10.12307,47.59823],[10.12269,47.59835],[10.12251,47.5984],[10.12216,47.59852],[10.12203,47.59857],[10.1211,47.59895],[10.12051,47.59918],[10.12008,47.59935],[10.11999,47.59938],[10.11836,47.59998],[10.11726,47.60039],[10.11685,47.60058],[10.11637,47.60082],[10.11599,47.60098],[10.11566,47.60108],[10.11528,47.60118],[10.11485,47.60129],[10.11453,47.60137],[10.11426,47.60146],[10.11381,47.60164],[10.11237,47.60238],[10.11192,47.6026],[10.11135,47.60291],[10.11111,47.60305],[10.11078,47.60326],[10.11038,47.60357],[10.11011,47.60379],[10.10979,47.60411],[10.10924,47.60472],[10.10874,47.60534],[10.10806,47.60615],[10.10774,47.60656],[10.10699,47.60749],[10.10538,47.60949],[10.1048,47.61025],[10.10438,47.61077],[10.10428,47.6109],[10.10414,47.61108],[10.10393,47.61134],[10.10356,47.61172],[10.10343,47.61186],[10.10333,47.61194],[10.1032,47.61205],[10.10301,47.61219],[10.10295,47.61225],[10.10294,47.61226],[10.10269,47.61248],[10.10244,47.61269],[10.10108,47.61383],[10.10086,47.614],[10.09979,47.61485],[10.09964,47.61498],[10.09944,47.61515],[10.09926,47.6153],[10.09911,47.61542],[10.09889,47.6156],[10.09826,47.61609],[10.09768,47.61652],[10.09632,47.61749],[10.09603,47.61769],[10.09594,47.61775],[10.0957,47.61794],[10.09538,47.6182],[10.09512,47.61843],[10.095,47.61854],[10.09449,47.61899],[10.09356,47.61961],[10.09331,47.61986],[10.09298,47.62042],[10.09275,47.62074],[10.09257,47.62089],[10.09232,47.62103],[10.09218,47.62109],[10.09204,47.62114],[10.09164,47.62122],[10.09129,47.6213],[10.09083,47.6214],[10.08919,47.62174],[10.08844,47.62191],[10.08775,47.62209],[10.08732,47.62222],[10.08705,47.6223],[10.08676,47.62241],[10.08646,47.62254],[10.08589,47.62282],[10.08535,47.62313],[10.08508,47.62331],[10.08463,47.62361],[10.08453,47.62368],[10.08403,47.62403],[10.08378,47.62421],[10.0836,47.62433],[10.08354,47.62437],[10.08267,47.62499],[10.08188,47.62551],[10.08149,47.62577],[10.08107,47.62609],[10.08086,47.62632],[10.08066,47.62662],[10.08007,47.6277],[10.08003,47.62785],[10.07992,47.62807],[10.07989,47.62812],[10.08035,47.62838],[10.0809,47.62872],[10.08121,47.62885],[10.08159,47.62892],[10.08191,47.62896],[10.08202,47.629],[10.08207,47.62901],[10.08213,47.62903],[10.08231,47.62915],[10.08246,47.62934],[10.08332,47.63006],[10.08348,47.63018],[10.08357,47.63021],[10.08366,47.63024],[10.08383,47.63028],[10.08407,47.63033],[10.08446,47.63043],[10.08463,47.63049],[10.08475,47.63055],[10.08485,47.63064],[10.08487,47.63068],[10.08499,47.63088],[10.08527,47.63136],[10.08537,47.63151],[10.08552,47.63166],[10.08637,47.63246],[10.08665,47.6327],[10.08705,47.63305],[10.08747,47.6333],[10.08767,47.63342],[10.08771,47.63345],[10.08794,47.63364],[10.08805,47.63372],[10.08852,47.63413],[10.08873,47.63431],[10.08897,47.63449],[10.08919,47.63463],[10.0894,47.63476],[10.08975,47.63495],[10.09,47.63508],[10.09045,47.63526],[10.09082,47.63542],[10.09099,47.63549],[10.09159,47.63572],[10.0916,47.63572],[10.09174,47.63577],[10.09182,47.63583],[10.09184,47.63584],[10.09191,47.63589],[10.09202,47.636],[10.09209,47.63609],[10.09215,47.63629],[10.09216,47.63643],[10.09206,47.6375],[10.09205,47.63764],[10.09206,47.63776],[10.09208,47.63782],[10.09217,47.63794],[10.09234,47.63818],[10.09242,47.63842],[10.09258,47.63903],[10.09269,47.63932],[10.09274,47.63951],[10.09293,47.64019],[10.09295,47.64038],[10.09293,47.6405],[10.09282,47.64075],[10.09281,47.64086],[10.09281,47.64089],[10.09285,47.64097],[10.0929,47.64104],[10.09296,47.6411],[10.09329,47.64103],[10.09374,47.64099],[10.09399,47.64095],[10.09447,47.64088],[10.09481,47.64087],[10.09551,47.64085],[10.09636,47.64087],[10.09678,47.64088],[10.0971,47.64089],[10.09748,47.64091],[10.09759,47.64091],[10.09801,47.64098],[10.09821,47.64103],[10.09853,47.64114],[10.09882,47.64125],[10.09904,47.64132],[10.09927,47.64139],[10.09952,47.64144],[10.09983,47.64149],[10.10007,47.64152],[10.10027,47.64153],[10.10052,47.64154],[10.10078,47.64153],[10.10108,47.64151],[10.10151,47.64146],[10.10232,47.64137],[10.10292,47.6413],[10.1033,47.64127],[10.10352,47.64126],[10.1038,47.64126],[10.1043,47.64129],[10.10476,47.64132],[10.10543,47.64139],[10.10608,47.64145],[10.10651,47.64149],[10.10681,47.64151],[10.10719,47.64151],[10.10744,47.6415],[10.10777,47.64147],[10.10804,47.64144],[10.10831,47.64139],[10.10858,47.64133],[10.10889,47.64125],[10.10918,47.64116],[10.10949,47.64107],[10.10969,47.64101],[10.10994,47.64094],[10.11017,47.64089],[10.11038,47.64087],[10.11067,47.64084],[10.11102,47.64081],[10.11137,47.64081],[10.11183,47.64082],[10.11221,47.64086],[10.11253,47.6409],[10.11287,47.64096],[10.113,47.64098],[10.11408,47.64117],[10.11434,47.64122],[10.11492,47.64133],[10.1151,47.64137],[10.11527,47.6414],[10.11552,47.64148],[10.1159,47.64166],[10.11593,47.64167],[10.11607,47.64174],[10.11627,47.64184],[10.1163,47.64185],[10.11645,47.64191],[10.11671,47.64196],[10.11701,47.64198],[10.11711,47.64198],[10.11723,47.64198],[10.11795,47.64186],[10.11824,47.64183],[10.11859,47.64183],[10.11899,47.64188],[10.1195,47.64198],[10.1198,47.64202],[10.11989,47.64203],[10.12023,47.64205],[10.12043,47.64205],[10.12074,47.64202],[10.12092,47.64199],[10.12124,47.64191],[10.12129,47.64196],[10.12143,47.64201],[10.12161,47.64202],[10.12208,47.64208],[10.1224,47.64215],[10.1228,47.64221],[10.12414,47.64225],[10.12429,47.64227],[10.12434,47.64232],[10.12441,47.64247],[10.12453,47.64252],[10.12463,47.64254],[10.1249,47.64255],[10.12509,47.64257],[10.12513,47.64267],[10.12574,47.64234],[10.1258,47.64232],[10.12597,47.64225],[10.12619,47.64238],[10.1264,47.64254],[10.12651,47.64266],[10.12678,47.6432],[10.12687,47.64334],[10.12698,47.64346],[10.1271,47.64359],[10.12724,47.64373],[10.1274,47.6439],[10.12752,47.64407],[10.12767,47.64438],[10.12782,47.64474],[10.12803,47.64531],[10.12811,47.64555],[10.12813,47.64562],[10.12814,47.64568],[10.12814,47.64577],[10.12812,47.64585],[10.12804,47.64606],[10.12799,47.64613],[10.12795,47.64619],[10.12788,47.64623],[10.12779,47.64626],[10.1277,47.64629],[10.12762,47.6463],[10.12752,47.64629],[10.12734,47.64626],[10.12722,47.64625],[10.12714,47.64626],[10.12708,47.64626],[10.127,47.64628],[10.1269,47.64632],[10.12684,47.64636],[10.1268,47.64641],[10.12671,47.64664],[10.12666,47.64675],[10.12647,47.64675],[10.12613,47.64665],[10.12538,47.64647],[10.1252,47.64645],[10.12472,47.64736],[10.12463,47.64745],[10.12449,47.64752],[10.12434,47.64754],[10.12416,47.64756],[10.12408,47.64758],[10.12402,47.64767],[10.12396,47.64772],[10.12391,47.64774],[10.12385,47.64775],[10.12372,47.64774],[10.12347,47.64774],[10.12341,47.64775],[10.12317,47.64784],[10.12302,47.64795],[10.12297,47.64799]],"type":"LineString"},"properties":{"quelle":"OSRM router.project-osrm.org, Profil driving","von":[47.559,10.217],"nach":[47.64811,10.12314],"distanz_m":21090.9,"dauer_s":1614.5,"punkte":755}}
