{"type":"Feature","geometry":{"coordinates":[[10.37266,47.5091],[10.37266,47.5091],[10.37259,47.50902],[10.37251,47.50888],[10.37251,47.50884],[10.37251,47.50879],[10.37264,47.50872],[10.37273,47.50865],[10.37308,47.50844],[10.37312,47.50831],[10.37309,47.50809],[10.37301,47.50779],[10.37291,47.50764],[10.37279,47.50735],[10.37278,47.50733],[10.37285,47.50725],[10.37284,47.50716],[10.3728,47.5071],[10.37272,47.50696],[10.3725,47.50698],[10.37244,47.50696],[10.3724,47.50693],[10.37237,47.50686],[10.37237,47.50679],[10.37247,47.50664],[10.37251,47.50655],[10.37258,47.50641],[10.37261,47.50638],[10.37265,47.50636],[10.37272,47.50636],[10.3729,47.50629],[10.373,47.50623],[10.37307,47.50619],[10.37311,47.50616],[10.37312,47.50581],[10.37313,47.50541],[10.37314,47.50536],[10.37316,47.50502],[10.37301,47.50498],[10.37286,47.50493],[10.37224,47.50477],[10.37199,47.50471],[10.37127,47.50458],[10.37091,47.50453],[10.37061,47.50451],[10.37027,47.50449],[10.36972,47.50447],[10.36911,47.50447],[10.36835,47.50448],[10.36728,47.5045],[10.36701,47.5045],[10.36686,47.5045],[10.36643,47.50451],[10.36613,47.50451],[10.36557,47.5045],[10.36501,47.50449],[10.36453,47.50447],[10.36333,47.50437],[10.36249,47.50427],[10.36219,47.50424],[10.36195,47.50421],[10.36159,47.50416],[10.36106,47.50409],[10.36062,47.50402],[10.36046,47.504],[10.36036,47.50397],[10.36022,47.50397],[10.36014,47.50397],[10.36011,47.50398],[10.36004,47.50403],[10.35996,47.50405],[10.35988,47.50406],[10.35982,47.50405],[10.35977,47.50403],[10.35973,47.504],[10.35968,47.50395],[10.35967,47.50393],[10.35945,47.50386],[10.35924,47.50384],[10.35821,47.5037],[10.358,47.50367],[10.35548,47.50337],[10.35423,47.50326],[10.35296,47.50317],[10.35223,47.50313],[10.35132,47.5031],[10.35106,47.50309],[10.35097,47.50309],[10.35087,47.50308],[10.34912,47.50303],[10.34758,47.50301],[10.34573,47.50301],[10.34492,47.50303],[10.34438,47.50304],[10.34376,47.50308],[10.34334,47.5031],[10.34247,47.50316],[10.34149,47.50324],[10.34053,47.50336],[10.34001,47.50344],[10.33991,47.50345],[10.33962,47.5035],[10.33943,47.50353],[10.33908,47.50359],[10.33886,47.50363],[10.33866,47.50366],[10.33849,47.50368],[10.33743,47.50386],[10.33637,47.50404],[10.33497,47.50425],[10.3337,47.50444],[10.33299,47.50453],[10.33221,47.50465],[10.33121,47.50473],[10.33048,47.50474],[10.3298,47.50469],[10.32929,47.50462],[10.32805,47.50437],[10.32789,47.50433],[10.32744,47.50425],[10.32642,47.50415],[10.32626,47.50415],[10.3256,47.50414],[10.32538,47.50414],[10.32465,47.50417],[10.32388,47.50423],[10.32199,47.50449],[10.31815,47.50504],[10.31608,47.50526],[10.31497,47.50538],[10.31449,47.50545],[10.31401,47.50555],[10.31366,47.50563],[10.31326,47.50575],[10.31254,47.50601],[10.31241,47.50605],[10.31233,47.50608],[10.31195,47.50625],[10.31177,47.50633],[10.31162,47.50641],[10.3112,47.50661],[10.31099,47.50671],[10.31077,47.50681],[10.31012,47.50709],[10.30962,47.50729],[10.30914,47.50745],[10.3088,47.50756],[10.30733,47.50792],[10.30406,47.50865],[10.30347,47.50879],[10.30294,47.5089],[10.30196,47.5091],[10.29895,47.50978],[10.29831,47.5099],[10.29729,47.51003],[10.2965,47.51011],[10.29597,47.51018],[10.29544,47.5103],[10.29493,47.51047],[10.29443,47.51066],[10.29387,47.51098],[10.29369,47.51112],[10.2936,47.51118],[10.29338,47.51139],[10.29298,47.51187],[10.29211,47.51299],[10.29123,47.51412],[10.29103,47.51432],[10.29008,47.51512],[10.28979,47.51537],[10.28784,47.51708],[10.28758,47.5173],[10.28671,47.51799],[10.28594,47.5185],[10.28514,47.5188],[10.28496,47.51886],[10.28468,47.51893],[10.28237,47.51947],[10.28178,47.5196],[10.28143,47.51967],[10.28138,47.51968],[10.28128,47.5197],[10.28076,47.5198],[10.27917,47.5201],[10.27884,47.52017],[10.27872,47.52019],[10.27808,47.52028],[10.27774,47.52033],[10.27731,47.52038],[10.27669,47.52041],[10.27667,47.52041],[10.27577,47.52043],[10.27548,47.52044],[10.27506,47.52043],[10.27447,47.52042],[10.27416,47.52041],[10.27291,47.52039],[10.2725,47.52038],[10.27218,47.52036],[10.27194,47.52036],[10.27142,47.52035],[10.27104,47.52034],[10.27088,47.52033],[10.27075,47.52036],[10.27056,47.52039],[10.27044,47.52043],[10.27036,47.52046],[10.2703,47.52049],[10.27025,47.52053],[10.27021,47.52058],[10.27018,47.52064],[10.27015,47.52071],[10.27012,47.52077],[10.2701,47.52085],[10.27007,47.52091],[10.27004,47.52096],[10.27001,47.521],[10.26996,47.52103],[10.26991,47.52106],[10.26986,47.52108],[10.26968,47.52111],[10.26959,47.52113],[10.26952,47.52115],[10.26943,47.52117],[10.26936,47.52119],[10.2693,47.52123],[10.26924,47.52127],[10.26919,47.5213],[10.26915,47.52134],[10.26911,47.52141],[10.26906,47.52146],[10.26905,47.52151],[10.26898,47.52156],[10.26887,47.52205],[10.26877,47.52241],[10.26867,47.52275],[10.26855,47.52315],[10.26827,47.52415],[10.26819,47.52444],[10.26793,47.5253],[10.26775,47.52598],[10.26761,47.52647],[10.26727,47.52798],[10.2672,47.52826],[10.26712,47.52867],[10.26695,47.52958],[10.26682,47.5305],[10.26677,47.53106],[10.26673,47.53163],[10.26672,47.53252],[10.26674,47.53324],[10.26678,47.53408],[10.26693,47.53556],[10.26704,47.53646],[10.26717,47.53738],[10.26746,47.53919],[10.26756,47.53985],[10.26765,47.54058],[10.26771,47.54131],[10.26772,47.54169],[10.26772,47.54206],[10.26769,47.54236],[10.26764,47.54273],[10.26757,47.54308],[10.26746,47.54351],[10.26731,47.54391],[10.26713,47.5443],[10.26689,47.54473],[10.26654,47.54525],[10.26613,47.54576],[10.26565,47.54626],[10.26534,47.54654],[10.26509,47.54677],[10.26441,47.5473],[10.2638,47.54774],[10.26309,47.54822],[10.26164,47.54919],[10.26058,47.54987],[10.25791,47.55162],[10.25495,47.55357],[10.25355,47.5545],[10.25183,47.55562],[10.25143,47.55588],[10.25118,47.55605],[10.25034,47.5566],[10.24983,47.55693],[10.24945,47.55719],[10.24886,47.55756],[10.24761,47.55839],[10.2467,47.55899],[10.24561,47.55971],[10.24498,47.56014],[10.24454,47.56046],[10.24399,47.56088],[10.24367,47.56115],[10.24319,47.56157],[10.24279,47.56196],[10.24264,47.56212],[10.24246,47.56231],[10.24208,47.56276],[10.24183,47.56311],[10.24164,47.56342],[10.24146,47.56375],[10.24126,47.56421],[10.24113,47.56461],[10.24105,47.56501],[10.241,47.56527],[10.24098,47.56561],[10.24099,47.56602],[10.24103,47.56637],[10.2411,47.5667],[10.24115,47.56691],[10.24126,47.56721],[10.24137,47.56749],[10.2415,47.56777],[10.24166,47.56806],[10.24172,47.56816],[10.24187,47.56839],[10.24211,47.56871],[10.24242,47.56905],[10.24269,47.56933],[10.24292,47.56953],[10.24314,47.56971],[10.2436,47.57005],[10.24394,47.57028],[10.24433,47.57052],[10.2447,47.57072],[10.24513,47.57093],[10.24577,47.5712],[10.24687,47.57172],[10.24737,47.572],[10.24775,47.57226],[10.24809,47.57252],[10.24856,47.57296],[10.24896,47.57339],[10.2492,47.5737],[10.24943,47.57406],[10.24955,47.57429],[10.24969,47.57465],[10.24979,47.57494],[10.24994,47.57581],[10.24995,47.57604],[10.24996,47.57616],[10.24994,47.57632],[10.24989,47.57686],[10.24981,47.57775],[10.24981,47.57815],[10.24983,47.57853],[10.24989,47.57896],[10.24997,47.57928],[10.25007,47.57959],[10.25023,47.58001],[10.2504,47.58035],[10.25061,47.5807],[10.2508,47.58103],[10.25099,47.58129],[10.25108,47.58141],[10.25139,47.58179],[10.25194,47.58242],[10.25253,47.58305],[10.25336,47.58395],[10.25424,47.58488],[10.2571,47.58796],[10.25845,47.5894],[10.2594,47.59041],[10.26068,47.59178],[10.26163,47.59281],[10.26213,47.59334],[10.26255,47.59379],[10.2629,47.59414],[10.26332,47.59455],[10.26369,47.59488],[10.26411,47.59524],[10.26498,47.59591],[10.26594,47.59655],[10.2673,47.59741],[10.26783,47.59777],[10.2687,47.59843],[10.26911,47.59875],[10.26954,47.59914],[10.27026,47.59984],[10.27072,47.60032],[10.27108,47.60074],[10.27133,47.60105],[10.27156,47.60138],[10.27176,47.60167],[10.27198,47.602],[10.27223,47.60242],[10.27251,47.60298],[10.27282,47.60364],[10.273,47.60408],[10.27315,47.60453],[10.27328,47.60501],[10.27334,47.60534],[10.27347,47.606],[10.27364,47.6073],[10.27364,47.60746],[10.27369,47.60806],[10.27374,47.60849],[10.27381,47.60932],[10.27391,47.6103],[10.27396,47.61082],[10.27405,47.61129],[10.27413,47.61171],[10.27422,47.61207],[10.27446,47.61281],[10.27484,47.61383],[10.27501,47.61427],[10.27526,47.61496],[10.27557,47.6159],[10.27571,47.61645],[10.2758,47.61689],[10.27592,47.61757],[10.27594,47.61771],[10.27599,47.61812],[10.27604,47.6186],[10.27618,47.61985],[10.27631,47.62082],[10.27653,47.62212],[10.27668,47.62273],[10.27688,47.62346],[10.27714,47.62429],[10.2773,47.6247],[10.27754,47.62535],[10.27782,47.62601],[10.27824,47.62686],[10.27843,47.62726],[10.27873,47.62782],[10.2792,47.62862],[10.27957,47.62921],[10.27974,47.62949],[10.28032,47.63043],[10.28102,47.63156],[10.28157,47.63244],[10.28205,47.63318],[10.28226,47.63348],[10.28249,47.63378],[10.28289,47.63423],[10.28323,47.63459],[10.28363,47.63499],[10.28439,47.63567],[10.28538,47.63659],[10.28559,47.63679],[10.2858,47.63702],[10.28598,47.63723],[10.28614,47.63746],[10.2863,47.6377],[10.28642,47.63793],[10.28653,47.63815],[10.28665,47.63843],[10.28673,47.63867],[10.28682,47.63903],[10.28689,47.63939],[10.28701,47.64003],[10.28707,47.64027],[10.28716,47.64059],[10.28731,47.64104],[10.28746,47.64136],[10.28757,47.64159],[10.28774,47.64189],[10.28791,47.64217],[10.28807,47.64239],[10.28852,47.64294],[10.28904,47.64349],[10.28933,47.64375],[10.28978,47.6441],[10.28985,47.64415],[10.29039,47.64455],[10.29114,47.64507],[10.29195,47.6456],[10.29278,47.64616],[10.29359,47.64674],[10.29389,47.64699],[10.29413,47.64719],[10.29438,47.64742],[10.29458,47.64761],[10.29481,47.64785],[10.29482,47.64787],[10.29522,47.64837],[10.2953,47.64848],[10.29551,47.64884],[10.29569,47.64921],[10.29577,47.64942],[10.29587,47.64968],[10.29596,47.65013],[10.29601,47.65065],[10.29597,47.65219],[10.296,47.65273],[10.2961,47.65324],[10.29624,47.65365],[10.29642,47.65405],[10.29675,47.65458],[10.29735,47.6554],[10.29774,47.65596],[10.29791,47.65625],[10.29807,47.65654],[10.2982,47.65685],[10.2984,47.65736],[10.29854,47.65787],[10.29861,47.65822],[10.29866,47.65857],[10.29868,47.65915],[10.29868,47.65973],[10.29867,47.66067],[10.2987,47.66135],[10.29875,47.66172],[10.29891,47.6624],[10.29915,47.66328],[10.29924,47.66378],[10.2993,47.66415],[10.2993,47.66472],[10.29925,47.66521],[10.29913,47.6657],[10.29883,47.66644],[10.29868,47.66679],[10.29842,47.66733],[10.29838,47.66742],[10.29826,47.66775],[10.29819,47.66801],[10.29813,47.66835],[10.2981,47.66873],[10.29811,47.6691],[10.29815,47.66933],[10.29825,47.66963],[10.29846,47.67017],[10.29868,47.67054],[10.29895,47.6709],[10.29926,47.67124],[10.29983,47.67173],[10.30017,47.67201],[10.30056,47.67234],[10.3008,47.67259],[10.301,47.67282],[10.30118,47.67307],[10.30135,47.67337],[10.30146,47.67362],[10.30153,47.67383],[10.30161,47.67409],[10.30166,47.67432],[10.30182,47.67529],[10.30187,47.67544],[10.30193,47.67567],[10.30198,47.67583],[10.3021,47.67609],[10.30222,47.67627],[10.30232,47.67642],[10.30255,47.67671],[10.30274,47.67692],[10.30292,47.67709],[10.30349,47.6776],[10.3037,47.67781],[10.3039,47.67802],[10.30411,47.67829],[10.30426,47.67856],[10.30432,47.67867],[10.30437,47.67879],[10.30441,47.67888],[10.30444,47.67896],[10.30452,47.67921],[10.30457,47.67945],[10.30454,47.67961],[10.30466,47.67997],[10.30473,47.68018],[10.30476,47.68028],[10.30482,47.68046],[10.30488,47.68065],[10.30499,47.68091],[10.30508,47.68113],[10.30514,47.68128],[10.30519,47.68141],[10.30523,47.68149],[10.30527,47.68158],[10.3053,47.68166],[10.3054,47.68192],[10.30546,47.68206],[10.30582,47.68282],[10.30593,47.683],[10.30609,47.68318],[10.30631,47.6834],[10.30652,47.6836],[10.30734,47.68418],[10.30747,47.68427],[10.30768,47.68445],[10.30771,47.68447],[10.30778,47.68454],[10.30786,47.68462],[10.30807,47.68484],[10.30822,47.68503],[10.30841,47.68527],[10.30864,47.68565],[10.30873,47.6858],[10.30898,47.6862],[10.30911,47.68636],[10.30922,47.6865],[10.30924,47.68653],[10.30931,47.68663],[10.30936,47.6867],[10.30942,47.68677],[10.3097,47.68715],[10.30979,47.68727],[10.30984,47.68734],[10.31007,47.68767],[10.31035,47.68818],[10.31058,47.6887],[10.31069,47.68912],[10.31072,47.68935],[10.31071,47.68962],[10.3106,47.69043],[10.31058,47.69091],[10.31059,47.69113],[10.3106,47.69132],[10.31077,47.69194],[10.31089,47.69219],[10.31129,47.69295],[10.31135,47.69305],[10.3114,47.69313],[10.31152,47.69333],[10.31155,47.69338],[10.3121,47.69425],[10.31221,47.69456],[10.31227,47.69502],[10.31228,47.69587],[10.31229,47.69602],[10.31231,47.69618],[10.31234,47.69634],[10.31239,47.69647],[10.31245,47.6966],[10.31257,47.69683],[10.31268,47.69704],[10.31279,47.69722],[10.31292,47.69745],[10.31294,47.69751],[10.313,47.69763],[10.31307,47.6978],[10.3131,47.69793],[10.31312,47.69804],[10.31315,47.69826],[10.31315,47.69851],[10.31314,47.69881],[10.31309,47.69923],[10.31298,47.70011],[10.31291,47.70079],[10.31289,47.70112],[10.31288,47.70143],[10.31288,47.70175],[10.31289,47.70196],[10.3129,47.7022],[10.31291,47.70253],[10.31292,47.70267],[10.31292,47.70284],[10.31292,47.70287],[10.31293,47.70318],[10.31291,47.70357],[10.31287,47.70392],[10.31283,47.70417],[10.31281,47.70427],[10.31278,47.70439],[10.31275,47.7045],[10.31259,47.70492],[10.31244,47.70533],[10.31229,47.70588],[10.3121,47.70629],[10.31203,47.70643],[10.31197,47.70656],[10.31189,47.70672],[10.31184,47.70685],[10.31177,47.70712],[10.31174,47.70729],[10.31169,47.70763],[10.3117,47.70799],[10.31172,47.70815],[10.31176,47.7083],[10.31178,47.70834],[10.31192,47.7086],[10.31216,47.70891],[10.31249,47.70927],[10.31271,47.70949],[10.31313,47.70992],[10.31325,47.71004],[10.31344,47.71022],[10.31366,47.71043],[10.31385,47.7106],[10.31405,47.71081],[10.31418,47.71095],[10.31435,47.71117],[10.31446,47.71131],[10.31472,47.7117],[10.31492,47.71211],[10.31508,47.71253],[10.31521,47.71314],[10.31527,47.71375],[10.31526,47.71401],[10.31526,47.71408],[10.31524,47.71417],[10.31519,47.71449],[10.31514,47.71472],[10.31517,47.7148],[10.31518,47.71491],[10.31519,47.71499],[10.31521,47.71504],[10.31525,47.7151],[10.3154,47.71522],[10.31545,47.71528],[10.31592,47.71544],[10.31677,47.71567],[10.31713,47.71574],[10.3172,47.71576],[10.31734,47.71577],[10.31757,47.7158],[10.31778,47.71582],[10.31803,47.71583],[10.31829,47.71583],[10.31863,47.71582],[10.31898,47.71578],[10.31932,47.71572],[10.31964,47.71566],[10.31989,47.71562],[10.32017,47.71556],[10.32035,47.71552],[10.32039,47.71563],[10.32041,47.71569],[10.32041,47.71574],[10.32039,47.71592],[10.32029,47.71604],[10.32024,47.71611],[10.32026,47.71625],[10.32026,47.7163],[10.32031,47.71637],[10.32039,47.71642],[10.32052,47.71648],[10.32062,47.71649],[10.32081,47.71651],[10.32104,47.71654],[10.32114,47.71656],[10.32129,47.71658],[10.32139,47.71661],[10.32144,47.71665],[10.32151,47.71672],[10.32154,47.71679],[10.32156,47.7169],[10.32158,47.71727],[10.32157,47.71773],[10.32156,47.71782],[10.32152,47.71808],[10.32142,47.71843],[10.32163,47.71846],[10.3218,47.71848],[10.32204,47.71845],[10.3219,47.71801]],"type":"LineString"},"properties":{"quelle":"OSRM router.project-osrm.org, Profil driving","von":[47.50951,10.37155],"nach":[47.718,10.322],"distanz_m":33908,"dauer_s":1902.7,"punkte":749}}
