{"type":"Feature","geometry":{"coordinates":[[10.3219,47.71801],[10.32204,47.71845],[10.3218,47.71848],[10.32163,47.71846],[10.32142,47.71843],[10.32152,47.71808],[10.32156,47.71782],[10.32157,47.71773],[10.32158,47.71727],[10.32156,47.7169],[10.32154,47.71679],[10.32151,47.71672],[10.32144,47.71665],[10.32139,47.71661],[10.32129,47.71658],[10.32114,47.71656],[10.32104,47.71654],[10.32081,47.71651],[10.32062,47.71649],[10.32052,47.71648],[10.32019,47.71644],[10.32003,47.71638],[10.32013,47.71626],[10.32024,47.71611],[10.32029,47.71604],[10.32039,47.71592],[10.32041,47.71574],[10.32041,47.71569],[10.32039,47.71563],[10.32035,47.71552],[10.32056,47.71548],[10.3208,47.71543],[10.32095,47.7154],[10.32147,47.7153],[10.32271,47.71513],[10.32308,47.71513],[10.32344,47.71517],[10.32354,47.71519],[10.32375,47.71523],[10.324,47.71528],[10.3242,47.71527],[10.3244,47.71527],[10.3256,47.71541],[10.32571,47.71541],[10.32577,47.71539],[10.32585,47.71536],[10.32592,47.71513],[10.32594,47.71507],[10.32595,47.71502],[10.32594,47.71492],[10.32593,47.71481],[10.32592,47.71473],[10.32592,47.71462],[10.32595,47.71434],[10.32597,47.71419],[10.32599,47.71407],[10.326,47.71382],[10.32572,47.71297],[10.32569,47.71289],[10.32574,47.71284],[10.32579,47.7128],[10.32587,47.71273],[10.32596,47.71269],[10.32609,47.71267],[10.32631,47.71269],[10.32652,47.71271],[10.32741,47.71282],[10.32783,47.71287],[10.32803,47.7129],[10.32818,47.71293],[10.32836,47.71294],[10.32843,47.71293],[10.32859,47.71288],[10.32876,47.7128],[10.32884,47.71261],[10.32892,47.71238],[10.3291,47.71167],[10.32912,47.71161],[10.32915,47.71153],[10.32919,47.71144],[10.32922,47.71139],[10.32932,47.71124],[10.32939,47.71115],[10.32949,47.71102],[10.32955,47.71097],[10.32985,47.71065],[10.32999,47.7105],[10.33008,47.71041],[10.33014,47.71034],[10.3302,47.71028],[10.33031,47.71017],[10.33042,47.71005],[10.33055,47.70991],[10.33062,47.70985],[10.33084,47.70965],[10.33106,47.70948],[10.3312,47.70938],[10.33146,47.70924],[10.33159,47.70918],[10.33168,47.70914],[10.33207,47.70895],[10.33268,47.70871],[10.33431,47.70801],[10.33435,47.70798],[10.33454,47.70788],[10.3346,47.70784],[10.33498,47.70757],[10.335,47.70755],[10.33516,47.7074],[10.33543,47.70711],[10.33566,47.70682],[10.3361,47.706],[10.33635,47.70552],[10.33643,47.70539],[10.33656,47.70523],[10.3366,47.70515],[10.33655,47.70513],[10.33652,47.70511],[10.33649,47.70506],[10.33648,47.70503],[10.33648,47.70499],[10.3365,47.70495],[10.33654,47.70491],[10.33657,47.70489],[10.33662,47.70487],[10.3367,47.70485],[10.33678,47.70486],[10.33682,47.70487],[10.33684,47.70488],[10.33689,47.70481],[10.33694,47.70476],[10.33724,47.70441],[10.33732,47.70434],[10.33749,47.70422],[10.33854,47.70337],[10.3391,47.70288],[10.33927,47.70267],[10.33982,47.70196],[10.34022,47.70144],[10.34053,47.70103],[10.34065,47.70086],[10.34072,47.70079],[10.34098,47.70043],[10.34106,47.70033],[10.34108,47.7003],[10.34117,47.70016],[10.34153,47.69955],[10.34167,47.69931],[10.34183,47.69907],[10.34189,47.69897],[10.34201,47.69881],[10.34214,47.69865],[10.3423,47.69844],[10.34239,47.69833],[10.34247,47.69825],[10.34254,47.6982],[10.34263,47.69816],[10.34275,47.69814],[10.34286,47.69812],[10.34304,47.69812],[10.34332,47.69814],[10.34351,47.69813],[10.34364,47.69811],[10.34377,47.69809],[10.34389,47.69804],[10.34409,47.69794],[10.34426,47.69782],[10.34448,47.69764],[10.34466,47.69744],[10.3448,47.6973],[10.3451,47.69702],[10.34513,47.69699],[10.34524,47.69689],[10.34531,47.69683],[10.3455,47.69672],[10.34568,47.69665],[10.34612,47.69649],[10.34659,47.69623],[10.34695,47.69599],[10.34709,47.69592],[10.34719,47.69587],[10.34741,47.69577],[10.34779,47.69559],[10.34809,47.69544],[10.34844,47.69525],[10.34857,47.69517],[10.34876,47.69503],[10.34893,47.69488],[10.34898,47.69483],[10.34908,47.69473],[10.34917,47.69462],[10.34926,47.69447],[10.34928,47.69444],[10.34933,47.69429],[10.34939,47.69412],[10.34945,47.69372],[10.34952,47.69348],[10.34963,47.69326],[10.34978,47.69302],[10.35008,47.69267],[10.35014,47.69256],[10.35018,47.69242],[10.3502,47.69226],[10.3502,47.69214],[10.3502,47.69196],[10.35027,47.69175],[10.35036,47.69161],[10.35069,47.69133],[10.3509,47.69111],[10.35103,47.69088],[10.35113,47.6907],[10.35125,47.69055],[10.35136,47.69045],[10.35156,47.69029],[10.35177,47.69009],[10.35209,47.68973],[10.35238,47.6894],[10.35267,47.68896],[10.35291,47.6885],[10.3531,47.68807],[10.35328,47.68765],[10.35336,47.6874],[10.35358,47.68652],[10.35367,47.68603],[10.35373,47.68536],[10.35372,47.68471],[10.35368,47.68428],[10.35365,47.68393],[10.35359,47.68345],[10.35348,47.68283],[10.35347,47.68271],[10.35349,47.68257],[10.35357,47.68239],[10.35364,47.6823],[10.35373,47.68222],[10.35394,47.6821],[10.35424,47.68195],[10.35434,47.6819],[10.35452,47.68181],[10.35428,47.68115],[10.35424,47.68099],[10.35426,47.68082],[10.35434,47.68052],[10.35475,47.67884],[10.35478,47.67829],[10.35473,47.67794],[10.35449,47.67727],[10.3544,47.67709],[10.35417,47.67668],[10.35394,47.67624],[10.3539,47.67608],[10.3539,47.6759],[10.35393,47.67564],[10.35401,47.67538],[10.35403,47.67522],[10.354,47.67495],[10.3539,47.67466],[10.35373,47.67437],[10.35348,47.67406],[10.35304,47.67356],[10.35243,47.67217],[10.35235,47.6719],[10.35229,47.67168],[10.35226,47.67158],[10.35204,47.67088],[10.35192,47.67046],[10.35186,47.67027],[10.35176,47.67014],[10.35136,47.66974],[10.35092,47.6693],[10.35078,47.66909],[10.35072,47.66885],[10.3507,47.66843],[10.3507,47.66836],[10.35077,47.6681],[10.35077,47.66796],[10.35076,47.66787],[10.35073,47.66775],[10.35069,47.66768],[10.35054,47.66734],[10.35036,47.66695],[10.35012,47.66651],[10.35003,47.66634],[10.3498,47.66598],[10.34961,47.66564],[10.34957,47.66557],[10.34956,47.66526],[10.34958,47.66516],[10.34965,47.66502],[10.34972,47.66491],[10.34984,47.66479],[10.35002,47.66463],[10.35046,47.66433],[10.35076,47.66412],[10.35089,47.66405],[10.3508,47.66372],[10.35078,47.66367],[10.35065,47.6632],[10.35044,47.66258],[10.35016,47.66212],[10.35003,47.66187],[10.34999,47.66179],[10.34989,47.66159],[10.34976,47.66135],[10.34974,47.66128],[10.34974,47.66122],[10.34976,47.66118],[10.34977,47.66111],[10.34975,47.66106],[10.34971,47.66096],[10.3497,47.6609],[10.34976,47.66088],[10.3498,47.66086],[10.34999,47.66062],[10.3501,47.66054],[10.35025,47.6604],[10.35029,47.66034],[10.35034,47.66027],[10.35038,47.66017],[10.35039,47.66014],[10.35041,47.66003],[10.35042,47.65999],[10.35041,47.65995],[10.35039,47.6599],[10.35036,47.65986],[10.35028,47.65979],[10.35019,47.65973],[10.35007,47.65966],[10.34977,47.6595],[10.34968,47.65943],[10.34962,47.65938],[10.34952,47.65925],[10.34947,47.65913],[10.34946,47.65908],[10.34944,47.65897],[10.34944,47.65888],[10.34945,47.65881],[10.34948,47.65866],[10.34951,47.65851],[10.34952,47.65838],[10.34949,47.65823],[10.34941,47.65803],[10.34915,47.65726],[10.34913,47.65718],[10.34908,47.65703],[10.34904,47.65676],[10.34902,47.65666],[10.349,47.65655],[10.34898,47.65641],[10.34897,47.65632],[10.34891,47.65608],[10.34889,47.65603],[10.34885,47.65592],[10.34875,47.65576],[10.34866,47.65563],[10.34842,47.65535],[10.34821,47.65509],[10.34814,47.65498],[10.34809,47.65485],[10.34806,47.6547],[10.34807,47.65454],[10.34808,47.65442],[10.34811,47.65431],[10.34815,47.65424],[10.34823,47.65411],[10.34841,47.65389],[10.34855,47.65375],[10.34877,47.65364],[10.34957,47.65331],[10.34973,47.65322],[10.34987,47.65311],[10.35001,47.65298],[10.35009,47.65284],[10.35013,47.65272],[10.35012,47.65252],[10.3501,47.65238],[10.35008,47.6523],[10.34991,47.65194],[10.34971,47.65152],[10.349,47.65013],[10.34896,47.65],[10.34894,47.64989],[10.34897,47.64977],[10.34904,47.64968],[10.34914,47.6496],[10.34928,47.64954],[10.34942,47.64952],[10.34961,47.64954],[10.34974,47.64957],[10.34998,47.64972],[10.35049,47.65005],[10.35081,47.65023],[10.35104,47.65032],[10.35128,47.65039],[10.35163,47.65044],[10.35199,47.65048],[10.35229,47.65054],[10.35258,47.65065],[10.35275,47.65074],[10.35288,47.65082],[10.35306,47.65099],[10.35318,47.65113],[10.3532,47.65116],[10.35331,47.65133],[10.35336,47.6514],[10.35344,47.6515],[10.3535,47.65157],[10.35356,47.65163],[10.3536,47.65167],[10.35366,47.65169],[10.35373,47.65171],[10.3538,47.65172],[10.35388,47.65172],[10.35398,47.65171],[10.35405,47.65169],[10.35412,47.65165],[10.35418,47.65161],[10.35422,47.65156],[10.35424,47.65151],[10.35425,47.65143],[10.35423,47.65133],[10.35412,47.65085],[10.35401,47.6503],[10.35392,47.64985],[10.35388,47.64932],[10.35387,47.649],[10.35382,47.64879],[10.35373,47.64857],[10.35366,47.6484],[10.35361,47.64831],[10.35314,47.6473],[10.35263,47.64625],[10.35254,47.64603],[10.35246,47.64572],[10.3524,47.64532],[10.35243,47.64486],[10.35259,47.6442],[10.35275,47.6436],[10.35279,47.64351],[10.35285,47.64342],[10.35295,47.6433],[10.35308,47.6432],[10.35325,47.6431],[10.35339,47.64303],[10.35356,47.64297],[10.35368,47.64296],[10.35398,47.64294],[10.35522,47.64287],[10.35547,47.64285],[10.35582,47.64282],[10.35607,47.64277],[10.35629,47.6427],[10.35645,47.64259],[10.35652,47.64253],[10.35658,47.64246],[10.35663,47.64229],[10.35662,47.64216],[10.35661,47.64203],[10.35617,47.64053],[10.35608,47.6403],[10.35595,47.64005],[10.35581,47.63986],[10.35567,47.63971],[10.35487,47.63899],[10.35478,47.6389],[10.35472,47.63882],[10.35469,47.63872],[10.35469,47.63865],[10.35471,47.63851],[10.35475,47.63838],[10.35506,47.6379],[10.35535,47.63748],[10.35545,47.63729],[10.35553,47.6371],[10.35555,47.6369],[10.35553,47.63676],[10.35541,47.63575],[10.35537,47.63538],[10.35537,47.63525],[10.35538,47.63517],[10.35542,47.63507],[10.35567,47.63446],[10.35571,47.63431],[10.35571,47.63421],[10.35569,47.634],[10.35557,47.63356],[10.35556,47.63343],[10.35557,47.63329],[10.35572,47.63287],[10.35598,47.63236],[10.35614,47.63207],[10.35633,47.63174],[10.35642,47.63158],[10.3565,47.63149],[10.35667,47.63137],[10.35683,47.63133],[10.35702,47.63132],[10.35758,47.63134],[10.35811,47.63136],[10.35823,47.63135],[10.35831,47.63133],[10.35839,47.63129],[10.35847,47.63124],[10.35852,47.63118],[10.35854,47.6311],[10.35851,47.63101],[10.35843,47.63091],[10.35831,47.63081],[10.35803,47.63065],[10.35768,47.63041],[10.35744,47.63023],[10.35713,47.62997],[10.35686,47.62974],[10.35657,47.62945],[10.35606,47.62886],[10.35586,47.62859],[10.35573,47.62841],[10.35567,47.62825],[10.35565,47.62814],[10.35565,47.62802],[10.35568,47.62785],[10.35573,47.62773],[10.3558,47.62754],[10.3559,47.62727],[10.35597,47.62708],[10.35614,47.62666],[10.35627,47.62633],[10.35632,47.6261],[10.35635,47.62588],[10.35633,47.62566],[10.35632,47.62543],[10.35626,47.62522],[10.35616,47.62494],[10.35607,47.62478],[10.35592,47.62455],[10.35577,47.62435],[10.35541,47.62398],[10.35513,47.62368],[10.355,47.62351],[10.35492,47.62339],[10.35481,47.62325],[10.35468,47.62294],[10.35461,47.62273],[10.35451,47.62228],[10.35445,47.62202],[10.35437,47.62182],[10.35418,47.62154],[10.35398,47.6213],[10.35381,47.62116],[10.35354,47.62097],[10.35322,47.6208],[10.35275,47.62055],[10.35242,47.62035],[10.35213,47.62011],[10.35198,47.61994],[10.35152,47.61948],[10.35131,47.61934],[10.35112,47.61922],[10.35082,47.61907],[10.3505,47.61897],[10.35007,47.61886],[10.34969,47.61877],[10.34928,47.61869],[10.34893,47.61856],[10.34857,47.61839],[10.34828,47.61824],[10.34795,47.6181],[10.34765,47.61801],[10.34748,47.61797],[10.34729,47.61794],[10.34686,47.6179],[10.34644,47.61786],[10.34601,47.61782],[10.34558,47.6177],[10.34511,47.61749],[10.34472,47.61727],[10.34435,47.61709],[10.34399,47.61699],[10.3436,47.61692],[10.34321,47.61688],[10.34279,47.61683],[10.34247,47.61673],[10.34217,47.61662],[10.34192,47.6165],[10.34178,47.61644],[10.34151,47.61635],[10.34126,47.61629],[10.3409,47.61622],[10.34054,47.61612],[10.34045,47.61609],[10.3403,47.61602],[10.34009,47.61588],[10.33985,47.61565],[10.33963,47.61542],[10.3393,47.61518],[10.33896,47.61494],[10.33857,47.61467],[10.33836,47.61453],[10.3383,47.61449],[10.33821,47.61444],[10.33809,47.61441],[10.33774,47.61435],[10.33726,47.61427],[10.33723,47.61426],[10.33713,47.61424],[10.33694,47.61421],[10.3368,47.61417],[10.33672,47.61413],[10.33665,47.61406],[10.33659,47.61395],[10.33652,47.6138],[10.33645,47.61361],[10.33636,47.61342],[10.33631,47.6133],[10.33625,47.61313],[10.33617,47.61299],[10.33611,47.6129],[10.33604,47.61277],[10.33598,47.61268],[10.33585,47.61256],[10.33575,47.61249],[10.33562,47.61242],[10.33559,47.6124],[10.3355,47.61236],[10.33535,47.61229],[10.33525,47.61225],[10.33518,47.61221],[10.33511,47.61209],[10.33507,47.61196],[10.33504,47.61177],[10.33502,47.61163],[10.33501,47.61141],[10.33501,47.61129],[10.335,47.61116],[10.33496,47.61102],[10.33487,47.61091],[10.3348,47.61081],[10.33465,47.61069],[10.33452,47.61058],[10.33438,47.61048],[10.33433,47.61045],[10.33426,47.6104],[10.33404,47.61023],[10.33392,47.6101],[10.33385,47.60998],[10.33384,47.60989],[10.33382,47.60978],[10.33383,47.60958],[10.33383,47.60955],[10.33383,47.60947],[10.33381,47.60938],[10.33376,47.60932],[10.33362,47.6092],[10.33347,47.60905],[10.33335,47.60888],[10.33323,47.60875],[10.33311,47.60867],[10.33302,47.60862],[10.33284,47.60857],[10.33254,47.60848],[10.33246,47.60844],[10.33241,47.60838],[10.33238,47.60832],[10.33238,47.60818],[10.33243,47.60807],[10.33251,47.60792],[10.33271,47.60758],[10.33276,47.60744],[10.33277,47.60731],[10.33274,47.6072],[10.33266,47.60711],[10.33249,47.60699],[10.33232,47.60692],[10.33218,47.60688],[10.33191,47.60682],[10.33154,47.60672],[10.33134,47.60662],[10.33103,47.60642],[10.33054,47.60604],[10.33031,47.60592],[10.33006,47.60583],[10.32969,47.60571],[10.32952,47.60566],[10.32933,47.60558],[10.32911,47.60547],[10.32873,47.60526],[10.32837,47.60514],[10.32793,47.60505],[10.32764,47.60501],[10.32747,47.60497],[10.32719,47.6049],[10.32698,47.60483],[10.3267,47.6047],[10.32651,47.60458],[10.32637,47.60448],[10.32621,47.60434],[10.32609,47.6042],[10.32587,47.60392],[10.32568,47.60363],[10.32546,47.60338],[10.32539,47.60331],[10.3251,47.60306],[10.32488,47.60287],[10.32465,47.60264],[10.32448,47.60238],[10.32428,47.60206],[10.32414,47.60181],[10.32395,47.60157],[10.32381,47.60143],[10.32375,47.60136],[10.32355,47.60121],[10.32337,47.60101],[10.32329,47.60088],[10.32325,47.6007],[10.32318,47.6006],[10.32304,47.60052],[10.32278,47.60041],[10.32258,47.6003],[10.32243,47.60019],[10.32223,47.60001],[10.32221,47.59999],[10.32203,47.59987],[10.32176,47.5997],[10.32156,47.59959],[10.32136,47.59945],[10.32132,47.59941],[10.32126,47.59933],[10.32116,47.59917],[10.32108,47.59903],[10.32098,47.59883],[10.32091,47.59869],[10.32081,47.59855],[10.3207,47.59841],[10.32057,47.59828],[10.32043,47.59817],[10.32009,47.59791],[10.31993,47.59778],[10.31987,47.59773],[10.31977,47.59764],[10.31967,47.5975],[10.31964,47.59739],[10.31964,47.59727],[10.31966,47.59715],[10.31971,47.59704],[10.31979,47.59692],[10.31986,47.59682],[10.31998,47.59662],[10.32015,47.59638],[10.32042,47.59595],[10.32053,47.59578],[10.32059,47.59564],[10.32061,47.59554],[10.32059,47.59517],[10.32062,47.595],[10.32066,47.5948],[10.32071,47.59463],[10.32074,47.59455],[10.3208,47.59445],[10.32083,47.59442],[10.32101,47.59414],[10.32109,47.59401],[10.3212,47.59367],[10.32147,47.59292],[10.32165,47.59252],[10.32196,47.59195],[10.32215,47.59162],[10.32277,47.59087],[10.32286,47.59076],[10.32328,47.59012],[10.32347,47.58984],[10.32362,47.58965],[10.32381,47.58941],[10.32388,47.58929],[10.32393,47.58911],[10.32401,47.58871],[10.32413,47.58819],[10.3242,47.58775],[10.32424,47.58755],[10.32445,47.58692],[10.32453,47.58674],[10.32461,47.58653],[10.32472,47.58627],[10.32483,47.58605],[10.32492,47.58588],[10.32497,47.58576],[10.32495,47.58571],[10.32492,47.58567],[10.32458,47.58535],[10.32453,47.5853],[10.3245,47.58528],[10.32442,47.58521],[10.32455,47.58516],[10.32463,47.58511],[10.32465,47.58501],[10.32465,47.58493],[10.32471,47.58489],[10.32477,47.58485],[10.32482,47.58478],[10.32488,47.58473],[10.32527,47.58442],[10.3257,47.58407],[10.32616,47.58382],[10.32641,47.58377],[10.3267,47.58373],[10.32704,47.58361],[10.32747,47.58338],[10.32775,47.58311],[10.32775,47.58305],[10.32773,47.58302]],"type":"LineString"},"properties":{"quelle":"OSRM router.project-osrm.org, Profil driving","von":[47.718,10.322],"nach":[47.582,10.33],"distanz_m":19717.7,"dauer_s":1415.9,"punkte":809}}
