{
 "type": "Feature",
 "geometry": {
  "coordinates": [
   [
    9.987565,
    48.401166
   ],
   [
    9.987424,
    48.401134
   ],
   [
    9.987339,
    48.401117
   ],
   [
    9.987285,
    48.401106
   ],
   [
    9.987201,
    48.40109
   ],
   [
    9.987024,
    48.401045
   ],
   [
    9.986971,
    48.401031
   ],
   [
    9.986924,
    48.401019
   ],
   [
    9.985923,
    48.400745
   ],
   [
    9.985875,
    48.40073
   ],
   [
    9.985824,
    48.400712
   ],
   [
    9.985775,
    48.400693
   ],
   [
    9.985576,
    48.400612
   ],
   [
    9.985482,
    48.400572
   ],
   [
    9.985395,
    48.400538
   ],
   [
    9.984581,
    48.400238
   ],
   [
    9.984438,
    48.400185
   ],
   [
    9.98435,
    48.400152
   ],
   [
    9.984308,
    48.400133
   ],
   [
    9.984274,
    48.400117
   ],
   [
    9.984237,
    48.400096
   ],
   [
    9.984202,
    48.400075
   ],
   [
    9.984179,
    48.40006
   ],
   [
    9.984151,
    48.40004
   ],
   [
    9.98412,
    48.400014
   ],
   [
    9.984106,
    48.4
   ],
   [
    9.984091,
    48.399986
   ],
   [
    9.984069,
    48.399961
   ],
   [
    9.984053,
    48.399944
   ],
   [
    9.984031,
    48.399912
   ],
   [
    9.98401,
    48.399878
   ],
   [
    9.983996,
    48.399844
   ],
   [
    9.983985,
    48.399811
   ],
   [
    9.983976,
    48.399777
   ],
   [
    9.983972,
    48.399739
   ],
   [
    9.98397,
    48.399703
   ],
   [
    9.983969,
    48.399665
   ],
   [
    9.983972,
    48.399605
   ],
   [
    9.984016,
    48.39897
   ],
   [
    9.984048,
    48.398577
   ],
   [
    9.984051,
    48.398543
   ],
   [
    9.984056,
    48.398482
   ],
   [
    9.984086,
    48.398094
   ],
   [
    9.984094,
    48.397998
   ],
   [
    9.984098,
    48.397959
   ],
   [
    9.984105,
    48.397924
   ],
   [
    9.984117,
    48.39788
   ],
   [
    9.984124,
    48.397862
   ],
   [
    9.984135,
    48.397838
   ],
   [
    9.984149,
    48.39781
   ],
   [
    9.984165,
    48.397783
   ],
   [
    9.984178,
    48.397759
   ],
   [
    9.984198,
    48.397731
   ],
   [
    9.984221,
    48.397701
   ],
   [
    9.984253,
    48.397665
   ],
   [
    9.984304,
    48.397606
   ],
   [
    9.984443,
    48.397447
   ],
   [
    9.984531,
    48.397346
   ],
   [
    9.984542,
    48.397333
   ],
   [
    9.984619,
    48.397241
   ],
   [
    9.984687,
    48.397162
   ],
   [
    9.98473,
    48.397113
   ],
   [
    9.984749,
    48.397091
   ],
   [
    9.984791,
    48.39703
   ],
   [
    9.984807,
    48.397003
   ],
   [
    9.984819,
    48.396976
   ],
   [
    9.984831,
    48.396947
   ],
   [
    9.98484,
    48.396916
   ],
   [
    9.984847,
    48.396888
   ],
   [
    9.984851,
    48.396856
   ],
   [
    9.984853,
    48.396825
   ],
   [
    9.984853,
    48.396751
   ],
   [
    9.984838,
    48.396688
   ],
   [
    9.984815,
    48.396637
   ],
   [
    9.984775,
    48.39659
   ],
   [
    9.984711,
    48.396539
   ],
   [
    9.984618,
    48.396481
   ],
   [
    9.984507,
    48.39642
   ],
   [
    9.9844,
    48.396367
   ],
   [
    9.98405,
    48.396239
   ],
   [
    9.983966,
    48.396209
   ],
   [
    9.983187,
    48.39593
   ],
   [
    9.982712,
    48.395758
   ],
   [
    9.982281,
    48.395614
   ],
   [
    9.981904,
    48.395487
   ],
   [
    9.981777,
    48.395437
   ],
   [
    9.98167,
    48.395393
   ],
   [
    9.981624,
    48.395373
   ],
   [
    9.981454,
    48.395304
   ],
   [
    9.981279,
    48.395224
   ],
   [
    9.980977,
    48.395072
   ],
   [
    9.980762,
    48.394958
   ],
   [
    9.980312,
    48.394662
   ],
   [
    9.9801,
    48.394526
   ],
   [
    9.980066,
    48.394504
   ],
   [
    9.979971,
    48.394438
   ],
   [
    9.979924,
    48.394406
   ],
   [
    9.979833,
    48.394338
   ],
   [
    9.980037,
    48.394131
   ],
   [
    9.980078,
    48.394087
   ],
   [
    9.980098,
    48.394056
   ],
   [
    9.980166,
    48.393973
   ],
   [
    9.980257,
    48.393858
   ],
   [
    9.980283,
    48.393825
   ],
   [
    9.980425,
    48.393642
   ],
   [
    9.980508,
    48.393467
   ],
   [
    9.980534,
    48.393375
   ],
   [
    9.98055,
    48.393293
   ],
   [
    9.980556,
    48.393249
   ],
   [
    9.98053,
    48.393046
   ],
   [
    9.980504,
    48.392963
   ],
   [
    9.980531,
    48.392885
   ],
   [
    9.980556,
    48.39283
   ],
   [
    9.980619,
    48.392739
   ],
   [
    9.980683,
    48.392678
   ],
   [
    9.980739,
    48.392639
   ],
   [
    9.980807,
    48.39261
   ],
   [
    9.980895,
    48.392593
   ],
   [
    9.981065,
    48.392581
   ],
   [
    9.981329,
    48.392576
   ],
   [
    9.981604,
    48.392571
   ],
   [
    9.981679,
    48.392571
   ],
   [
    9.981795,
    48.392567
   ],
   [
    9.981852,
    48.392566
   ],
   [
    9.982077,
    48.392554
   ],
   [
    9.982158,
    48.392543
   ],
   [
    9.982249,
    48.392523
   ],
   [
    9.982332,
    48.392487
   ],
   [
    9.982353,
    48.392477
   ],
   [
    9.982435,
    48.392421
   ],
   [
    9.982542,
    48.39233
   ],
   [
    9.982766,
    48.392136
   ],
   [
    9.982846,
    48.392073
   ],
   [
    9.983301,
    48.391693
   ],
   [
    9.983643,
    48.391393
   ],
   [
    9.984251,
    48.390974
   ],
   [
    9.984462,
    48.390917
   ],
   [
    9.984601,
    48.390815
   ],
   [
    9.984883,
    48.390613
   ],
   [
    9.985559,
    48.390165
   ],
   [
    9.98718,
    48.389235
   ],
   [
    9.987496,
    48.389067
   ],
   [
    9.987586,
    48.389015
   ],
   [
    9.990381,
    48.387415
   ],
   [
    9.990942,
    48.387105
   ],
   [
    9.992399,
    48.386242
   ],
   [
    9.99291,
    48.385893
   ],
   [
    9.993227,
    48.385618
   ],
   [
    9.993497,
    48.385359
   ],
   [
    9.993855,
    48.384886
   ],
   [
    9.994043,
    48.384539
   ],
   [
    9.994168,
    48.384204
   ],
   [
    9.994276,
    48.383782
   ],
   [
    9.99429,
    48.383398
   ],
   [
    9.994274,
    48.383218
   ],
   [
    9.99426,
    48.383057
   ],
   [
    9.994243,
    48.382965
   ],
   [
    9.994148,
    48.382595
   ],
   [
    9.994076,
    48.382356
   ],
   [
    9.993921,
    48.381864
   ],
   [
    9.993716,
    48.381331
   ],
   [
    9.993611,
    48.381025
   ],
   [
    9.993511,
    48.380704
   ],
   [
    9.993316,
    48.380198
   ],
   [
    9.993185,
    48.379822
   ],
   [
    9.993056,
    48.379452
   ],
   [
    9.992815,
    48.378819
   ],
   [
    9.992696,
    48.378384
   ],
   [
    9.992666,
    48.378283
   ],
   [
    9.992642,
    48.378166
   ],
   [
    9.992615,
    48.378061
   ],
   [
    9.992537,
    48.377669
   ],
   [
    9.992473,
    48.377031
   ],
   [
    9.992482,
    48.376465
   ],
   [
    9.992502,
    48.376105
   ],
   [
    9.992554,
    48.375734
   ],
   [
    9.992615,
    48.375417
   ],
   [
    9.992721,
    48.375109
   ],
   [
    9.992865,
    48.374717
   ],
   [
    9.992957,
    48.374483
   ],
   [
    9.993073,
    48.374201
   ],
   [
    9.993304,
    48.373727
   ],
   [
    9.993572,
    48.373266
   ],
   [
    9.993879,
    48.372835
   ],
   [
    9.994138,
    48.372494
   ],
   [
    9.994482,
    48.37209
   ],
   [
    9.994861,
    48.371677
   ],
   [
    9.995139,
    48.371388
   ],
   [
    9.996671,
    48.369804
   ],
   [
    9.996797,
    48.369673
   ],
   [
    9.997032,
    48.369431
   ],
   [
    9.999192,
    48.367209
   ],
   [
    9.999716,
    48.366683
   ],
   [
    10.00161,
    48.364738
   ],
   [
    10.003472,
    48.362814
   ],
   [
    10.005317,
    48.360927
   ],
   [
    10.006468,
    48.359749
   ],
   [
    10.012191,
    48.353894
   ],
   [
    10.012431,
    48.353662
   ],
   [
    10.013503,
    48.352565
   ],
   [
    10.016654,
    48.349342
   ],
   [
    10.017379,
    48.348635
   ],
   [
    10.01963,
    48.346536
   ],
   [
    10.021714,
    48.344656
   ],
   [
    10.024263,
    48.34267
   ],
   [
    10.02533,
    48.341868
   ],
   [
    10.026314,
    48.341172
   ],
   [
    10.027831,
    48.340183
   ],
   [
    10.029298,
    48.339285
   ],
   [
    10.031286,
    48.338158
   ],
   [
    10.033082,
    48.337259
   ],
   [
    10.033707,
    48.33696
   ],
   [
    10.03412,
    48.336773
   ],
   [
    10.034932,
    48.336424
   ],
   [
    10.035393,
    48.336224
   ],
   [
    10.035905,
    48.336024
   ],
   [
    10.036695,
    48.335718
   ],
   [
    10.037501,
    48.335419
   ],
   [
    10.039005,
    48.334894
   ],
   [
    10.039861,
    48.334633
   ],
   [
    10.040542,
    48.334431
   ],
   [
    10.042343,
    48.333936
   ],
   [
    10.04284,
    48.333816
   ],
   [
    10.044129,
    48.333508
   ],
   [
    10.045932,
    48.333137
   ],
   [
    10.047612,
    48.332821
   ],
   [
    10.049247,
    48.332541
   ],
   [
    10.049772,
    48.33246
   ],
   [
    10.050887,
    48.332299
   ],
   [
    10.051662,
    48.332203
   ],
   [
    10.052928,
    48.332068
   ],
   [
    10.054369,
    48.331936
   ],
   [
    10.055832,
    48.331815
   ],
   [
    10.057616,
    48.33171
   ],
   [
    10.060387,
    48.331559
   ],
   [
    10.063687,
    48.331406
   ],
   [
    10.065298,
    48.331325
   ],
   [
    10.066972,
    48.33122
   ],
   [
    10.068607,
    48.331094
   ],
   [
    10.070239,
    48.330933
   ],
   [
    10.071803,
    48.330733
   ],
   [
    10.073289,
    48.330521
   ],
   [
    10.074559,
    48.330298
   ],
   [
    10.07583,
    48.330055
   ],
   [
    10.076659,
    48.32987
   ],
   [
    10.078125,
    48.32952
   ],
   [
    10.079398,
    48.329181
   ],
   [
    10.080637,
    48.328822
   ],
   [
    10.081173,
    48.328652
   ],
   [
    10.081791,
    48.328457
   ],
   [
    10.082492,
    48.328216
   ],
   [
    10.083177,
    48.327958
   ],
   [
    10.084346,
    48.327513
   ],
   [
    10.085344,
    48.327105
   ],
   [
    10.08599,
    48.326795
   ],
   [
    10.086317,
    48.326612
   ],
   [
    10.086678,
    48.326399
   ],
   [
    10.087049,
    48.326135
   ],
   [
    10.087309,
    48.32593
   ],
   [
    10.08755,
    48.325705
   ],
   [
    10.087803,
    48.32545
   ],
   [
    10.088052,
    48.32518
   ],
   [
    10.088223,
    48.324946
   ],
   [
    10.088405,
    48.324688
   ],
   [
    10.088617,
    48.324328
   ],
   [
    10.0889,
    48.323722
   ],
   [
    10.089075,
    48.323212
   ],
   [
    10.089142,
    48.322972
   ],
   [
    10.089227,
    48.322665
   ],
   [
    10.089301,
    48.322578
   ],
   [
    10.0895,
    48.321834
   ],
   [
    10.089672,
    48.32125
   ],
   [
    10.089864,
    48.320642
   ],
   [
    10.090142,
    48.319854
   ],
   [
    10.090495,
    48.318976
   ],
   [
    10.090815,
    48.318249
   ],
   [
    10.090918,
    48.318018
   ],
   [
    10.091041,
    48.31776
   ],
   [
    10.09118,
    48.317482
   ],
   [
    10.091382,
    48.317107
   ],
   [
    10.091709,
    48.31654
   ],
   [
    10.091935,
    48.316148
   ],
   [
    10.092356,
    48.31546
   ],
   [
    10.092887,
    48.31466
   ],
   [
    10.09359,
    48.313697
   ],
   [
    10.093837,
    48.313383
   ],
   [
    10.093988,
    48.313194
   ],
   [
    10.094155,
    48.312976
   ],
   [
    10.094505,
    48.312562
   ],
   [
    10.09505,
    48.31193
   ],
   [
    10.095558,
    48.311382
   ],
   [
    10.095682,
    48.311262
   ],
   [
    10.09624,
    48.310671
   ],
   [
    10.097063,
    48.309861
   ],
   [
    10.098224,
    48.308793
   ],
   [
    10.099213,
    48.307901
   ],
   [
    10.100139,
    48.307103
   ],
   [
    10.104505,
    48.30343
   ],
   [
    10.10567,
    48.3024
   ],
   [
    10.106048,
    48.302066
   ],
   [
    10.10657,
    48.301591
   ],
   [
    10.107817,
    48.300406
   ],
   [
    10.108774,
    48.299434
   ],
   [
    10.110061,
    48.297994
   ],
   [
    10.110653,
    48.297278
   ],
   [
    10.111502,
    48.29608
   ],
   [
    10.111636,
    48.295872
   ],
   [
    10.112299,
    48.294792
   ],
   [
    10.112584,
    48.294274
   ],
   [
    10.112986,
    48.293478
   ],
   [
    10.113367,
    48.292651
   ],
   [
    10.113665,
    48.291888
   ],
   [
    10.113966,
    48.291035
   ],
   [
    10.114191,
    48.290244
   ],
   [
    10.114226,
    48.290117
   ],
   [
    10.114475,
    48.28908
   ],
   [
    10.114625,
    48.288102
   ],
   [
    10.114741,
    48.286439
   ],
   [
    10.114745,
    48.285387
   ],
   [
    10.114707,
    48.284711
   ],
   [
    10.114606,
    48.283772
   ],
   [
    10.114311,
    48.281985
   ],
   [
    10.114138,
    48.281202
   ],
   [
    10.113989,
    48.280431
   ],
   [
    10.113715,
    48.27896
   ],
   [
    10.113632,
    48.278436
   ],
   [
    10.113577,
    48.278011
   ],
   [
    10.113491,
    48.277129
   ],
   [
    10.113453,
    48.276541
   ],
   [
    10.113427,
    48.275822
   ],
   [
    10.113451,
    48.274929
   ],
   [
    10.113501,
    48.274258
   ],
   [
    10.11355,
    48.273721
   ],
   [
    10.113643,
    48.273095
   ],
   [
    10.113761,
    48.272384
   ],
   [
    10.113876,
    48.271796
   ],
   [
    10.113922,
    48.271548
   ],
   [
    10.113998,
    48.271167
   ],
   [
    10.114201,
    48.27021
   ],
   [
    10.11437,
    48.269405
   ],
   [
    10.114521,
    48.268642
   ],
   [
    10.114626,
    48.268025
   ],
   [
    10.114713,
    48.267439
   ],
   [
    10.114808,
    48.266443
   ],
   [
    10.114836,
    48.266112
   ],
   [
    10.114851,
    48.265563
   ],
   [
    10.114854,
    48.264661
   ],
   [
    10.114815,
    48.263807
   ],
   [
    10.11481,
    48.263711
   ],
   [
    10.114718,
    48.262954
   ],
   [
    10.114657,
    48.262444
   ],
   [
    10.114582,
    48.261977
   ],
   [
    10.114531,
    48.261672
   ],
   [
    10.114215,
    48.259988
   ],
   [
    10.114059,
    48.259244
   ],
   [
    10.113924,
    48.258584
   ],
   [
    10.113782,
    48.257777
   ],
   [
    10.113662,
    48.256863
   ],
   [
    10.113585,
    48.256039
   ],
   [
    10.113569,
    48.255584
   ],
   [
    10.113566,
    48.254994
   ],
   [
    10.113579,
    48.254567
   ],
   [
    10.113601,
    48.254222
   ],
   [
    10.11362,
    48.253803
   ],
   [
    10.113669,
    48.253476
   ],
   [
    10.113764,
    48.252801
   ],
   [
    10.113849,
    48.252308
   ],
   [
    10.113894,
    48.252103
   ],
   [
    10.114012,
    48.251525
   ],
   [
    10.11415,
    48.251051
   ],
   [
    10.114248,
    48.250676
   ],
   [
    10.114349,
    48.250349
   ],
   [
    10.114541,
    48.24982
   ],
   [
    10.114853,
    48.249016
   ],
   [
    10.11504,
    48.248596
   ],
   [
    10.115249,
    48.248133
   ],
   [
    10.115666,
    48.247318
   ],
   [
    10.116057,
    48.246588
   ],
   [
    10.116448,
    48.245898
   ],
   [
    10.116932,
    48.245068
   ],
   [
    10.117435,
    48.244285
   ],
   [
    10.117739,
    48.243814
   ],
   [
    10.118238,
    48.243035
   ],
   [
    10.118579,
    48.242513
   ],
   [
    10.119096,
    48.24171
   ],
   [
    10.119236,
    48.241501
   ],
   [
    10.120047,
    48.240233
   ],
   [
    10.120476,
    48.23955
   ],
   [
    10.120773,
    48.239062
   ],
   [
    10.121245,
    48.238243
   ],
   [
    10.121539,
    48.23773
   ],
   [
    10.121889,
    48.23704
   ],
   [
    10.122285,
    48.236254
   ],
   [
    10.122896,
    48.23491
   ],
   [
    10.123315,
    48.233903
   ],
   [
    10.123586,
    48.233176
   ],
   [
    10.123777,
    48.232663
   ],
   [
    10.123999,
    48.232011
   ],
   [
    10.124145,
    48.231528
   ],
   [
    10.124665,
    48.229609
   ],
   [
    10.124909,
    48.228477
   ],
   [
    10.125066,
    48.227686
   ],
   [
    10.125223,
    48.226672
   ],
   [
    10.125329,
    48.225829
   ],
   [
    10.1254,
    48.225035
   ],
   [
    10.125456,
    48.224129
   ],
   [
    10.125495,
    48.223229
   ],
   [
    10.125507,
    48.222435
   ],
   [
    10.12549,
    48.22148
   ],
   [
    10.125487,
    48.221231
   ],
   [
    10.125451,
    48.220569
   ],
   [
    10.125411,
    48.220121
   ],
   [
    10.12537,
    48.219609
   ],
   [
    10.125346,
    48.219373
   ],
   [
    10.125156,
    48.21786
   ],
   [
    10.124872,
    48.216183
   ],
   [
    10.124571,
    48.214745
   ],
   [
    10.1232,
    48.208784
   ],
   [
    10.123008,
    48.207882
   ],
   [
    10.122889,
    48.207238
   ],
   [
    10.122784,
    48.206606
   ],
   [
    10.122658,
    48.205862
   ],
   [
    10.122463,
    48.20435
   ],
   [
    10.122432,
    48.204078
   ],
   [
    10.12236,
    48.203138
   ],
   [
    10.122324,
    48.202149
   ],
   [
    10.122322,
    48.20192
   ],
   [
    10.122336,
    48.200864
   ],
   [
    10.122389,
    48.199794
   ],
   [
    10.122564,
    48.198282
   ],
   [
    10.122836,
    48.196774
   ],
   [
    10.122987,
    48.196131
   ],
   [
    10.123223,
    48.19519
   ],
   [
    10.123612,
    48.193813
   ],
   [
    10.12403,
    48.192504
   ],
   [
    10.125008,
    48.189457
   ],
   [
    10.12527,
    48.188618
   ],
   [
    10.12549,
    48.187801
   ],
   [
    10.125721,
    48.186975
   ],
   [
    10.126004,
    48.185884
   ],
   [
    10.126227,
    48.184971
   ],
   [
    10.12688,
    48.182049
   ],
   [
    10.12701,
    48.181449
   ],
   [
    10.127161,
    48.18085
   ],
   [
    10.127515,
    48.17965
   ],
   [
    10.127675,
    48.179161
   ],
   [
    10.128061,
    48.178086
   ],
   [
    10.128323,
    48.177425
   ],
   [
    10.128674,
    48.176646
   ],
   [
    10.129113,
    48.175712
   ],
   [
    10.130387,
    48.173146
   ],
   [
    10.130729,
    48.172421
   ],
   [
    10.131085,
    48.171552
   ],
   [
    10.131258,
    48.171076
   ],
   [
    10.131401,
    48.170649
   ],
   [
    10.131672,
    48.169574
   ],
   [
    10.131845,
    48.168598
   ],
   [
    10.131922,
    48.16769
   ],
   [
    10.131929,
    48.167271
   ],
   [
    10.131888,
    48.166066
   ],
   [
    10.131814,
    48.165406
   ],
   [
    10.131716,
    48.164788
   ],
   [
    10.131363,
    48.163374
   ],
   [
    10.131247,
    48.162988
   ],
   [
    10.130976,
    48.162208
   ],
   [
    10.130768,
    48.161671
   ],
   [
    10.130337,
    48.160677
   ],
   [
    10.130011,
    48.160006
   ],
   [
    10.129692,
    48.159403
   ],
   [
    10.129569,
    48.159183
   ],
   [
    10.12955,
    48.159148
   ],
   [
    10.129267,
    48.158618
   ],
   [
    10.12897,
    48.158121
   ],
   [
    10.128658,
    48.157627
   ],
   [
    10.128175,
    48.156905
   ],
   [
    10.127891,
    48.156513
   ],
   [
    10.127167,
    48.155556
   ],
   [
    10.12671,
    48.155004
   ],
   [
    10.126132,
    48.15434
   ],
   [
    10.125724,
    48.15389
   ],
   [
    10.125081,
    48.153199
   ],
   [
    10.124172,
    48.152309
   ],
   [
    10.123007,
    48.151223
   ],
   [
    10.121609,
    48.149953
   ],
   [
    10.119974,
    48.148494
   ],
   [
    10.11978,
    48.148316
   ],
   [
    10.119466,
    48.14803
   ],
   [
    10.118742,
    48.147378
   ],
   [
    10.117729,
    48.146431
   ],
   [
    10.11651,
    48.145251
   ],
   [
    10.115905,
    48.144576
   ],
   [
    10.115604,
    48.144246
   ],
   [
    10.115265,
    48.143864
   ],
   [
    10.114957,
    48.143472
   ],
   [
    10.114195,
    48.142503
   ],
   [
    10.113854,
    48.142031
   ],
   [
    10.113328,
    48.141264
   ],
   [
    10.112763,
    48.140355
   ],
   [
    10.112293,
    48.139526
   ],
   [
    10.111914,
    48.138773
   ],
   [
    10.11161,
    48.138123
   ],
   [
    10.111276,
    48.137319
   ],
   [
    10.110992,
    48.136565
   ],
   [
    10.110656,
    48.135502
   ],
   [
    10.110507,
    48.13496
   ],
   [
    10.11033,
    48.134132
   ],
   [
    10.110145,
    48.133105
   ],
   [
    10.110008,
    48.132021
   ],
   [
    10.10997,
    48.131479
   ],
   [
    10.109953,
    48.131202
   ],
   [
    10.109938,
    48.130553
   ],
   [
    10.109949,
    48.129861
   ],
   [
    10.10996,
    48.129569
   ],
   [
    10.109977,
    48.12926
   ],
   [
    10.110003,
    48.128859
   ],
   [
    10.110051,
    48.128385
   ],
   [
    10.110107,
    48.127906
   ],
   [
    10.110186,
    48.127361
   ],
   [
    10.11032,
    48.126667
   ],
   [
    10.110384,
    48.126356
   ],
   [
    10.110531,
    48.125736
   ],
   [
    10.110701,
    48.125127
   ],
   [
    10.111054,
    48.124027
   ],
   [
    10.111254,
    48.12353
   ],
   [
    10.111543,
    48.122786
   ],
   [
    10.111829,
    48.122138
   ],
   [
    10.112128,
    48.121527
   ],
   [
    10.112467,
    48.120884
   ],
   [
    10.113033,
    48.11992
   ],
   [
    10.113308,
    48.119479
   ],
   [
    10.113648,
    48.118959
   ],
   [
    10.114046,
    48.118394
   ],
   [
    10.114473,
    48.11782
   ],
   [
    10.114946,
    48.117206
   ],
   [
    10.115402,
    48.116663
   ],
   [
    10.115989,
    48.116002
   ],
   [
    10.11678,
    48.115163
   ],
   [
    10.117758,
    48.114229
   ],
   [
    10.118833,
    48.113265
   ],
   [
    10.119946,
    48.112358
   ],
   [
    10.122097,
    48.11068
   ],
   [
    10.123926,
    48.10928
   ],
   [
    10.124702,
    48.108658
   ],
   [
    10.125763,
    48.107776
   ],
   [
    10.126017,
    48.107547
   ],
   [
    10.126662,
    48.106963
   ],
   [
    10.127171,
    48.10647
   ],
   [
    10.127733,
    48.1059
   ],
   [
    10.128155,
    48.10546
   ],
   [
    10.128668,
    48.104885
   ],
   [
    10.129317,
    48.104125
   ],
   [
    10.129888,
    48.10338
   ],
   [
    10.130505,
    48.102537
   ],
   [
    10.130889,
    48.101968
   ],
   [
    10.131619,
    48.100722
   ],
   [
    10.132006,
    48.100012
   ],
   [
    10.132416,
    48.099149
   ],
   [
    10.133051,
    48.09766
   ],
   [
    10.133519,
    48.096338
   ],
   [
    10.133872,
    48.095266
   ],
   [
    10.134463,
    48.093281
   ],
   [
    10.135067,
    48.091134
   ],
   [
    10.135616,
    48.089067
   ],
   [
    10.135851,
    48.088104
   ],
   [
    10.136105,
    48.087007
   ],
   [
    10.136454,
    48.085457
   ],
   [
    10.136703,
    48.084349
   ],
   [
    10.136833,
    48.083727
   ],
   [
    10.137022,
    48.082833
   ],
   [
    10.137154,
    48.082153
   ],
   [
    10.13727,
    48.08155
   ],
   [
    10.137504,
    48.080224
   ],
   [
    10.137699,
    48.079062
   ],
   [
    10.13785,
    48.078193
   ],
   [
    10.138148,
    48.076237
   ],
   [
    10.13831,
    48.075157
   ],
   [
    10.138452,
    48.074022
   ],
   [
    10.138569,
    48.072943
   ],
   [
    10.138694,
    48.071837
   ],
   [
    10.138811,
    48.07069
   ],
   [
    10.139008,
    48.068457
   ],
   [
    10.13914,
    48.06653
   ],
   [
    10.139189,
    48.065547
   ],
   [
    10.139216,
    48.064754
   ],
   [
    10.13921,
    48.063624
   ],
   [
    10.13918,
    48.062746
   ],
   [
    10.139129,
    48.06181
   ],
   [
    10.139053,
    48.060885
   ],
   [
    10.138953,
    48.059964
   ],
   [
    10.13878,
    48.058624
   ],
   [
    10.138552,
    48.0573
   ],
   [
    10.138355,
    48.056411
   ],
   [
    10.137963,
    48.054764
   ],
   [
    10.137495,
    48.053177
   ],
   [
    10.1372,
    48.05227
   ],
   [
    10.136575,
    48.050509
   ],
   [
    10.13615,
    48.049398
   ],
   [
    10.135071,
    48.046759
   ],
   [
    10.134165,
    48.04448
   ],
   [
    10.133738,
    48.043334
   ],
   [
    10.133215,
    48.041856
   ],
   [
    10.132681,
    48.040121
   ],
   [
    10.132396,
    48.039036
   ],
   [
    10.132155,
    48.037992
   ],
   [
    10.13194,
    48.036935
   ],
   [
    10.131807,
    48.036208
   ],
   [
    10.131659,
    48.035222
   ],
   [
    10.131621,
    48.035031
   ],
   [
    10.131554,
    48.034529
   ],
   [
    10.131504,
    48.03403
   ],
   [
    10.131471,
    48.033628
   ],
   [
    10.131348,
    48.032138
   ],
   [
    10.1313,
    48.030939
   ],
   [
    10.131293,
    48.030293
   ],
   [
    10.131288,
    48.029668
   ],
   [
    10.131302,
    48.029068
   ],
   [
    10.131322,
    48.02857
   ],
   [
    10.131359,
    48.027822
   ],
   [
    10.13141,
    48.027174
   ],
   [
    10.131465,
    48.026649
   ],
   [
    10.131547,
    48.026032
   ],
   [
    10.131589,
    48.025745
   ],
   [
    10.13167,
    48.025284
   ],
   [
    10.131833,
    48.02448
   ],
   [
    10.132032,
    48.023706
   ],
   [
    10.132285,
    48.022908
   ],
   [
    10.132463,
    48.022386
   ],
   [
    10.132674,
    48.021816
   ],
   [
    10.132762,
    48.021563
   ],
   [
    10.132853,
    48.021311
   ],
   [
    10.132989,
    48.020992
   ],
   [
    10.133206,
    48.020516
   ],
   [
    10.133403,
    48.020108
   ],
   [
    10.133568,
    48.019778
   ],
   [
    10.134088,
    48.018881
   ],
   [
    10.134393,
    48.018362
   ],
   [
    10.134716,
    48.01787
   ],
   [
    10.135567,
    48.016606
   ],
   [
    10.135834,
    48.016235
   ],
   [
    10.136714,
    48.015142
   ],
   [
    10.13699,
    48.014821
   ],
   [
    10.137955,
    48.013776
   ],
   [
    10.138879,
    48.012866
   ],
   [
    10.140039,
    48.011789
   ],
   [
    10.140576,
    48.011309
   ],
   [
    10.142174,
    48.009887
   ],
   [
    10.14259,
    48.009518
   ],
   [
    10.143045,
    48.009105
   ],
   [
    10.143479,
    48.008706
   ],
   [
    10.143955,
    48.008259
   ],
   [
    10.144296,
    48.007957
   ],
   [
    10.144632,
    48.007616
   ],
   [
    10.145172,
    48.007075
   ],
   [
    10.145433,
    48.006797
   ],
   [
    10.145709,
    48.006493
   ],
   [
    10.145983,
    48.006187
   ],
   [
    10.146283,
    48.005841
   ],
   [
    10.146905,
    48.005081
   ],
   [
    10.147573,
    48.004176
   ],
   [
    10.147727,
    48.003941
   ],
   [
    10.14808,
    48.003373
   ],
   [
    10.148207,
    48.003178
   ],
   [
    10.14918,
    48.001366
   ],
   [
    10.149446,
    48.000741
   ],
   [
    10.149745,
    47.999995
   ],
   [
    10.149835,
    47.999773
   ],
   [
    10.149996,
    47.999256
   ],
   [
    10.150158,
    47.998722
   ],
   [
    10.150301,
    47.99814
   ],
   [
    10.1505,
    47.997145
   ],
   [
    10.150617,
    47.996233
   ],
   [
    10.150652,
    47.995781
   ],
   [
    10.15068,
    47.995077
   ],
   [
    10.150682,
    47.994252
   ],
   [
    10.150623,
    47.993123
   ],
   [
    10.150571,
    47.992541
   ],
   [
    10.150568,
    47.992484
   ],
   [
    10.150557,
    47.992322
   ],
   [
    10.150547,
    47.992165
   ],
   [
    10.150469,
    47.991364
   ],
   [
    10.15043,
    47.990789
   ],
   [
    10.150414,
    47.99049
   ],
   [
    10.150397,
    47.990006
   ],
   [
    10.150385,
    47.989526
   ],
   [
    10.150375,
    47.989233
   ],
   [
    10.150379,
    47.988915
   ],
   [
    10.150417,
    47.988221
   ],
   [
    10.150474,
    47.987622
   ],
   [
    10.150534,
    47.987237
   ],
   [
    10.150662,
    47.986542
   ],
   [
    10.15074,
    47.98617
   ],
   [
    10.15088,
    47.985663
   ],
   [
    10.150963,
    47.985447
   ],
   [
    10.15116,
    47.984856
   ],
   [
    10.151256,
    47.984586
   ],
   [
    10.151501,
    47.98401
   ],
   [
    10.151772,
    47.983435
   ],
   [
    10.152133,
    47.982762
   ],
   [
    10.152762,
    47.981727
   ],
   [
    10.153005,
    47.981392
   ],
   [
    10.15341,
    47.980842
   ],
   [
    10.153829,
    47.980313
   ],
   [
    10.154077,
    47.980029
   ],
   [
    10.154302,
    47.979779
   ],
   [
    10.154753,
    47.979284
   ],
   [
    10.155216,
    47.978828
   ],
   [
    10.155881,
    47.97822
   ],
   [
    10.156563,
    47.977647
   ],
   [
    10.156929,
    47.977359
   ],
   [
    10.15729,
    47.977083
   ],
   [
    10.157998,
    47.976573
   ],
   [
    10.15864,
    47.976143
   ],
   [
    10.159067,
    47.975877
   ],
   [
    10.159891,
    47.975386
   ],
   [
    10.160708,
    47.974942
   ],
   [
    10.161124,
    47.974724
   ],
   [
    10.161534,
    47.974521
   ],
   [
    10.162343,
    47.974151
   ],
   [
    10.163383,
    47.973697
   ],
   [
    10.164407,
    47.973288
   ],
   [
    10.165439,
    47.972893
   ],
   [
    10.166513,
    47.972489
   ],
   [
    10.167566,
    47.972091
   ],
   [
    10.168649,
    47.97168
   ],
   [
    10.169247,
    47.97144
   ],
   [
    10.169765,
    47.971221
   ],
   [
    10.170935,
    47.970722
   ],
   [
    10.171264,
    47.970576
   ],
   [
    10.172348,
    47.970069
   ],
   [
    10.173291,
    47.969606
   ],
   [
    10.173743,
    47.969373
   ],
   [
    10.174221,
    47.969124
   ],
   [
    10.174671,
    47.96888
   ],
   [
    10.175146,
    47.968622
   ],
   [
    10.176064,
    47.968104
   ],
   [
    10.177149,
    47.967457
   ],
   [
    10.17727,
    47.967383
   ],
   [
    10.177946,
    47.966962
   ],
   [
    10.1786,
    47.966543
   ],
   [
    10.17926,
    47.966115
   ],
   [
    10.179883,
    47.965692
   ],
   [
    10.180522,
    47.965252
   ],
   [
    10.181014,
    47.964887
   ],
   [
    10.181522,
    47.964522
   ],
   [
    10.182019,
    47.96415
   ],
   [
    10.182656,
    47.963662
   ],
   [
    10.183057,
    47.963358
   ],
   [
    10.184006,
    47.96259
   ],
   [
    10.185341,
    47.961457
   ],
   [
    10.185823,
    47.961023
   ],
   [
    10.186577,
    47.960329
   ],
   [
    10.187162,
    47.959769
   ],
   [
    10.187836,
    47.959103
   ],
   [
    10.188903,
    47.957989
   ],
   [
    10.189355,
    47.957495
   ],
   [
    10.189728,
    47.957071
   ],
   [
    10.190044,
    47.956718
   ],
   [
    10.190404,
    47.956291
   ],
   [
    10.19075,
    47.955881
   ],
   [
    10.191096,
    47.955447
   ],
   [
    10.191635,
    47.954764
   ],
   [
    10.192675,
    47.953339
   ],
   [
    10.193508,
    47.952086
   ],
   [
    10.193865,
    47.95152
   ],
   [
    10.194231,
    47.950927
   ],
   [
    10.194873,
    47.949807
   ],
   [
    10.1957,
    47.948275
   ],
   [
    10.196544,
    47.946616
   ],
   [
    10.197077,
    47.945494
   ],
   [
    10.197617,
    47.944378
   ],
   [
    10.197725,
    47.944151
   ],
   [
    10.19791,
    47.943762
   ],
   [
    10.198078,
    47.943417
   ],
   [
    10.198673,
    47.942168
   ],
   [
    10.199442,
    47.94064
   ],
   [
    10.199725,
    47.940088
   ],
   [
    10.200315,
    47.939057
   ],
   [
    10.20065,
    47.938482
   ],
   [
    10.201001,
    47.937925
   ],
   [
    10.201151,
    47.937681
   ],
   [
    10.201973,
    47.936478
   ],
   [
    10.202834,
    47.935315
   ],
   [
    10.203397,
    47.934588
   ],
   [
    10.203996,
    47.933862
   ],
   [
    10.204558,
    47.933207
   ],
   [
    10.205193,
    47.93252
   ],
   [
    10.205855,
    47.931811
   ],
   [
    10.206524,
    47.931131
   ],
   [
    10.207217,
    47.930458
   ],
   [
    10.208001,
    47.929734
   ],
   [
    10.208212,
    47.929542
   ],
   [
    10.209781,
    47.928189
   ],
   [
    10.210923,
    47.927288
   ],
   [
    10.211663,
    47.92673
   ],
   [
    10.21253,
    47.926091
   ],
   [
    10.213009,
    47.925746
   ],
   [
    10.213381,
    47.92548
   ],
   [
    10.213616,
    47.925309
   ],
   [
    10.213896,
    47.925114
   ],
   [
    10.214519,
    47.924703
   ],
   [
    10.215188,
    47.924258
   ],
   [
    10.215822,
    47.923829
   ],
   [
    10.217244,
    47.92293
   ],
   [
    10.21836,
    47.922237
   ],
   [
    10.219237,
    47.921698
   ],
   [
    10.220098,
    47.92118
   ],
   [
    10.221348,
    47.920445
   ],
   [
    10.22168,
    47.920247
   ],
   [
    10.222189,
    47.919937
   ],
   [
    10.222628,
    47.919682
   ],
   [
    10.223506,
    47.919161
   ],
   [
    10.225367,
    47.918073
   ],
   [
    10.225749,
    47.917849
   ],
   [
    10.227157,
    47.917016
   ],
   [
    10.228295,
    47.916328
   ],
   [
    10.229482,
    47.91561
   ],
   [
    10.230169,
    47.915177
   ],
   [
    10.230867,
    47.914723
   ],
   [
    10.231381,
    47.914382
   ],
   [
    10.232041,
    47.913931
   ],
   [
    10.232715,
    47.913453
   ],
   [
    10.233174,
    47.913111
   ],
   [
    10.233373,
    47.912963
   ],
   [
    10.233696,
    47.912715
   ],
   [
    10.23413,
    47.912374
   ],
   [
    10.23476,
    47.911856
   ],
   [
    10.23507,
    47.911596
   ],
   [
    10.235489,
    47.911237
   ],
   [
    10.236106,
    47.910685
   ],
   [
    10.236781,
    47.91004
   ],
   [
    10.237451,
    47.90938
   ],
   [
    10.237837,
    47.908979
   ],
   [
    10.23812,
    47.908665
   ],
   [
    10.238724,
    47.907991
   ],
   [
    10.239339,
    47.907266
   ],
   [
    10.239872,
    47.906592
   ],
   [
    10.240124,
    47.906262
   ],
   [
    10.240428,
    47.905843
   ],
   [
    10.240938,
    47.905115
   ],
   [
    10.241296,
    47.904561
   ],
   [
    10.241606,
    47.904066
   ],
   [
    10.242047,
    47.903319
   ],
   [
    10.242284,
    47.902889
   ],
   [
    10.24254,
    47.902403
   ],
   [
    10.242846,
    47.901781
   ],
   [
    10.243057,
    47.901325
   ],
   [
    10.243161,
    47.901086
   ],
   [
    10.243475,
    47.90035
   ],
   [
    10.243796,
    47.8995
   ],
   [
    10.243988,
    47.898924
   ],
   [
    10.244249,
    47.898032
   ],
   [
    10.24454,
    47.896924
   ],
   [
    10.244589,
    47.896715
   ],
   [
    10.244929,
    47.894977
   ],
   [
    10.245056,
    47.894133
   ],
   [
    10.245145,
    47.893454
   ],
   [
    10.245325,
    47.891893
   ],
   [
    10.245501,
    47.89004
   ],
   [
    10.24576,
    47.887231
   ],
   [
    10.245983,
    47.884869
   ],
   [
    10.246105,
    47.883692
   ],
   [
    10.246139,
    47.88338
   ],
   [
    10.246185,
    47.883013
   ],
   [
    10.246266,
    47.882458
   ],
   [
    10.246468,
    47.881299
   ],
   [
    10.246748,
    47.880161
   ],
   [
    10.246911,
    47.87962
   ],
   [
    10.247195,
    47.87883
   ],
   [
    10.247413,
    47.878316
   ],
   [
    10.247751,
    47.877618
   ],
   [
    10.248184,
    47.876845
   ],
   [
    10.248589,
    47.876243
   ],
   [
    10.248726,
    47.876044
   ],
   [
    10.248993,
    47.875686
   ],
   [
    10.249254,
    47.875383
   ],
   [
    10.249667,
    47.874904
   ],
   [
    10.25023,
    47.874306
   ],
   [
    10.250723,
    47.873823
   ],
   [
    10.251319,
    47.873319
   ],
   [
    10.252036,
    47.87274
   ],
   [
    10.252741,
    47.872245
   ],
   [
    10.253443,
    47.871777
   ],
   [
    10.253985,
    47.87145
   ],
   [
    10.25452,
    47.871147
   ],
   [
    10.255208,
    47.870795
   ],
   [
    10.255846,
    47.870478
   ],
   [
    10.256819,
    47.870054
   ],
   [
    10.258018,
    47.869541
   ],
   [
    10.258883,
    47.869207
   ],
   [
    10.259585,
    47.868946
   ],
   [
    10.260608,
    47.86858
   ],
   [
    10.262105,
    47.868065
   ],
   [
    10.263341,
    47.867648
   ],
   [
    10.264753,
    47.867174
   ],
   [
    10.26574,
    47.866828
   ],
   [
    10.266351,
    47.866608
   ],
   [
    10.267118,
    47.866314
   ],
   [
    10.267963,
    47.865976
   ],
   [
    10.268698,
    47.865671
   ],
   [
    10.269416,
    47.86534
   ],
   [
    10.270102,
    47.86502
   ],
   [
    10.270735,
    47.864696
   ],
   [
    10.271641,
    47.864187
   ],
   [
    10.272427,
    47.863708
   ],
   [
    10.273009,
    47.86333
   ],
   [
    10.273649,
    47.862882
   ],
   [
    10.274387,
    47.862331
   ],
   [
    10.274991,
    47.861848
   ],
   [
    10.275834,
    47.861092
   ],
   [
    10.276347,
    47.860587
   ],
   [
    10.27698,
    47.859929
   ],
   [
    10.277268,
    47.859616
   ],
   [
    10.277679,
    47.859109
   ],
   [
    10.278152,
    47.85848
   ],
   [
    10.278624,
    47.857769
   ],
   [
    10.279115,
    47.856975
   ],
   [
    10.279461,
    47.856337
   ],
   [
    10.280022,
    47.855094
   ],
   [
    10.280382,
    47.854158
   ],
   [
    10.280719,
    47.853139
   ],
   [
    10.280911,
    47.852485
   ],
   [
    10.281126,
    47.851654
   ],
   [
    10.281183,
    47.851442
   ],
   [
    10.28132,
    47.850871
   ],
   [
    10.281839,
    47.848408
   ],
   [
    10.282139,
    47.846827
   ],
   [
    10.282426,
    47.845409
   ],
   [
    10.28274,
    47.843826
   ],
   [
    10.282791,
    47.843552
   ],
   [
    10.282842,
    47.84332
   ],
   [
    10.283643,
    47.839815
   ],
   [
    10.284031,
    47.838402
   ],
   [
    10.284458,
    47.836955
   ],
   [
    10.28473,
    47.836083
   ],
   [
    10.285147,
    47.834875
   ],
   [
    10.2854,
    47.834162
   ],
   [
    10.2859,
    47.832889
   ],
   [
    10.286476,
    47.831525
   ],
   [
    10.28713,
    47.830112
   ],
   [
    10.287728,
    47.82886
   ],
   [
    10.288956,
    47.826581
   ],
   [
    10.289673,
    47.82536
   ],
   [
    10.291064,
    47.823153
   ],
   [
    10.291636,
    47.822318
   ],
   [
    10.292941,
    47.820483
   ],
   [
    10.293812,
    47.819336
   ],
   [
    10.294736,
    47.818195
   ],
   [
    10.295375,
    47.817414
   ],
   [
    10.29604,
    47.816621
   ],
   [
    10.296563,
    47.816035
   ],
   [
    10.296791,
    47.815769
   ],
   [
    10.298156,
    47.814295
   ],
   [
    10.299605,
    47.81281
   ],
   [
    10.300835,
    47.811624
   ],
   [
    10.301677,
    47.810837
   ],
   [
    10.302476,
    47.810114
   ],
   [
    10.302798,
    47.809815
   ],
   [
    10.303108,
    47.809532
   ],
   [
    10.304467,
    47.808355
   ],
   [
    10.306451,
    47.806671
   ],
   [
    10.308265,
    47.805163
   ],
   [
    10.310841,
    47.80299
   ],
   [
    10.311061,
    47.80282
   ],
   [
    10.31134,
    47.80259
   ],
   [
    10.31295,
    47.801242
   ],
   [
    10.315388,
    47.799202
   ],
   [
    10.316321,
    47.798423
   ],
   [
    10.316547,
    47.798234
   ],
   [
    10.317487,
    47.797452
   ],
   [
    10.318024,
    47.797
   ],
   [
    10.31879,
    47.796336
   ],
   [
    10.319338,
    47.795843
   ],
   [
    10.319849,
    47.795366
   ],
   [
    10.320213,
    47.795004
   ],
   [
    10.320699,
    47.794506
   ],
   [
    10.32111,
    47.794066
   ],
   [
    10.321703,
    47.793398
   ],
   [
    10.322505,
    47.792415
   ],
   [
    10.322713,
    47.792142
   ],
   [
    10.323231,
    47.791416
   ],
   [
    10.323612,
    47.790869
   ],
   [
    10.323897,
    47.790434
   ],
   [
    10.324398,
    47.789596
   ],
   [
    10.325041,
    47.788353
   ],
   [
    10.325245,
    47.787915
   ],
   [
    10.325581,
    47.787148
   ],
   [
    10.325945,
    47.786213
   ],
   [
    10.326155,
    47.78558
   ],
   [
    10.326337,
    47.784978
   ],
   [
    10.326542,
    47.784143
   ],
   [
    10.326686,
    47.783503
   ],
   [
    10.326783,
    47.782963
   ],
   [
    10.326876,
    47.782273
   ],
   [
    10.326941,
    47.781722
   ],
   [
    10.327002,
    47.78101
   ],
   [
    10.327027,
    47.780437
   ],
   [
    10.327018,
    47.779772
   ],
   [
    10.326997,
    47.779114
   ],
   [
    10.32697,
    47.778489
   ],
   [
    10.326941,
    47.778206
   ],
   [
    10.326886,
    47.777684
   ],
   [
    10.326805,
    47.777127
   ],
   [
    10.326727,
    47.77669
   ],
   [
    10.326668,
    47.776364
   ],
   [
    10.326454,
    47.775446
   ],
   [
    10.326325,
    47.774939
   ],
   [
    10.326185,
    47.7744
   ],
   [
    10.326097,
    47.774097
   ],
   [
    10.32583,
    47.773175
   ],
   [
    10.325595,
    47.772349
   ],
   [
    10.32535,
    47.771366
   ],
   [
    10.325309,
    47.771182
   ],
   [
    10.325271,
    47.771014
   ],
   [
    10.325162,
    47.770403
   ],
   [
    10.325073,
    47.769806
   ],
   [
    10.325008,
    47.768989
   ],
   [
    10.325034,
    47.768217
   ],
   [
    10.325072,
    47.767738
   ],
   [
    10.325098,
    47.767561
   ],
   [
    10.325162,
    47.76713
   ],
   [
    10.325258,
    47.766642
   ],
   [
    10.325399,
    47.766036
   ],
   [
    10.325593,
    47.765438
   ],
   [
    10.32605,
    47.764121
   ],
   [
    10.326409,
    47.763149
   ],
   [
    10.326755,
    47.762192
   ],
   [
    10.327145,
    47.761109
   ],
   [
    10.327208,
    47.760941
   ],
   [
    10.328083,
    47.758544
   ],
   [
    10.328758,
    47.756763
   ],
   [
    10.329244,
    47.755602
   ],
   [
    10.329461,
    47.755109
   ],
   [
    10.329608,
    47.754812
   ],
   [
    10.329741,
    47.754526
   ],
   [
    10.329869,
    47.754257
   ],
   [
    10.330451,
    47.753188
   ],
   [
    10.330579,
    47.752957
   ],
   [
    10.331078,
    47.752147
   ],
   [
    10.33171,
    47.751192
   ],
   [
    10.332112,
    47.750622
   ],
   [
    10.332627,
    47.749906
   ],
   [
    10.333409,
    47.748942
   ],
   [
    10.334261,
    47.747923
   ],
   [
    10.336528,
    47.745388
   ],
   [
    10.337736,
    47.744059
   ],
   [
    10.337895,
    47.743877
   ],
   [
    10.338998,
    47.742678
   ],
   [
    10.34129,
    47.740143
   ],
   [
    10.341719,
    47.73968
   ],
   [
    10.344197,
    47.736946
   ],
   [
    10.344643,
    47.736474
   ],
   [
    10.344976,
    47.736102
   ],
   [
    10.345279,
    47.73575
   ],
   [
    10.346539,
    47.734376
   ],
   [
    10.346839,
    47.734041
   ],
   [
    10.350536,
    47.729965
   ],
   [
    10.351361,
    47.729079
   ],
   [
    10.352542,
    47.727888
   ],
   [
    10.35328,
    47.727226
   ],
   [
    10.354237,
    47.726408
   ],
   [
    10.35525,
    47.725574
   ],
   [
    10.355708,
    47.725194
   ],
   [
    10.356468,
    47.724563
   ],
   [
    10.357146,
    47.724
   ],
   [
    10.357731,
    47.723485
   ],
   [
    10.358281,
    47.722977
   ],
   [
    10.358639,
    47.722614
   ],
   [
    10.358872,
    47.722359
   ],
   [
    10.359145,
    47.722052
   ],
   [
    10.359379,
    47.721757
   ],
   [
    10.359553,
    47.721519
   ],
   [
    10.359714,
    47.721288
   ],
   [
    10.359922,
    47.720985
   ],
   [
    10.360222,
    47.720462
   ],
   [
    10.360499,
    47.719909
   ],
   [
    10.360653,
    47.719525
   ],
   [
    10.360828,
    47.71907
   ],
   [
    10.360995,
    47.718425
   ],
   [
    10.361102,
    47.717799
   ],
   [
    10.36122,
    47.716812
   ],
   [
    10.361227,
    47.716774
   ],
   [
    10.36128,
    47.716297
   ],
   [
    10.361428,
    47.715165
   ],
   [
    10.361521,
    47.714678
   ],
   [
    10.361619,
    47.714276
   ],
   [
    10.361797,
    47.713704
   ],
   [
    10.361972,
    47.713185
   ],
   [
    10.362139,
    47.712778
   ],
   [
    10.362302,
    47.712397
   ],
   [
    10.362568,
    47.711899
   ],
   [
    10.36308,
    47.711037
   ],
   [
    10.363894,
    47.709842
   ],
   [
    10.364393,
    47.709138
   ],
   [
    10.364704,
    47.70868
   ],
   [
    10.36525,
    47.707857
   ],
   [
    10.365767,
    47.70701
   ],
   [
    10.366058,
    47.706456
   ],
   [
    10.366269,
    47.705962
   ],
   [
    10.366451,
    47.705467
   ],
   [
    10.366584,
    47.705023
   ],
   [
    10.366696,
    47.704467
   ],
   [
    10.36679,
    47.70376
   ],
   [
    10.366823,
    47.70334
   ],
   [
    10.366815,
    47.702675
   ],
   [
    10.366786,
    47.702283
   ],
   [
    10.366719,
    47.701854
   ],
   [
    10.366586,
    47.701172
   ],
   [
    10.366297,
    47.699821
   ],
   [
    10.366075,
    47.698244
   ],
   [
    10.366002,
    47.697279
   ],
   [
    10.365984,
    47.696297
   ],
   [
    10.365995,
    47.695496
   ],
   [
    10.366076,
    47.694386
   ],
   [
    10.366116,
    47.693672
   ],
   [
    10.366136,
    47.693477
   ],
   [
    10.366166,
    47.69325
   ],
   [
    10.366279,
    47.692573
   ],
   [
    10.366417,
    47.691916
   ],
   [
    10.366501,
    47.691496
   ],
   [
    10.366632,
    47.690891
   ],
   [
    10.366615,
    47.690617
   ],
   [
    10.366628,
    47.690495
   ],
   [
    10.366695,
    47.690118
   ],
   [
    10.366713,
    47.689912
   ],
   [
    10.366712,
    47.689783
   ],
   [
    10.366686,
    47.689573
   ],
   [
    10.36661,
    47.689354
   ],
   [
    10.366494,
    47.68916
   ],
   [
    10.366359,
    47.689015
   ],
   [
    10.366168,
    47.688866
   ],
   [
    10.365922,
    47.688713
   ],
   [
    10.36563,
    47.688547
   ],
   [
    10.364902,
    47.688197
   ],
   [
    10.364533,
    47.688032
   ],
   [
    10.364217,
    47.687908
   ],
   [
    10.363932,
    47.687822
   ],
   [
    10.363641,
    47.687756
   ],
   [
    10.363342,
    47.687718
   ],
   [
    10.362954,
    47.687651
   ],
   [
    10.362144,
    47.687619
   ],
   [
    10.361515,
    47.687601
   ],
   [
    10.359794,
    47.687516
   ],
   [
    10.358517,
    47.68746
   ],
   [
    10.357506,
    47.687414
   ],
   [
    10.356346,
    47.687356
   ],
   [
    10.355016,
    47.687269
   ],
   [
    10.353693,
    47.68718
   ],
   [
    10.352861,
    47.687106
   ],
   [
    10.351086,
    47.686938
   ],
   [
    10.349099,
    47.686714
   ],
   [
    10.348592,
    47.686655
   ],
   [
    10.347096,
    47.686459
   ],
   [
    10.3457,
    47.686262
   ],
   [
    10.343682,
    47.685941
   ],
   [
    10.341715,
    47.685582
   ],
   [
    10.335746,
    47.684442
   ],
   [
    10.335157,
    47.684327
   ],
   [
    10.334709,
    47.684244
   ],
   [
    10.332636,
    47.68388
   ],
   [
    10.330626,
    47.68354
   ],
   [
    10.329679,
    47.683391
   ],
   [
    10.32912,
    47.683304
   ],
   [
    10.328717,
    47.683241
   ],
   [
    10.327818,
    47.683097
   ],
   [
    10.327042,
    47.682983
   ],
   [
    10.324933,
    47.682664
   ],
   [
    10.322761,
    47.682336
   ],
   [
    10.321614,
    47.682161
   ],
   [
    10.31671,
    47.681422
   ],
   [
    10.315332,
    47.681215
   ],
   [
    10.313881,
    47.681011
   ],
   [
    10.313222,
    47.680937
   ],
   [
    10.312007,
    47.680809
   ],
   [
    10.310595,
    47.680709
   ],
   [
    10.310107,
    47.680685
   ],
   [
    10.307939,
    47.680622
   ],
   [
    10.304844,
    47.680641
   ],
   [
    10.304654,
    47.680694
   ],
   [
    10.304076,
    47.68071
   ],
   [
    10.303627,
    47.680771
   ],
   [
    10.30343,
    47.680814
   ],
   [
    10.303276,
    47.680872
   ],
   [
    10.303151,
    47.680947
   ],
   [
    10.30309,
    47.68103
   ],
   [
    10.303064,
    47.681151
   ],
   [
    10.303084,
    47.681291
   ],
   [
    10.303178,
    47.681387
   ],
   [
    10.303268,
    47.681446
   ],
   [
    10.303431,
    47.681521
   ],
   [
    10.303639,
    47.681586
   ],
   [
    10.30391,
    47.681637
   ],
   [
    10.304164,
    47.681643
   ],
   [
    10.30449,
    47.681622
   ],
   [
    10.304759,
    47.681581
   ],
   [
    10.304917,
    47.681474
   ],
   [
    10.304981,
    47.681411
   ],
   [
    10.305031,
    47.68135
   ],
   [
    10.305039,
    47.681253
   ],
   [
    10.305081,
    47.681133
   ],
   [
    10.304985,
    47.680911
   ],
   [
    10.304882,
    47.68065
   ],
   [
    10.30482,
    47.680464
   ],
   [
    10.304763,
    47.680276
   ],
   [
    10.304731,
    47.680177
   ],
   [
    10.304659,
    47.679966
   ],
   [
    10.304542,
    47.679614
   ],
   [
    10.304438,
    47.679474
   ],
   [
    10.304278,
    47.679033
   ],
   [
    10.304267,
    47.679004
   ],
   [
    10.304227,
    47.678903
   ],
   [
    10.30415,
    47.678704
   ],
   [
    10.304087,
    47.678575
   ],
   [
    10.303859,
    47.678185
   ],
   [
    10.303757,
    47.678052
   ],
   [
    10.303625,
    47.677892
   ],
   [
    10.303387,
    47.677658
   ],
   [
    10.302626,
    47.676979
   ],
   [
    10.302421,
    47.67676
   ],
   [
    10.302183,
    47.676453
   ],
   [
    10.302014,
    47.676168
   ],
   [
    10.301868,
    47.675859
   ],
   [
    10.301763,
    47.67556
   ],
   [
    10.301701,
    47.675284
   ],
   [
    10.301531,
    47.674324
   ],
   [
    10.301487,
    47.674117
   ],
   [
    10.301411,
    47.673846
   ],
   [
    10.301332,
    47.673641
   ],
   [
    10.301213,
    47.673391
   ],
   [
    10.301049,
    47.67311
   ],
   [
    10.300877,
    47.672864
   ],
   [
    10.300694,
    47.672648
   ],
   [
    10.300439,
    47.672387
   ],
   [
    10.300064,
    47.672074
   ],
   [
    10.299713,
    47.671801
   ],
   [
    10.299137,
    47.671293
   ],
   [
    10.298813,
    47.67095
   ],
   [
    10.298536,
    47.670564
   ],
   [
    10.298322,
    47.670224
   ],
   [
    10.29808,
    47.669664
   ],
   [
    10.297996,
    47.669353
   ],
   [
    10.29796,
    47.669101
   ],
   [
    10.297951,
    47.668669
   ],
   [
    10.297969,
    47.66837
   ],
   [
    10.298038,
    47.668006
   ],
   [
    10.298119,
    47.667728
   ],
   [
    10.298284,
    47.667311
   ],
   [
    10.298532,
    47.666765
   ],
   [
    10.298974,
    47.665698
   ],
   [
    10.299094,
    47.665202
   ],
   [
    10.299153,
    47.664801
   ],
   [
    10.299144,
    47.664153
   ],
   [
    10.299095,
    47.663789
   ],
   [
    10.299003,
    47.663298
   ],
   [
    10.29877,
    47.6624
   ],
   [
    10.298628,
    47.661799
   ],
   [
    10.298557,
    47.661359
   ],
   [
    10.298514,
    47.660742
   ],
   [
    10.298519,
    47.659936
   ],
   [
    10.298522,
    47.659734
   ],
   [
    10.298523,
    47.659656
   ],
   [
    10.298525,
    47.659378
   ],
   [
    10.298528,
    47.659147
   ],
   [
    10.298507,
    47.658675
   ],
   [
    10.298498,
    47.658591
   ],
   [
    10.298447,
    47.658235
   ],
   [
    10.298383,
    47.657899
   ],
   [
    10.298232,
    47.657381
   ],
   [
    10.298039,
    47.656861
   ],
   [
    10.297948,
    47.656673
   ],
   [
    10.297894,
    47.656565
   ],
   [
    10.297741,
    47.65628
   ],
   [
    10.297565,
    47.65599
   ],
   [
    10.297194,
    47.655441
   ],
   [
    10.296586,
    47.654626
   ],
   [
    10.296253,
    47.654094
   ],
   [
    10.296063,
    47.65368
   ],
   [
    10.295917,
    47.653253
   ],
   [
    10.295831,
    47.652747
   ],
   [
    10.295798,
    47.65219
   ],
   [
    10.295876,
    47.650648
   ],
   [
    10.295835,
    47.650128
   ],
   [
    10.295736,
    47.649697
   ],
   [
    10.295657,
    47.64947
   ],
   [
    10.295568,
    47.649228
   ],
   [
    10.295384,
    47.648847
   ],
   [
    10.295107,
    47.648408
   ],
   [
    10.294807,
    47.648032
   ],
   [
    10.294689,
    47.647899
   ],
   [
    10.294461,
    47.647663
   ],
   [
    10.294285,
    47.647478
   ],
   [
    10.294029,
    47.647242
   ],
   [
    10.293795,
    47.647046
   ],
   [
    10.293457,
    47.646775
   ],
   [
    10.292691,
    47.64623
   ],
   [
    10.292385,
    47.646014
   ],
   [
    10.291872,
    47.645668
   ],
   [
    10.291063,
    47.645137
   ],
   [
    10.2903,
    47.644617
   ],
   [
    10.289746,
    47.644205
   ],
   [
    10.289683,
    47.644158
   ],
   [
    10.289221,
    47.643795
   ],
   [
    10.288943,
    47.643538
   ],
   [
    10.288389,
    47.642976
   ],
   [
    10.287952,
    47.642424
   ],
   [
    10.287764,
    47.642158
   ],
   [
    10.287605,
    47.641899
   ],
   [
    10.287481,
    47.64167
   ],
   [
    10.287312,
    47.641348
   ],
   [
    10.28718,
    47.64105
   ],
   [
    10.287064,
    47.640724
   ],
   [
    10.286953,
    47.640346
   ],
   [
    10.28689,
    47.640081
   ],
   [
    10.286798,
    47.639578
   ],
   [
    10.286707,
    47.639117
   ],
   [
    10.286597,
    47.638671
   ],
   [
    10.286517,
    47.638431
   ],
   [
    10.286418,
    47.638203
   ],
   [
    10.286318,
    47.638004
   ],
   [
    10.286174,
    47.637744
   ],
   [
    10.286024,
    47.637524
   ],
   [
    10.285876,
    47.637306
   ],
   [
    10.285679,
    47.637063
   ],
   [
    10.28546,
    47.636824
   ],
   [
    10.285276,
    47.636644
   ],
   [
    10.28429,
    47.635726
   ],
   [
    10.283629,
    47.635144
   ],
   [
    10.283112,
    47.634659
   ],
   [
    10.282736,
    47.634285
   ],
   [
    10.282349,
    47.633823
   ],
   [
    10.282147,
    47.633565
   ],
   [
    10.281898,
    47.633215
   ],
   [
    10.281317,
    47.63229
   ],
   [
    10.281268,
    47.632209
   ],
   [
    10.281121,
    47.63197
   ],
   [
    10.280721,
    47.631348
   ],
   [
    10.280182,
    47.630475
   ],
   [
    10.279612,
    47.62953
   ],
   [
    10.279432,
    47.629248
   ],
   [
    10.279053,
    47.628654
   ],
   [
    10.278579,
    47.627823
   ],
   [
    10.2783,
    47.627299
   ],
   [
    10.278096,
    47.626887
   ],
   [
    10.277687,
    47.626036
   ],
   [
    10.277412,
    47.625371
   ],
   [
    10.277211,
    47.624852
   ],
   [
    10.277017,
    47.624299
   ],
   [
    10.276763,
    47.623496
   ],
   [
    10.276565,
    47.622777
   ],
   [
    10.276452,
    47.622307
   ],
   [
    10.276342,
    47.621786
   ],
   [
    10.276182,
    47.62084
   ],
   [
    10.276054,
    47.619838
   ],
   [
    10.275914,
    47.618593
   ],
   [
    10.275864,
    47.618112
   ],
   [
    10.275784,
    47.617524
   ],
   [
    10.275656,
    47.616787
   ],
   [
    10.275394,
    47.615783
   ],
   [
    10.275261,
    47.61535
   ],
   [
    10.275113,
    47.614918
   ],
   [
    10.274857,
    47.614244
   ],
   [
    10.274684,
    47.613788
   ],
   [
    10.274331,
    47.612825
   ],
   [
    10.2741,
    47.612087
   ],
   [
    10.273999,
    47.611691
   ],
   [
    10.273884,
    47.611131
   ],
   [
    10.273838,
    47.610841
   ],
   [
    10.273814,
    47.610682
   ],
   [
    10.273761,
    47.610193
   ],
   [
    10.273678,
    47.609309
   ],
   [
    10.27361,
    47.608574
   ],
   [
    10.273566,
    47.608046
   ],
   [
    10.273522,
    47.607463
   ],
   [
    10.273498,
    47.607238
   ],
   [
    10.273346,
    47.605993
   ],
   [
    10.273215,
    47.605351
   ],
   [
    10.273114,
    47.604932
   ],
   [
    10.27301,
    47.604543
   ],
   [
    10.272888,
    47.604151
   ],
   [
    10.27271,
    47.603692
   ],
   [
    10.272431,
    47.603079
   ],
   [
    10.27211,
    47.602463
   ],
   [
    10.271872,
    47.602053
   ],
   [
    10.271649,
    47.601718
   ],
   [
    10.271436,
    47.60142
   ],
   [
    10.271227,
    47.601117
   ],
   [
    10.270967,
    47.600788
   ],
   [
    10.27052,
    47.600258
   ],
   [
    10.270139,
    47.59986
   ],
   [
    10.269821,
    47.599548
   ],
   [
    10.269448,
    47.599188
   ],
   [
    10.269023,
    47.598818
   ],
   [
    10.268612,
    47.598488
   ],
   [
    10.267717,
    47.597834
   ],
   [
    10.267204,
    47.597482
   ],
   [
    10.266176,
    47.596814
   ],
   [
    10.265851,
    47.596614
   ],
   [
    10.265419,
    47.596328
   ],
   [
    10.264859,
    47.595941
   ],
   [
    10.264708,
    47.59583
   ],
   [
    10.264391,
    47.595592
   ],
   [
    10.263985,
    47.595273
   ],
   [
    10.263586,
    47.59494
   ],
   [
    10.263207,
    47.594594
   ],
   [
    10.262771,
    47.594168
   ],
   [
    10.262421,
    47.593806
   ],
   [
    10.261993,
    47.593357
   ],
   [
    10.261544,
    47.592868
   ],
   [
    10.260559,
    47.591819
   ],
   [
    10.259277,
    47.59045
   ],
   [
    10.258284,
    47.589386
   ],
   [
    10.257027,
    47.588044
   ],
   [
    10.252427,
    47.583113
   ],
   [
    10.251845,
    47.582478
   ],
   [
    10.251264,
    47.581838
   ],
   [
    10.250955,
    47.581452
   ],
   [
    10.250855,
    47.581332
   ],
   [
    10.250604,
    47.580955
   ],
   [
    10.250426,
    47.580672
   ],
   [
    10.250233,
    47.580327
   ],
   [
    10.250088,
    47.580026
   ],
   [
    10.249929,
    47.579625
   ],
   [
    10.249823,
    47.579288
   ],
   [
    10.249746,
    47.578969
   ],
   [
    10.249681,
    47.578582
   ],
   [
    10.249662,
    47.578174
   ],
   [
    10.249671,
    47.577738
   ],
   [
    10.249703,
    47.577309
   ],
   [
    10.249755,
    47.576831
   ],
   [
    10.249809,
    47.576193
   ],
   [
    10.249803,
    47.575839
   ],
   [
    10.249783,
    47.57556
   ],
   [
    10.249736,
    47.575282
   ],
   [
    10.249668,
    47.575002
   ],
   [
    10.24957,
    47.574697
   ],
   [
    10.249447,
    47.574402
   ],
   [
    10.249319,
    47.574146
   ],
   [
    10.249085,
    47.573772
   ],
   [
    10.248806,
    47.573387
   ],
   [
    10.248448,
    47.573004
   ],
   [
    10.248076,
    47.572656
   ],
   [
    10.247996,
    47.572593
   ],
   [
    10.247685,
    47.57235
   ],
   [
    10.247244,
    47.572052
   ],
   [
    10.246963,
    47.57189
   ],
   [
    10.246736,
    47.571828
   ],
   [
    10.246049,
    47.571596
   ],
   [
    10.245387,
    47.571384
   ],
   [
    10.244643,
    47.571155
   ],
   [
    10.24371,
    47.570853
   ],
   [
    10.243656,
    47.570831
   ],
   [
    10.243377,
    47.571039
   ],
   [
    10.24307,
    47.571255
   ],
   [
    10.242328,
    47.571666
   ],
   [
    10.241639,
    47.571952
   ],
   [
    10.241185,
    47.57211
   ],
   [
    10.240123,
    47.572334
   ],
   [
    10.23967,
    47.572402
   ],
   [
    10.239172,
    47.572449
   ],
   [
    10.237936,
    47.572501
   ],
   [
    10.237714,
    47.572556
   ],
   [
    10.23737,
    47.572646
   ],
   [
    10.237314,
    47.572669
   ],
   [
    10.237311,
    47.572705
   ],
   [
    10.2373,
    47.572739
   ],
   [
    10.237281,
    47.572773
   ],
   [
    10.237256,
    47.572804
   ],
   [
    10.237223,
    47.572832
   ],
   [
    10.237184,
    47.572857
   ],
   [
    10.23714,
    47.572878
   ],
   [
    10.237092,
    47.572894
   ],
   [
    10.237041,
    47.572905
   ],
   [
    10.236959,
    47.572911
   ],
   [
    10.236878,
    47.572905
   ],
   [
    10.236801,
    47.572885
   ],
   [
    10.236732,
    47.572855
   ],
   [
    10.236676,
    47.572815
   ],
   [
    10.236635,
    47.572766
   ],
   [
    10.236611,
    47.572713
   ],
   [
    10.236606,
    47.572669
   ],
   [
    10.236613,
    47.572625
   ],
   [
    10.236632,
    47.572582
   ],
   [
    10.236662,
    47.572543
   ],
   [
    10.236695,
    47.572514
   ],
   [
    10.236734,
    47.572488
   ],
   [
    10.236779,
    47.572467
   ],
   [
    10.236811,
    47.572395
   ],
   [
    10.236817,
    47.572359
   ],
   [
    10.236812,
    47.572321
   ],
   [
    10.236758,
    47.57219
   ],
   [
    10.236714,
    47.572097
   ],
   [
    10.236616,
    47.571902
   ],
   [
    10.236505,
    47.571785
   ],
   [
    10.236166,
    47.571447
   ],
   [
    10.235937,
    47.571221
   ],
   [
    10.235671,
    47.570975
   ],
   [
    10.235565,
    47.570866
   ],
   [
    10.235259,
    47.570564
   ],
   [
    10.235157,
    47.570464
   ],
   [
    10.235099,
    47.570408
   ],
   [
    10.234973,
    47.570281
   ],
   [
    10.234769,
    47.570062
   ],
   [
    10.234646,
    47.569938
   ],
   [
    10.234346,
    47.569633
   ],
   [
    10.234222,
    47.569528
   ],
   [
    10.234187,
    47.569498
   ],
   [
    10.233923,
    47.569263
   ],
   [
    10.233714,
    47.569107
   ],
   [
    10.232997,
    47.568641
   ],
   [
    10.232723,
    47.568439
   ],
   [
    10.232551,
    47.568308
   ],
   [
    10.232342,
    47.568149
   ],
   [
    10.231968,
    47.567819
   ],
   [
    10.231787,
    47.567648
   ],
   [
    10.231023,
    47.566933
   ],
   [
    10.230423,
    47.566337
   ],
   [
    10.229696,
    47.565652
   ],
   [
    10.229484,
    47.565457
   ],
   [
    10.229306,
    47.565299
   ],
   [
    10.22906,
    47.565114
   ],
   [
    10.228773,
    47.564903
   ],
   [
    10.228499,
    47.564734
   ],
   [
    10.228275,
    47.564601
   ],
   [
    10.228227,
    47.564573
   ],
   [
    10.22782,
    47.564373
   ],
   [
    10.22741,
    47.564142
   ],
   [
    10.227011,
    47.563864
   ],
   [
    10.226919,
    47.563794
   ],
   [
    10.226833,
    47.563716
   ],
   [
    10.226718,
    47.563601
   ],
   [
    10.226607,
    47.563486
   ],
   [
    10.226418,
    47.563261
   ],
   [
    10.226397,
    47.563235
   ],
   [
    10.226167,
    47.562923
   ],
   [
    10.22613,
    47.562872
   ],
   [
    10.226075,
    47.562799
   ],
   [
    10.226061,
    47.562779
   ],
   [
    10.225833,
    47.562507
   ],
   [
    10.225694,
    47.562332
   ],
   [
    10.225594,
    47.562258
   ],
   [
    10.225573,
    47.562269
   ],
   [
    10.22555,
    47.562276
   ],
   [
    10.225525,
    47.56228
   ],
   [
    10.2255,
    47.562281
   ],
   [
    10.225474,
    47.562278
   ],
   [
    10.225451,
    47.562272
   ],
   [
    10.225429,
    47.562263
   ],
   [
    10.225411,
    47.56225
   ],
   [
    10.225397,
    47.562236
   ],
   [
    10.225387,
    47.56222
   ],
   [
    10.225382,
    47.562203
   ],
   [
    10.225383,
    47.562186
   ],
   [
    10.225389,
    47.562169
   ],
   [
    10.2254,
    47.562153
   ],
   [
    10.225415,
    47.562139
   ],
   [
    10.225435,
    47.562128
   ],
   [
    10.224438,
    47.561557
   ],
   [
    10.224161,
    47.561437
   ],
   [
    10.224016,
    47.56139
   ],
   [
    10.223718,
    47.561308
   ],
   [
    10.223598,
    47.561284
   ],
   [
    10.223472,
    47.561258
   ],
   [
    10.223372,
    47.56124
   ],
   [
    10.223089,
    47.561215
   ],
   [
    10.222637,
    47.56116
   ],
   [
    10.221807,
    47.561059
   ],
   [
    10.221473,
    47.561025
   ],
   [
    10.221355,
    47.561014
   ],
   [
    10.221346,
    47.561032
   ],
   [
    10.221331,
    47.561049
   ],
   [
    10.221311,
    47.561063
   ],
   [
    10.221286,
    47.561073
   ],
   [
    10.221258,
    47.561079
   ],
   [
    10.221229,
    47.561081
   ],
   [
    10.221201,
    47.561078
   ],
   [
    10.221174,
    47.561071
   ],
   [
    10.22115,
    47.56106
   ],
   [
    10.22113,
    47.561045
   ],
   [
    10.221117,
    47.561028
   ],
   [
    10.221109,
    47.561009
   ],
   [
    10.221108,
    47.56099
   ],
   [
    10.221114,
    47.56097
   ],
   [
    10.221123,
    47.560956
   ],
   [
    10.221136,
    47.560943
   ],
   [
    10.221153,
    47.560932
   ],
   [
    10.221172,
    47.560923
   ],
   [
    10.221194,
    47.560916
   ],
   [
    10.221216,
    47.560913
   ],
   [
    10.22123,
    47.56088
   ],
   [
    10.22124,
    47.560843
   ],
   [
    10.221237,
    47.560776
   ],
   [
    10.221217,
    47.560679
   ],
   [
    10.221208,
    47.560629
   ],
   [
    10.221164,
    47.560451
   ],
   [
    10.221139,
    47.560374
   ],
   [
    10.221061,
    47.560102
   ],
   [
    10.221035,
    47.560015
   ],
   [
    10.220956,
    47.559739
   ],
   [
    10.220928,
    47.559642
   ],
   [
    10.220893,
    47.559559
   ],
   [
    10.220834,
    47.55946
   ],
   [
    10.220782,
    47.559405
   ],
   [
    10.220716,
    47.559334
   ],
   [
    10.220693,
    47.559343
   ],
   [
    10.220669,
    47.55935
   ],
   [
    10.220643,
    47.559354
   ],
   [
    10.220616,
    47.559355
   ],
   [
    10.220589,
    47.559353
   ],
   [
    10.220564,
    47.559348
   ],
   [
    10.22054,
    47.55934
   ],
   [
    10.220518,
    47.559329
   ],
   [
    10.220499,
    47.559316
   ],
   [
    10.220477,
    47.559292
   ],
   [
    10.220465,
    47.559265
   ],
   [
    10.220464,
    47.559237
   ],
   [
    10.220474,
    47.559209
   ],
   [
    10.220426,
    47.559185
   ],
   [
    10.220404,
    47.559152
   ],
   [
    10.220377,
    47.559113
   ],
   [
    10.220303,
    47.559002
   ],
   [
    10.22026,
    47.558865
   ],
   [
    10.220178,
    47.5586
   ],
   [
    10.22017,
    47.558556
   ],
   [
    10.220125,
    47.558337
   ],
   [
    10.219758,
    47.558347
   ],
   [
    10.219216,
    47.558409
   ],
   [
    10.218799,
    47.558471
   ],
   [
    10.218583,
    47.558511
   ],
   [
    10.218295,
    47.55855
   ],
   [
    10.218001,
    47.558597
   ],
   [
    10.217334,
    47.558696
   ],
   [
    10.217199,
    47.558711
   ],
   [
    10.216604,
    47.558809
   ],
   [
    10.216706,
    47.558915
   ],
   [
    10.216946,
    47.55887
   ]
  ],
  "type": "LineString"
 },
 "properties": {
  "quelle": "OSRM router.project-osrm.org, Profil driving",
  "von": [
   48.4011,
   9.9876
  ],
  "nach": [
   47.559,
   10.217
  ],
  "distanz_m": 113394.5,
  "dauer_s": 4184.1,
  "punkte": 1634
 }
}
