{"type":"Feature","geometry":{"coordinates":[[10.21695,47.55887],[10.21738,47.55879],[10.21733,47.5587],[10.218,47.5586],[10.21829,47.55855],[10.21858,47.55851],[10.2188,47.55847],[10.21922,47.55841],[10.21976,47.55835],[10.22012,47.55834],[10.22048,47.55834],[10.22092,47.55837],[10.22108,47.55837],[10.22138,47.55836],[10.22158,47.55833],[10.22181,47.55827],[10.22189,47.55825],[10.22242,47.55805],[10.22266,47.55794],[10.22272,47.55792],[10.22292,47.55784],[10.22299,47.55782],[10.22329,47.55776],[10.22354,47.55771],[10.22387,47.55768],[10.22439,47.55768],[10.22466,47.55769],[10.22487,47.55767],[10.22513,47.55763],[10.2256,47.55748],[10.22565,47.55746],[10.22575,47.55743],[10.22592,47.55738],[10.22653,47.55719],[10.2266,47.55716],[10.22754,47.55688],[10.22757,47.55686],[10.22842,47.55655],[10.22891,47.55633],[10.2294,47.55599],[10.22951,47.55592],[10.2297,47.55579],[10.22973,47.55577],[10.23007,47.55553],[10.23037,47.55533],[10.23044,47.55527],[10.23052,47.55521],[10.2309,47.55497],[10.231,47.55491],[10.23107,47.55487],[10.23127,47.55476],[10.23133,47.55473],[10.23144,47.55464],[10.2315,47.5546],[10.23152,47.55458],[10.2315,47.55456],[10.23149,47.55454],[10.23149,47.55452],[10.23149,47.5545],[10.2315,47.55448],[10.23143,47.55443],[10.23131,47.55434],[10.23092,47.55414],[10.2308,47.55404],[10.23069,47.55395],[10.23062,47.55381],[10.23058,47.55365],[10.23053,47.55355],[10.23052,47.55353],[10.23048,47.55346],[10.23046,47.55345],[10.23044,47.55344],[10.23042,47.55343],[10.2304,47.55342],[10.23039,47.5534],[10.23038,47.55338],[10.23038,47.55336],[10.23038,47.55333],[10.2304,47.55331],[10.23042,47.55329],[10.23045,47.55327],[10.23049,47.55326],[10.23053,47.55326],[10.23057,47.55326],[10.23068,47.55322],[10.23085,47.55316],[10.23093,47.55311],[10.23111,47.553],[10.23115,47.55298],[10.2315,47.55282],[10.23165,47.55275],[10.23176,47.55271],[10.2321,47.55259],[10.23242,47.55249],[10.23278,47.55238],[10.23292,47.55233],[10.2333,47.55221],[10.2337,47.55208],[10.23383,47.55203],[10.23403,47.55196],[10.23425,47.55187],[10.23432,47.55185],[10.23512,47.55155],[10.23586,47.55126],[10.23669,47.55098],[10.23686,47.55092],[10.23742,47.5508],[10.2382,47.55067],[10.23874,47.55061],[10.23922,47.55059],[10.23957,47.55059],[10.23978,47.55058],[10.24004,47.55058],[10.2409,47.55058],[10.2419,47.55058],[10.24248,47.55058],[10.24277,47.55058],[10.2432,47.55059],[10.24398,47.55062],[10.245,47.55077],[10.24696,47.55104],[10.24707,47.55106],[10.24753,47.5511],[10.24812,47.55114],[10.24905,47.55117],[10.2491,47.55117],[10.24933,47.55116],[10.25039,47.55102],[10.25168,47.55081],[10.25281,47.55066],[10.25312,47.5506],[10.25336,47.55053],[10.25363,47.55042],[10.25382,47.55029],[10.254,47.55011],[10.25429,47.54964],[10.25458,47.54894],[10.25466,47.54878],[10.2547,47.54869],[10.25479,47.5485],[10.25498,47.54811],[10.25514,47.5477],[10.25547,47.54714],[10.25577,47.54677],[10.2558,47.5467],[10.25584,47.54664],[10.25585,47.54661],[10.25583,47.54659],[10.25582,47.54656],[10.25582,47.54654],[10.25579,47.54652],[10.25563,47.54644],[10.25479,47.54642],[10.25459,47.54641],[10.25428,47.54641],[10.25399,47.54642],[10.25387,47.54644],[10.25383,47.54648],[10.25382,47.54656],[10.25384,47.54674],[10.25382,47.54682],[10.25375,47.54688],[10.25366,47.5469],[10.25351,47.5469]],"type":"LineString"},"properties":{"quelle":"OSRM router.project-osrm.org, Profil driving","von":[47.559,10.217],"nach":[47.54785,10.25316],"distanz_m":3953.1,"dauer_s":346,"punkte":164}}
