{"type":"Feature","geometry":{"coordinates":[[10.22113,47.4411],[10.22113,47.4411],[10.22119,47.44112],[10.22132,47.44115],[10.22157,47.44116],[10.22211,47.44107],[10.22216,47.44117],[10.22217,47.44136],[10.222,47.4416],[10.22202,47.44164],[10.22222,47.44184],[10.22222,47.44192],[10.22219,47.4421],[10.22222,47.44223],[10.22234,47.44236],[10.22253,47.44247],[10.22271,47.4426],[10.22278,47.44262],[10.22285,47.44259],[10.2232,47.4424],[10.22377,47.44224],[10.22382,47.44222],[10.22413,47.44216],[10.22425,47.44218],[10.22435,47.44223],[10.22457,47.44237],[10.22481,47.44253],[10.22503,47.44259],[10.22578,47.44275],[10.22598,47.44284],[10.22612,47.44291],[10.22621,47.44292],[10.22629,47.44288],[10.22633,47.44279],[10.22635,47.4427],[10.22634,47.44251],[10.22631,47.44243],[10.22624,47.44212],[10.22611,47.44179],[10.22608,47.44166],[10.22614,47.44152],[10.22623,47.44138],[10.22641,47.44134],[10.22657,47.44136],[10.22668,47.44143],[10.22675,47.44147],[10.22682,47.44154],[10.22683,47.44169],[10.22669,47.442],[10.22679,47.4422],[10.22689,47.44229],[10.22703,47.44238],[10.22731,47.44248],[10.22751,47.44258],[10.22767,47.44277],[10.22766,47.44311],[10.22768,47.44318],[10.22769,47.44328],[10.2278,47.44334],[10.2279,47.44351],[10.22802,47.44365],[10.22809,47.44378],[10.22812,47.44388],[10.22814,47.44396],[10.22816,47.44425],[10.22824,47.44449],[10.22833,47.44469],[10.22829,47.44477],[10.22823,47.44487],[10.22822,47.44494],[10.22823,47.44506],[10.22827,47.44513],[10.22834,47.44519],[10.22849,47.44524],[10.22866,47.44525],[10.22885,47.44526],[10.22892,47.4453],[10.22894,47.44539],[10.22889,47.44546],[10.2288,47.44557],[10.2286,47.44567],[10.22848,47.44572],[10.22834,47.44574],[10.22826,47.44581],[10.22829,47.44588],[10.22838,47.44593],[10.2285,47.44596],[10.22859,47.44594],[10.22896,47.44588],[10.2292,47.44585],[10.22947,47.44577],[10.22968,47.44563],[10.22974,47.44555],[10.2298,47.44551],[10.22985,47.44548],[10.22993,47.44545],[10.22995,47.44549],[10.22998,47.44556],[10.2301,47.44571],[10.23025,47.44586],[10.23037,47.44599],[10.23046,47.44607],[10.23064,47.44623],[10.23077,47.44639],[10.23086,47.44653],[10.23095,47.44668],[10.23102,47.44678],[10.23106,47.44683],[10.23111,47.4469],[10.23118,47.44696],[10.23133,47.44709],[10.23142,47.44716],[10.23145,47.44719],[10.2316,47.44729],[10.23196,47.44753],[10.23233,47.44786],[10.23262,47.44811],[10.23276,47.44823],[10.23285,47.44832],[10.23331,47.44881],[10.23352,47.44893],[10.23357,47.44895],[10.2338,47.44903],[10.23408,47.44909],[10.23424,47.44912],[10.23493,47.44923],[10.23545,47.44924],[10.23568,47.44924],[10.23592,47.44924],[10.23642,47.44933],[10.23691,47.44947],[10.23721,47.44953],[10.23775,47.44952],[10.23876,47.44939],[10.23897,47.44937],[10.23912,47.44934],[10.23927,47.44933],[10.23937,47.44933],[10.23945,47.44934],[10.23958,47.44938],[10.23967,47.4494],[10.23985,47.44945],[10.24001,47.44952],[10.2402,47.44962],[10.24046,47.44982],[10.24049,47.44985],[10.24059,47.44994],[10.24148,47.45069],[10.24201,47.45114],[10.24228,47.4513],[10.24253,47.45141],[10.24266,47.45146],[10.24307,47.45159],[10.24329,47.45166],[10.24354,47.45175],[10.24376,47.4519],[10.2438,47.45192],[10.24388,47.45198],[10.24405,47.4522],[10.24413,47.45235],[10.24415,47.4524],[10.24425,47.45268],[10.24443,47.45325],[10.24451,47.45351],[10.24466,47.45385],[10.24481,47.45403],[10.24494,47.45414],[10.24499,47.45417],[10.24514,47.45428],[10.24531,47.45438],[10.24558,47.4545],[10.24586,47.45459],[10.24639,47.45474],[10.24676,47.45481],[10.24702,47.45485],[10.24775,47.45497],[10.24815,47.45507],[10.24861,47.45524],[10.24935,47.45554],[10.24958,47.45566],[10.25018,47.45589],[10.25064,47.45604],[10.25105,47.45613],[10.2519,47.45628],[10.25229,47.45635],[10.25295,47.45654],[10.25405,47.4571],[10.25453,47.45735],[10.25498,47.45753],[10.25581,47.45775],[10.25639,47.45791],[10.25755,47.45822],[10.25775,47.45829],[10.25797,47.45837],[10.25809,47.4584],[10.25816,47.45843],[10.25821,47.45844],[10.2585,47.45855],[10.2588,47.45862],[10.25906,47.45868],[10.26031,47.45884],[10.261,47.45897],[10.26256,47.45935],[10.26345,47.45961],[10.2637,47.45968],[10.26505,47.46009],[10.26525,47.46015],[10.26559,47.46022],[10.2658,47.46025],[10.26623,47.46031],[10.26628,47.46032],[10.26666,47.46032],[10.26701,47.46027],[10.26716,47.46026],[10.26718,47.46039],[10.26719,47.46041],[10.26726,47.46078],[10.26735,47.46108],[10.26739,47.46116],[10.26749,47.46142],[10.26766,47.46175],[10.26786,47.46211],[10.26791,47.46221],[10.26803,47.46247],[10.26815,47.46274],[10.26823,47.46297],[10.26833,47.46335],[10.26837,47.46375],[10.26837,47.46409],[10.26815,47.46689],[10.2681,47.46769],[10.26808,47.46793],[10.26804,47.46861],[10.26801,47.46895],[10.268,47.46947],[10.268,47.46957],[10.268,47.46964],[10.268,47.46976],[10.268,47.46992],[10.268,47.47091],[10.268,47.47102],[10.26799,47.47109],[10.26799,47.4714],[10.26798,47.47147],[10.26798,47.47163],[10.26798,47.47193],[10.26797,47.47229],[10.26793,47.47266],[10.26786,47.47298],[10.26779,47.47329],[10.26768,47.4737],[10.2675,47.47421],[10.26719,47.47513],[10.26695,47.47579],[10.2668,47.47626],[10.26678,47.47632],[10.2667,47.47663],[10.26665,47.47691],[10.26659,47.47728],[10.26657,47.4776],[10.26657,47.47787],[10.26659,47.4782],[10.26665,47.47874],[10.26666,47.47905],[10.26666,47.47939],[10.26665,47.47965],[10.26661,47.47985],[10.26633,47.48047],[10.26603,47.48101],[10.26598,47.48118],[10.26596,47.48133],[10.26596,47.4816],[10.26601,47.48192],[10.26609,47.48218],[10.26616,47.48249],[10.26624,47.48284],[10.2663,47.48321],[10.26632,47.48345],[10.26633,47.48369],[10.26633,47.48421],[10.26635,47.48453],[10.26641,47.48476],[10.26653,47.48498],[10.26703,47.48564],[10.26712,47.48585],[10.26718,47.48607],[10.26718,47.48628],[10.26715,47.48648],[10.26701,47.4869],[10.26693,47.48716],[10.26691,47.48738],[10.26692,47.48761],[10.26703,47.48807],[10.26706,47.48836],[10.26702,47.48886],[10.26699,47.48901],[10.26685,47.48985],[10.26666,47.49068],[10.26664,47.49096],[10.26669,47.49122],[10.26675,47.49167],[10.26675,47.4919],[10.2667,47.49308],[10.26666,47.49332],[10.26661,47.49355],[10.26653,47.49378],[10.26614,47.49455],[10.26555,47.49571],[10.2655,47.49583],[10.26548,47.49588],[10.26545,47.49601],[10.26543,47.49618],[10.26543,47.49632],[10.2655,47.49671],[10.26567,47.49757],[10.26586,47.49842],[10.266,47.49905],[10.26612,47.49955],[10.26629,47.50006],[10.26633,47.50015],[10.26641,47.50039],[10.26653,47.50066],[10.26676,47.50111],[10.26692,47.50141],[10.26721,47.50187],[10.2676,47.50243],[10.268,47.50293],[10.26836,47.50332],[10.2686,47.50358],[10.26925,47.50423],[10.26976,47.50476],[10.27008,47.50514],[10.27023,47.50535],[10.27045,47.50565],[10.2706,47.5059],[10.27074,47.50611],[10.27083,47.50626],[10.27096,47.50653],[10.27117,47.507],[10.27139,47.50752],[10.27151,47.508],[10.27159,47.50836],[10.2716,47.50844],[10.27168,47.50888],[10.2717,47.50909],[10.2717,47.50914],[10.27171,47.50945],[10.27171,47.50991],[10.27169,47.51015],[10.27166,47.51065],[10.2716,47.51102],[10.27154,47.51144],[10.27146,47.51195],[10.27135,47.51262],[10.27131,47.51285],[10.27119,47.5135],[10.27106,47.51412],[10.27104,47.5142],[10.27092,47.51475],[10.27082,47.51512],[10.27071,47.51546],[10.27072,47.51565],[10.27061,47.5159],[10.27059,47.51594],[10.27057,47.51599],[10.27048,47.51618],[10.27027,47.51662],[10.27011,47.5169],[10.26992,47.51725],[10.26969,47.51767],[10.26964,47.51778],[10.26956,47.51799],[10.26947,47.51821],[10.26943,47.51833],[10.26941,47.51841],[10.26938,47.51852],[10.26928,47.51889],[10.2692,47.51955],[10.26914,47.52007],[10.26911,47.52053],[10.26898,47.52156],[10.26887,47.52205],[10.26877,47.52241],[10.26867,47.52275],[10.26855,47.52315],[10.26827,47.52415],[10.26819,47.52444],[10.26793,47.5253],[10.26775,47.52598],[10.26761,47.52647],[10.26727,47.52798],[10.2672,47.52826],[10.26712,47.52867],[10.26695,47.52958],[10.26682,47.5305],[10.26677,47.53106],[10.26673,47.53163],[10.26672,47.53252],[10.26674,47.53324],[10.26678,47.53408],[10.26693,47.53556],[10.26704,47.53646],[10.26717,47.53738],[10.26746,47.53919],[10.26756,47.53985],[10.26765,47.54058],[10.26771,47.54131],[10.26772,47.54169],[10.26772,47.54206],[10.26769,47.54236],[10.26764,47.54273],[10.26757,47.54308],[10.26746,47.54351],[10.26731,47.54391],[10.26713,47.5443],[10.26689,47.54473],[10.26654,47.54525],[10.26613,47.54576],[10.26565,47.54626],[10.26534,47.54654],[10.26509,47.54677],[10.26441,47.5473],[10.2638,47.54774],[10.26309,47.54822],[10.26164,47.54919],[10.26058,47.54987],[10.25791,47.55162],[10.25495,47.55357],[10.25355,47.5545],[10.25183,47.55562],[10.25143,47.55588],[10.25118,47.55605],[10.25034,47.5566],[10.24983,47.55693],[10.24945,47.55719],[10.24886,47.55756],[10.24761,47.55839],[10.2467,47.55899],[10.24561,47.55971],[10.24498,47.56014],[10.24454,47.56046],[10.24399,47.56088],[10.24367,47.56115],[10.24319,47.56157],[10.24279,47.56196],[10.24264,47.56212],[10.24246,47.56231],[10.24208,47.56276],[10.24183,47.56311],[10.24164,47.56342],[10.24146,47.56375],[10.24126,47.56421],[10.24113,47.56461],[10.24105,47.56501],[10.241,47.56527],[10.24098,47.56561],[10.24099,47.56602],[10.24103,47.56637],[10.2411,47.5667],[10.24115,47.56691],[10.24126,47.56721],[10.24137,47.56749],[10.2415,47.56777],[10.24166,47.56806],[10.24172,47.56816],[10.24187,47.56839],[10.24211,47.56871],[10.24242,47.56905],[10.24269,47.56933],[10.24292,47.56953],[10.24314,47.56971],[10.2436,47.57005],[10.24394,47.57028],[10.24433,47.57052],[10.2447,47.57072],[10.24513,47.57093],[10.24577,47.5712],[10.24687,47.57172],[10.24737,47.572],[10.24775,47.57226],[10.24809,47.57252],[10.24856,47.57296],[10.24896,47.57339],[10.2492,47.5737],[10.24943,47.57406],[10.24955,47.57429],[10.24969,47.57465],[10.24979,47.57494],[10.24994,47.57581],[10.24995,47.57604],[10.24996,47.57616],[10.24994,47.57632],[10.24989,47.57686],[10.24981,47.57775],[10.24981,47.57815],[10.24983,47.57853],[10.24989,47.57896],[10.24997,47.57928],[10.25007,47.57959],[10.25023,47.58001],[10.2504,47.58035],[10.25061,47.5807],[10.2508,47.58103],[10.25099,47.58129],[10.25108,47.58141],[10.25139,47.58179],[10.25194,47.58242],[10.25253,47.58305],[10.25336,47.58395],[10.25424,47.58488],[10.2571,47.58796],[10.25845,47.5894],[10.2594,47.59041],[10.26068,47.59178],[10.26163,47.59281],[10.26213,47.59334],[10.26255,47.59379],[10.2629,47.59414],[10.26332,47.59455],[10.26369,47.59488],[10.26411,47.59524],[10.26498,47.59591],[10.26594,47.59655],[10.2673,47.59741],[10.26783,47.59777],[10.2687,47.59843],[10.26911,47.59875],[10.26954,47.59914],[10.27026,47.59984],[10.27072,47.60032],[10.27108,47.60074],[10.27133,47.60105],[10.27156,47.60138],[10.27176,47.60167],[10.27198,47.602],[10.27223,47.60242],[10.27251,47.60298],[10.27282,47.60364],[10.273,47.60408],[10.27315,47.60453],[10.27328,47.60501],[10.27334,47.60534],[10.27347,47.606],[10.27364,47.6073],[10.27364,47.60746],[10.27369,47.60806],[10.27374,47.60849],[10.27381,47.60932],[10.27391,47.6103],[10.27396,47.61082],[10.27405,47.61129],[10.27413,47.61171],[10.27422,47.61207],[10.27446,47.61281],[10.27484,47.61383],[10.27501,47.61427],[10.27526,47.61496],[10.27557,47.6159],[10.27571,47.61645],[10.2758,47.61689],[10.27592,47.61757],[10.27594,47.61771],[10.27599,47.61812],[10.27604,47.6186],[10.27618,47.61985],[10.27631,47.62082],[10.27653,47.62212],[10.27668,47.62273],[10.27688,47.62346],[10.27714,47.62429],[10.2773,47.6247],[10.27754,47.62535],[10.27782,47.62601],[10.27824,47.62686],[10.27843,47.62726],[10.27873,47.62782],[10.2792,47.62862],[10.27957,47.62921],[10.27974,47.62949],[10.28032,47.63043],[10.28102,47.63156],[10.28157,47.63244],[10.28205,47.63318],[10.28226,47.63348],[10.28249,47.63378],[10.28289,47.63423],[10.28323,47.63459],[10.28363,47.63499],[10.28439,47.63567],[10.28538,47.63659],[10.28559,47.63679],[10.2858,47.63702],[10.28598,47.63723],[10.28614,47.63746],[10.2863,47.6377],[10.28642,47.63793],[10.28653,47.63815],[10.28665,47.63843],[10.28673,47.63867],[10.28682,47.63903],[10.28689,47.63939],[10.28701,47.64003],[10.28707,47.64027],[10.28716,47.64059],[10.28731,47.64104],[10.28746,47.64136],[10.28757,47.64159],[10.28774,47.64189],[10.28791,47.64217],[10.28807,47.64239],[10.28852,47.64294],[10.28904,47.64349],[10.28933,47.64375],[10.28978,47.6441],[10.28985,47.64415],[10.29039,47.64455],[10.29114,47.64507],[10.29195,47.6456],[10.29278,47.64616],[10.29359,47.64674],[10.29389,47.64699],[10.29413,47.64719],[10.29438,47.64742],[10.29458,47.64761],[10.29481,47.64785],[10.29482,47.64787],[10.29522,47.64837],[10.2953,47.64848],[10.29551,47.64884],[10.29569,47.64921],[10.29577,47.64942],[10.29587,47.64968],[10.29596,47.65013],[10.29601,47.65065],[10.29597,47.65219],[10.296,47.65273],[10.2961,47.65324],[10.29624,47.65365],[10.29642,47.65405],[10.29675,47.65458],[10.29735,47.6554],[10.29774,47.65596],[10.29791,47.65625],[10.29807,47.65654],[10.2982,47.65685],[10.2984,47.65736],[10.29854,47.65787],[10.29861,47.65822],[10.29866,47.65857],[10.29868,47.65915],[10.29868,47.65973],[10.29867,47.66067],[10.2987,47.66135],[10.29875,47.66172],[10.29891,47.6624],[10.29915,47.66328],[10.29924,47.66378],[10.2993,47.66415],[10.2993,47.66472],[10.29925,47.66521],[10.29913,47.6657],[10.29883,47.66644],[10.29868,47.66679],[10.29842,47.66733],[10.29838,47.66742],[10.29826,47.66775],[10.29819,47.66801],[10.29813,47.66835],[10.2981,47.66873],[10.29811,47.6691],[10.29815,47.66933],[10.29825,47.66963],[10.29846,47.67017],[10.29868,47.67054],[10.29895,47.6709],[10.29926,47.67124],[10.29983,47.67173],[10.30017,47.67201],[10.30056,47.67234],[10.3008,47.67259],[10.301,47.67282],[10.30118,47.67307],[10.30135,47.67337],[10.30146,47.67362],[10.30153,47.67383],[10.30161,47.67409],[10.30166,47.67432],[10.30182,47.67529],[10.30187,47.67544],[10.30193,47.67567],[10.30198,47.67583],[10.3021,47.67609],[10.30222,47.67627],[10.30232,47.67642],[10.30255,47.67671],[10.30274,47.67692],[10.30292,47.67709],[10.30349,47.6776],[10.3037,47.67781],[10.3039,47.67802],[10.30411,47.67829],[10.30426,47.67856],[10.30432,47.67867],[10.30437,47.67879],[10.30441,47.67888],[10.30444,47.67896],[10.30452,47.67921],[10.30457,47.67945],[10.30454,47.67961],[10.30466,47.67997],[10.30473,47.68018],[10.30476,47.68028],[10.30482,47.68046],[10.30488,47.68065],[10.30499,47.68091],[10.30508,47.68113],[10.30514,47.68128],[10.30519,47.68141],[10.30523,47.68149],[10.30527,47.68158],[10.3053,47.68166],[10.3054,47.68192],[10.30546,47.68206],[10.30582,47.68282],[10.30593,47.683],[10.30609,47.68318],[10.30631,47.6834],[10.30652,47.6836],[10.30734,47.68418],[10.30747,47.68427],[10.30768,47.68445],[10.30771,47.68447],[10.30778,47.68454],[10.30786,47.68462],[10.30807,47.68484],[10.30822,47.68503],[10.30841,47.68527],[10.30864,47.68565],[10.30873,47.6858],[10.30898,47.6862],[10.30911,47.68636],[10.30922,47.6865],[10.30924,47.68653],[10.30931,47.68663],[10.30936,47.6867],[10.30942,47.68677],[10.3097,47.68715],[10.30979,47.68727],[10.30984,47.68734],[10.31007,47.68767],[10.31035,47.68818],[10.31058,47.6887],[10.31069,47.68912],[10.31072,47.68935],[10.31071,47.68962],[10.3106,47.69043],[10.31058,47.69091],[10.31059,47.69113],[10.3106,47.69132],[10.31077,47.69194],[10.31089,47.69219],[10.31129,47.69295],[10.31135,47.69305],[10.3114,47.69313],[10.31152,47.69333],[10.31155,47.69338],[10.3121,47.69425],[10.31221,47.69456],[10.31227,47.69502],[10.31228,47.69587],[10.31229,47.69602],[10.31231,47.69618],[10.31234,47.69634],[10.31239,47.69647],[10.31245,47.6966],[10.31257,47.69683],[10.31268,47.69704],[10.31279,47.69722],[10.31292,47.69745],[10.31294,47.69751],[10.313,47.69763],[10.31307,47.6978],[10.3131,47.69793],[10.31312,47.69804],[10.31315,47.69826],[10.31315,47.69851],[10.31314,47.69881],[10.31309,47.69923],[10.31298,47.70011],[10.31291,47.70079],[10.31289,47.70112],[10.31288,47.70143],[10.31288,47.70175],[10.31289,47.70196],[10.3129,47.7022],[10.31291,47.70253],[10.31292,47.70267],[10.31292,47.70284],[10.31292,47.70287],[10.31293,47.70318],[10.31291,47.70357],[10.31287,47.70392],[10.31283,47.70417],[10.31281,47.70427],[10.31278,47.70439],[10.31275,47.7045],[10.31259,47.70492],[10.31244,47.70533],[10.31229,47.70588],[10.3121,47.70629],[10.31203,47.70643],[10.31197,47.70656],[10.31189,47.70672],[10.31184,47.70685],[10.31177,47.70712],[10.31174,47.70729],[10.31169,47.70763],[10.3117,47.70799],[10.31172,47.70815],[10.31176,47.7083],[10.31178,47.70834],[10.31192,47.7086],[10.31216,47.70891],[10.31249,47.70927],[10.31271,47.70949],[10.31313,47.70992],[10.31325,47.71004],[10.31344,47.71022],[10.31366,47.71043],[10.31385,47.7106],[10.31405,47.71081],[10.31418,47.71095],[10.31435,47.71117],[10.31446,47.71131],[10.31472,47.7117],[10.31492,47.71211],[10.31508,47.71253],[10.31521,47.71314],[10.31527,47.71375],[10.31526,47.71401],[10.31526,47.71408],[10.31524,47.71417],[10.31519,47.71449],[10.31514,47.71472],[10.31517,47.7148],[10.31518,47.71491],[10.31519,47.71499],[10.31521,47.71504],[10.31525,47.7151],[10.3154,47.71522],[10.31545,47.71528],[10.31592,47.71544],[10.31677,47.71567],[10.31713,47.71574],[10.3172,47.71576],[10.31734,47.71577],[10.31757,47.7158],[10.31778,47.71582],[10.31803,47.71583],[10.31829,47.71583],[10.31863,47.71582],[10.31898,47.71578],[10.31932,47.71572],[10.31964,47.71566],[10.31989,47.71562],[10.32017,47.71556],[10.32035,47.71552],[10.32039,47.71563],[10.32041,47.71569],[10.32041,47.71574],[10.32039,47.71592],[10.32029,47.71604],[10.32024,47.71611],[10.32026,47.71625],[10.32026,47.7163],[10.32031,47.71637],[10.32039,47.71642],[10.32052,47.71648],[10.32062,47.71649],[10.32081,47.71651],[10.32104,47.71654],[10.32114,47.71656],[10.32129,47.71658],[10.32139,47.71661],[10.32144,47.71665],[10.32151,47.71672],[10.32154,47.71679],[10.32156,47.7169],[10.32158,47.71727],[10.32157,47.71773],[10.32156,47.71782],[10.32152,47.71808],[10.32142,47.71843],[10.32163,47.71846],[10.3218,47.71848],[10.32204,47.71845],[10.3219,47.71801]],"type":"LineString"},"properties":{"quelle":"OSRM router.project-osrm.org, Profil driving","von":[47.44151,10.22058],"nach":[47.718,10.322],"distanz_m":36806.4,"dauer_s":2804.2,"punkte":897}}
