{"type":"Feature","geometry":{"coordinates":[[10.21695,47.55887],[10.21738,47.55879],[10.21733,47.5587],[10.2172,47.55871],[10.2166,47.55881],[10.2164,47.55884],[10.21558,47.55895],[10.21547,47.55897],[10.21537,47.55899],[10.21527,47.55903],[10.21519,47.55906],[10.21502,47.55917],[10.21491,47.55923],[10.21469,47.55932],[10.21463,47.55935],[10.21456,47.55937],[10.21432,47.55941],[10.21383,47.55946],[10.21363,47.55949],[10.21339,47.55953],[10.2129,47.55961],[10.21245,47.55968],[10.2122,47.55972],[10.21212,47.55973],[10.21195,47.55981],[10.21186,47.55985],[10.21184,47.55987],[10.21184,47.55989],[10.21184,47.55992],[10.21183,47.55994],[10.21181,47.55996],[10.21179,47.55998],[10.21177,47.56],[10.21176,47.56007],[10.21173,47.56011],[10.21171,47.56014],[10.2117,47.56021],[10.21145,47.56088],[10.21138,47.56112],[10.21138,47.56118],[10.21138,47.56122],[10.21139,47.56127],[10.21142,47.56127],[10.21145,47.56127],[10.21147,47.56127],[10.2115,47.56128],[10.21152,47.56129],[10.21154,47.5613],[10.21156,47.56132],[10.21157,47.56133],[10.21158,47.56135],[10.21159,47.56137],[10.21158,47.56139],[10.21158,47.56141],[10.21157,47.56143],[10.21155,47.56145],[10.21153,47.56146],[10.2115,47.56147],[10.21148,47.56148],[10.21145,47.56149],[10.21142,47.56149],[10.21139,47.56148],[10.21136,47.56148],[10.21133,47.56147],[10.21132,47.56146],[10.21126,47.56151],[10.21123,47.56155],[10.21121,47.56158],[10.2112,47.56161],[10.21111,47.56184],[10.21109,47.56191],[10.21103,47.56208],[10.21097,47.5622],[10.21083,47.56249],[10.21074,47.5626],[10.21038,47.563],[10.21035,47.56302],[10.20979,47.56358],[10.2094,47.56395],[10.20921,47.56413],[10.20904,47.56428],[10.20868,47.56457],[10.20849,47.56471],[10.20796,47.56505],[10.20768,47.56522],[10.20709,47.5655],[10.2064,47.56579],[10.20484,47.56639],[10.20457,47.5665],[10.20435,47.5666],[10.20403,47.56672],[10.20357,47.56691],[10.20309,47.56711],[10.20271,47.5673],[10.20252,47.56741],[10.20233,47.56754],[10.20212,47.56771],[10.20191,47.56796],[10.20177,47.56818],[10.20166,47.56843],[10.20145,47.56907],[10.20104,47.57041],[10.20087,47.57083],[10.20065,47.57142],[10.20046,47.5719],[10.20026,47.57239],[10.2002,47.57251],[10.19997,47.57285],[10.19957,47.57317],[10.19941,47.57331],[10.19928,47.57346],[10.19923,47.57359],[10.19921,47.57373],[10.19922,47.57389],[10.19926,47.57405],[10.19937,47.57433],[10.1994,47.57445],[10.19939,47.57458],[10.19935,47.57479],[10.19927,47.57499],[10.19923,47.57515],[10.19923,47.57519],[10.19925,47.57532],[10.19928,47.57539],[10.19933,47.57546],[10.19939,47.57553],[10.19941,47.57555],[10.19962,47.57569],[10.19978,47.5758],[10.19992,47.57593],[10.20007,47.57607],[10.20015,47.57612],[10.20025,47.57617],[10.20037,47.57621],[10.20047,47.57624],[10.20055,47.57625],[10.20073,47.57627],[10.20103,47.57629],[10.20149,47.57631],[10.20172,47.57637],[10.20192,47.57644],[10.20207,47.57654],[10.20217,47.57665],[10.2022,47.57673],[10.20222,47.57679],[10.20222,47.57695],[10.20219,47.57714],[10.20218,47.57726],[10.20221,47.57738],[10.20226,47.57748],[10.20236,47.57758],[10.20256,47.57772],[10.20279,47.57785],[10.20303,47.57797],[10.20308,47.57799],[10.20321,47.57805],[10.20345,47.57817],[10.20437,47.57868],[10.20448,47.57876],[10.20449,47.57878],[10.20457,47.57886],[10.2046,47.57894],[10.20463,47.57905],[10.2046,47.57925],[10.20449,47.57936],[10.20436,47.57948],[10.2043,47.5795],[10.20418,47.57955],[10.20382,47.57963],[10.20347,47.57969],[10.2032,47.57977],[10.20302,47.57989],[10.20288,47.58005],[10.20278,47.58025],[10.20261,47.58048],[10.20242,47.58064],[10.20224,47.58073],[10.20208,47.58079],[10.20188,47.58085],[10.20173,47.58089],[10.20145,47.58095],[10.20104,47.58109],[10.20083,47.58118],[10.20073,47.58125],[10.20067,47.58129],[10.20051,47.58143],[10.20039,47.5816],[10.20035,47.58168],[10.20031,47.58178],[10.20025,47.58206],[10.2002,47.58226],[10.20015,47.58243],[10.20013,47.58249],[10.2001,47.58256],[10.20001,47.5827],[10.1999,47.58283],[10.19982,47.58293],[10.19963,47.5831],[10.19904,47.58366],[10.1985,47.58416],[10.19768,47.58494],[10.19716,47.58542],[10.19702,47.58555],[10.19684,47.58568],[10.19666,47.58581],[10.19632,47.58602],[10.19589,47.58621],[10.19558,47.58632],[10.19538,47.58638],[10.19512,47.58646],[10.19479,47.58658],[10.19462,47.58664],[10.1944,47.58676],[10.19425,47.58686],[10.19406,47.58701],[10.1938,47.58727],[10.1936,47.58758],[10.19338,47.58798],[10.19316,47.58821],[10.19291,47.5884],[10.1927,47.5885],[10.19239,47.58861],[10.19195,47.5887],[10.19122,47.58879],[10.19084,47.58882],[10.19028,47.58884],[10.19002,47.58884],[10.18973,47.58884],[10.1891,47.58882],[10.18852,47.58878],[10.18788,47.5887],[10.18766,47.58867],[10.18761,47.58866],[10.18699,47.58857],[10.18632,47.58846],[10.18614,47.58842],[10.18602,47.58837],[10.18588,47.58827],[10.18579,47.58818],[10.18571,47.58808],[10.18566,47.58804],[10.1856,47.58801],[10.18553,47.58798],[10.18545,47.58797],[10.18537,47.58798],[10.18531,47.588],[10.18522,47.58806],[10.18518,47.58812],[10.18517,47.58818],[10.18519,47.58826],[10.18525,47.58832],[10.18546,47.58843],[10.18567,47.58855],[10.18578,47.58861],[10.18585,47.58871],[10.18587,47.58877],[10.18588,47.58884],[10.18586,47.58892],[10.18566,47.58922],[10.18563,47.58931],[10.18564,47.58943],[10.18566,47.5895],[10.1857,47.58958],[10.18576,47.58971],[10.18582,47.58988],[10.18583,47.58996],[10.18582,47.59006],[10.18578,47.59014],[10.18572,47.59024],[10.18565,47.5903],[10.1855,47.59043],[10.18531,47.59056],[10.18517,47.59069],[10.18508,47.59082],[10.18498,47.59109],[10.1849,47.59128],[10.18475,47.59146],[10.18454,47.59163],[10.18434,47.59175],[10.18406,47.59186],[10.18366,47.59193],[10.18335,47.59195],[10.1827,47.59193],[10.18186,47.59188],[10.18112,47.59183],[10.18068,47.59178],[10.18036,47.59171],[10.18002,47.59163],[10.17992,47.5916],[10.17973,47.59156],[10.17954,47.59152],[10.17935,47.59149],[10.17915,47.59146],[10.17893,47.59143],[10.17853,47.59142],[10.17827,47.59143],[10.17795,47.59147],[10.17762,47.59153],[10.17729,47.59162],[10.17703,47.59172],[10.17676,47.59185],[10.17639,47.59206],[10.17605,47.59228],[10.17571,47.59244],[10.17536,47.59256],[10.17502,47.59262],[10.17466,47.59265],[10.1745,47.59265],[10.17427,47.59264],[10.17374,47.59258],[10.17296,47.59243],[10.17259,47.59236],[10.17209,47.59231],[10.17135,47.59226],[10.17104,47.59219],[10.17071,47.59209],[10.17037,47.59193],[10.16976,47.59155],[10.16955,47.5914],[10.16941,47.5913],[10.16906,47.59109],[10.16875,47.59093],[10.16832,47.59079],[10.16787,47.59073],[10.16735,47.59071],[10.16658,47.59074],[10.165,47.59079],[10.16445,47.59085],[10.16404,47.59092],[10.16356,47.59101],[10.16326,47.59103],[10.16293,47.59103],[10.16287,47.59103],[10.16279,47.59103],[10.16171,47.59098],[10.1604,47.59092],[10.16009,47.59091],[10.15965,47.59091],[10.15918,47.59094],[10.15868,47.59102],[10.15821,47.59111],[10.15775,47.59125],[10.15764,47.59129],[10.15714,47.59145],[10.15672,47.59157],[10.15649,47.59162],[10.15617,47.59168],[10.15585,47.59172],[10.1554,47.59173],[10.15482,47.59173],[10.15415,47.5917],[10.15366,47.59169],[10.15315,47.59171],[10.15263,47.59175],[10.15216,47.59182],[10.1513,47.59193],[10.15081,47.59198],[10.15038,47.592],[10.1492,47.59203],[10.14813,47.59204],[10.14624,47.59203],[10.14594,47.59203],[10.1456,47.59205],[10.14445,47.59212],[10.14237,47.59225],[10.14159,47.59229],[10.14091,47.59231],[10.14019,47.59234],[10.13892,47.5924],[10.13816,47.59243],[10.13798,47.59244],[10.13739,47.59246],[10.13678,47.59248],[10.13645,47.5925],[10.13608,47.59256],[10.13579,47.59262],[10.13555,47.59268],[10.13508,47.59283],[10.13447,47.59306],[10.13373,47.59336],[10.13326,47.59352],[10.13276,47.59365],[10.13214,47.59376],[10.13181,47.59379],[10.13129,47.59385],[10.13096,47.59391],[10.13063,47.59399],[10.13029,47.59412],[10.12996,47.59425],[10.12982,47.59432],[10.12947,47.59446],[10.1291,47.59465],[10.12886,47.59481],[10.12871,47.59497],[10.12857,47.59516],[10.12855,47.5952],[10.12847,47.59535],[10.12839,47.5958],[10.12833,47.59636],[10.12829,47.59651],[10.12816,47.59682],[10.12797,47.59713],[10.12793,47.5972],[10.12772,47.59753],[10.1277,47.59757],[10.12766,47.59759],[10.12762,47.59761],[10.12757,47.59762],[10.12751,47.59762],[10.12743,47.5976],[10.12712,47.59751],[10.12691,47.59748],[10.12674,47.59746],[10.12647,47.59747],[10.12614,47.59752],[10.12579,47.59762],[10.12545,47.59771],[10.12508,47.5978],[10.12441,47.59792],[10.12367,47.59808],[10.12324,47.59818],[10.12307,47.59823],[10.12269,47.59835],[10.12251,47.5984],[10.12216,47.59852],[10.12203,47.59857],[10.12213,47.5987],[10.12217,47.59875],[10.1223,47.59887],[10.12249,47.59895],[10.12306,47.59912],[10.12376,47.59933],[10.12448,47.59955],[10.12487,47.59967],[10.12511,47.59973],[10.12545,47.59979],[10.1258,47.5998],[10.12609,47.59978],[10.12636,47.59973],[10.12672,47.59962],[10.12754,47.5993],[10.12813,47.59909],[10.12837,47.59903],[10.12862,47.59902],[10.12896,47.59902],[10.12922,47.59904],[10.12951,47.5991],[10.12985,47.59921],[10.13005,47.59931],[10.13015,47.59937],[10.13026,47.59945],[10.13049,47.59963],[10.13088,47.59988],[10.13126,47.60011]],"type":"LineString"},"properties":{"quelle":"OSRM router.project-osrm.org, Profil driving","von":[47.559,10.217],"nach":[47.59997,10.13144],"distanz_m":11697,"dauer_s":780.7,"punkte":454}}
