{"type":"Feature","geometry":{"coordinates":[[10.415,47.59859],[10.41502,47.59866],[10.41546,47.59882],[10.41524,47.59911],[10.41501,47.5994],[10.41493,47.59949],[10.41488,47.59954],[10.41469,47.59976],[10.41467,47.59979],[10.41443,47.60008],[10.41413,47.60026],[10.41381,47.60039],[10.41366,47.60047],[10.41343,47.60068],[10.41315,47.60103],[10.4138,47.6009],[10.41452,47.60071],[10.41477,47.60145],[10.41491,47.60189],[10.41501,47.60216],[10.41527,47.60213],[10.4168,47.60198],[10.41758,47.60189],[10.41774,47.60189],[10.41833,47.60187],[10.41896,47.60191],[10.41959,47.60195],[10.41988,47.60193],[10.42007,47.60189],[10.42021,47.60185],[10.42034,47.6018],[10.42049,47.6017],[10.42069,47.60189],[10.42077,47.60198],[10.4213,47.60244],[10.42156,47.60266],[10.42226,47.6032],[10.42258,47.60344],[10.4242,47.60469],[10.42593,47.60601],[10.42686,47.60672],[10.4278,47.60746],[10.42869,47.60822],[10.42992,47.60934],[10.43056,47.60997],[10.4312,47.61065],[10.43167,47.61118],[10.43215,47.61176],[10.43302,47.61288],[10.43339,47.61338],[10.43419,47.61445],[10.43502,47.61553],[10.43549,47.61611],[10.43583,47.6165],[10.43656,47.61733],[10.43742,47.61824],[10.43801,47.61882],[10.43867,47.61946],[10.43921,47.61996],[10.43988,47.62054],[10.44113,47.62161],[10.44129,47.62174],[10.44153,47.62193],[10.44182,47.62216],[10.44217,47.62243],[10.44294,47.62299],[10.44417,47.62384],[10.44544,47.62468],[10.4472,47.62573],[10.44837,47.62634],[10.44977,47.62698],[10.45137,47.62767],[10.45191,47.62793],[10.45242,47.6282],[10.45294,47.6285],[10.45343,47.62882],[10.45361,47.62893],[10.45466,47.62972],[10.45588,47.63077],[10.45607,47.63092],[10.45637,47.63118],[10.45761,47.63222],[10.45812,47.63265],[10.45814,47.63266],[10.45822,47.63264],[10.45831,47.63264],[10.45839,47.63266],[10.45846,47.6327],[10.45849,47.63274],[10.4585,47.63278],[10.45849,47.63283],[10.45847,47.63288],[10.45842,47.63291],[10.45845,47.63293],[10.45909,47.63341],[10.45949,47.63364],[10.45981,47.63378],[10.46016,47.63392],[10.46042,47.634],[10.46067,47.63408],[10.46089,47.63414],[10.46114,47.63419],[10.46134,47.63423],[10.46186,47.63431],[10.46229,47.63435],[10.46284,47.63438],[10.46378,47.63443],[10.4641,47.63447],[10.46442,47.63452],[10.46486,47.63461],[10.46545,47.63476],[10.46592,47.63494],[10.46637,47.63514],[10.46674,47.63537],[10.46731,47.63577],[10.46755,47.63594],[10.46764,47.636],[10.46768,47.63602],[10.46773,47.63601],[10.46779,47.63601],[10.46785,47.63602],[10.4679,47.63603],[10.46794,47.63605],[10.46798,47.63608],[10.46801,47.63611],[10.46803,47.63614],[10.46804,47.63616],[10.46804,47.63621],[10.46804,47.63625],[10.46802,47.63628],[10.46799,47.63631],[10.46798,47.63636],[10.46814,47.63664],[10.4684,47.63699],[10.46861,47.63731],[10.46883,47.63767],[10.46912,47.63834],[10.46928,47.63892],[10.46937,47.63952],[10.46939,47.64005],[10.46935,47.64054],[10.4692,47.64122],[10.46902,47.64175],[10.46889,47.64203],[10.46874,47.64231],[10.46856,47.64261],[10.46836,47.6429],[10.4679,47.64346],[10.46744,47.64398],[10.46648,47.64508],[10.4646,47.64721],[10.46442,47.64741],[10.4641,47.64782],[10.46388,47.64817],[10.46373,47.64846],[10.46363,47.64867],[10.46351,47.649],[10.46342,47.64939],[10.46339,47.6498],[10.46341,47.65014],[10.46343,47.65034],[10.46353,47.65073],[10.46368,47.65113],[10.46386,47.65148],[10.46402,47.65177],[10.46421,47.65205],[10.4643,47.65217],[10.46448,47.65244],[10.46472,47.6528],[10.46506,47.65331],[10.46532,47.65372],[10.46568,47.65422],[10.46588,47.65448],[10.46603,47.65455],[10.46612,47.65459],[10.46623,47.65461],[10.46633,47.65463],[10.46647,47.65463],[10.46665,47.65453],[10.46708,47.65426],[10.4673,47.65406],[10.4674,47.65396],[10.46742,47.6538],[10.4674,47.65369],[10.46734,47.65359],[10.46723,47.6535],[10.46709,47.65344],[10.46695,47.65341],[10.46647,47.65337],[10.46612,47.65343],[10.46504,47.65359],[10.46326,47.65381],[10.46233,47.65391],[10.46112,47.65401],[10.45974,47.65411],[10.45911,47.65414],[10.45848,47.65417],[10.45748,47.6542],[10.45586,47.65422],[10.45405,47.65422],[10.45057,47.6542],[10.44853,47.65417],[10.44794,47.65416],[10.44768,47.65416],[10.4469,47.65415],[10.44563,47.65416],[10.44435,47.65418],[10.44333,47.65422],[10.44245,47.65425],[10.44161,47.65431],[10.44076,47.65437],[10.43943,47.65451],[10.43899,47.65455],[10.43858,47.6546],[10.43759,47.65474],[10.4366,47.6549],[10.43555,47.65509],[10.43454,47.6553],[10.43398,47.65544],[10.43332,47.6556],[10.43202,47.65594],[10.43138,47.65613],[10.43074,47.65632],[10.42959,47.65671],[10.42898,47.65693],[10.42832,47.65718],[10.42779,47.65739],[10.42727,47.6576],[10.42641,47.65798],[10.42601,47.65816],[10.42523,47.65853],[10.42432,47.65899],[10.42394,47.65919],[10.42308,47.65968],[10.42244,47.66006],[10.42208,47.66028],[10.42192,47.66038],[10.42144,47.66069],[10.4207,47.6612],[10.42,47.66171],[10.41975,47.6619],[10.41893,47.66257],[10.41799,47.66339],[10.41791,47.66347],[10.4174,47.66396],[10.41658,47.66481],[10.41586,47.66564],[10.41553,47.66605],[10.41537,47.66625],[10.41455,47.66737],[10.41385,47.6685],[10.41306,47.66978],[10.41249,47.67066],[10.41188,47.67153],[10.41147,47.67202],[10.41114,47.67238],[10.41078,47.67274],[10.41039,47.67309],[10.40972,47.67363],[10.40898,47.67415],[10.40868,47.67434],[10.40793,47.67478],[10.40715,47.67516],[10.40634,47.67553],[10.40551,47.67584],[10.40454,47.67615],[10.40307,47.6765],[10.40221,47.67666],[10.40162,47.67675],[10.4007,47.67686],[10.3998,47.67691],[10.39889,47.67693],[10.39784,47.67691],[10.39699,47.67686],[10.39601,47.67675],[10.39567,47.6767],[10.39478,47.67656],[10.39396,47.67641],[10.39301,47.67614],[10.3915,47.67567],[10.39044,47.67533],[10.38998,47.6752],[10.38946,47.67507],[10.38889,47.67495],[10.38855,47.67488],[10.38807,47.67481],[10.38768,47.67476],[10.38727,47.67471],[10.38684,47.67467],[10.38673,47.67466],[10.38617,47.67462],[10.38585,47.6746],[10.3848,47.6746],[10.38379,47.67464],[10.38271,47.67475],[10.38155,47.67492],[10.38067,47.67512],[10.37986,47.67533],[10.37923,47.67554],[10.37855,47.67578],[10.37818,47.67594],[10.37768,47.67614],[10.37683,47.67656],[10.37602,47.67705],[10.37548,47.67742],[10.37492,47.67786],[10.37428,47.67842],[10.37358,47.67906],[10.37302,47.67966],[10.3723,47.68049],[10.37198,47.68089],[10.37129,47.68174],[10.37074,47.68248],[10.37078,47.68255],[10.37058,47.68292],[10.37045,47.68317],[10.37006,47.68379],[10.36971,47.68438],[10.36937,47.68495],[10.36908,47.68548],[10.36863,47.68633],[10.36846,47.68672],[10.36829,47.6871],[10.368,47.68775],[10.36798,47.68781],[10.36801,47.68818],[10.36806,47.68829],[10.36813,47.68839],[10.36824,47.68848],[10.36841,47.68854],[10.36859,47.68858],[10.36879,47.68859],[10.36898,47.68856],[10.36915,47.68849],[10.36928,47.68841],[10.36937,47.68832],[10.36941,47.68823],[10.36944,47.68814],[10.36943,47.68802],[10.3694,47.68791],[10.36932,47.68781],[10.3692,47.68773],[10.36909,47.68767],[10.36894,47.68761],[10.36877,47.6876],[10.36861,47.68759],[10.36703,47.68766],[10.36543,47.6877],[10.36372,47.68768],[10.36334,47.68767],[10.36295,47.68765],[10.36214,47.68762],[10.36152,47.6876],[10.35979,47.68752],[10.35852,47.68746],[10.35751,47.68741],[10.35635,47.68736],[10.35502,47.68727],[10.35369,47.68718],[10.35286,47.68711],[10.35109,47.68694],[10.3491,47.68671],[10.34859,47.68666],[10.3471,47.68646],[10.3457,47.68626],[10.34368,47.68594],[10.34172,47.68558],[10.33575,47.68444],[10.33516,47.68433],[10.33471,47.68424],[10.33264,47.68388],[10.33235,47.68389],[10.33211,47.68387],[10.33172,47.68389],[10.33151,47.68391],[10.33134,47.68393],[10.33114,47.68398],[10.33078,47.68411],[10.33046,47.68423],[10.33018,47.68431],[10.32999,47.68434],[10.32979,47.68436],[10.32951,47.68437],[10.32885,47.68433],[10.32865,47.68431],[10.32864,47.68434],[10.32856,47.68465],[10.32835,47.68546],[10.32822,47.68598],[10.32816,47.68618],[10.32783,47.6873],[10.32779,47.6875],[10.32776,47.68767],[10.32767,47.6881],[10.32764,47.68841],[10.32766,47.68865],[10.32775,47.689],[10.32785,47.68923],[10.32794,47.68937],[10.32821,47.68979],[10.32832,47.69005],[10.32833,47.69015],[10.32843,47.69017],[10.3285,47.6902],[10.32854,47.69025],[10.32856,47.6903],[10.32854,47.69035],[10.32851,47.69039],[10.32861,47.69046],[10.32892,47.69073],[10.32918,47.69099],[10.3294,47.69114],[10.32971,47.69132],[10.32994,47.69143],[10.33013,47.69151],[10.33078,47.69172],[10.33118,47.69192],[10.3314,47.69204],[10.3316,47.69218],[10.33179,47.69233],[10.33211,47.69265],[10.33226,47.69284],[10.33239,47.69305],[10.3325,47.69326],[10.33267,47.69377],[10.33274,47.69399],[10.33282,47.69428],[10.3329,47.69453],[10.33292,47.69463],[10.33298,47.69463],[10.33304,47.69464],[10.33309,47.69466],[10.33313,47.69469],[10.33316,47.69472],[10.33316,47.69476],[10.33315,47.69481],[10.33312,47.69485],[10.33307,47.69488],[10.33301,47.6949],[10.33303,47.69514],[10.33303,47.69535],[10.333,47.69571],[10.33286,47.6961],[10.33271,47.69639],[10.33247,47.69671],[10.33213,47.69708],[10.3318,47.69745],[10.33164,47.69766],[10.33153,47.69782],[10.3314,47.69806],[10.33134,47.69815],[10.33121,47.69848],[10.33106,47.69893],[10.331,47.69937],[10.33099,47.69949],[10.33099,47.69969],[10.33099,47.69988],[10.33104,47.70015],[10.33111,47.70042],[10.33122,47.70068],[10.33132,47.70087],[10.3314,47.701],[10.33172,47.70134],[10.33192,47.70151],[10.33208,47.70163],[10.33245,47.70185],[10.33315,47.70227],[10.33402,47.70292],[10.33412,47.703],[10.33464,47.70342],[10.33506,47.70376],[10.33595,47.70441],[10.33635,47.70476],[10.33646,47.70485],[10.33657,47.70489],[10.33662,47.70487],[10.3367,47.70485],[10.33678,47.70486],[10.33682,47.70487],[10.33684,47.70488],[10.33687,47.70489],[10.33691,47.70493],[10.33695,47.705],[10.33695,47.70503],[10.33694,47.70507],[10.33691,47.7051],[10.33685,47.70514],[10.33674,47.70517],[10.33665,47.70517],[10.3366,47.70515],[10.33656,47.70523],[10.33643,47.70539],[10.33635,47.70552],[10.3361,47.706],[10.33566,47.70682],[10.33543,47.70711],[10.33516,47.7074],[10.335,47.70755],[10.33498,47.70757],[10.3346,47.70784],[10.33454,47.70788],[10.33435,47.70798],[10.33431,47.70801],[10.33268,47.70871],[10.33207,47.70895],[10.33168,47.70914],[10.33159,47.70918],[10.33146,47.70924],[10.3312,47.70938],[10.33106,47.70948],[10.33084,47.70965],[10.33062,47.70985],[10.33055,47.70991],[10.33042,47.71005],[10.33031,47.71017],[10.3302,47.71028],[10.33014,47.71034],[10.33008,47.71041],[10.32999,47.7105],[10.32985,47.71065],[10.32955,47.71097],[10.32949,47.71102],[10.32939,47.71115],[10.32932,47.71124],[10.32922,47.71139],[10.32919,47.71144],[10.32915,47.71153],[10.32912,47.71161],[10.3291,47.71167],[10.32892,47.71238],[10.32884,47.71261],[10.32876,47.7128],[10.32871,47.7129],[10.32841,47.71332],[10.32836,47.71339],[10.3281,47.71376],[10.32802,47.71391],[10.32794,47.71404],[10.32783,47.71426],[10.32774,47.71442],[10.32763,47.71454],[10.32747,47.71464],[10.3274,47.71467],[10.32658,47.71493],[10.32651,47.71496],[10.32643,47.71499],[10.32636,47.71504],[10.32632,47.71509],[10.32629,47.71513],[10.32626,47.7152],[10.32623,47.71531],[10.32619,47.71541],[10.32617,47.71547],[10.32613,47.71552],[10.32608,47.71558],[10.32601,47.71565],[10.32598,47.71572],[10.32598,47.71578],[10.32602,47.71585],[10.3261,47.71591],[10.32625,47.71595],[10.32647,47.71606],[10.32666,47.71617],[10.32686,47.71627],[10.32692,47.7163],[10.32704,47.71636],[10.32713,47.7164],[10.32727,47.71642],[10.3274,47.71641],[10.32748,47.71637],[10.32751,47.71634],[10.32755,47.71628],[10.32754,47.71618],[10.32747,47.71609],[10.32727,47.71598],[10.32707,47.71594],[10.32665,47.71586],[10.32634,47.7158],[10.32536,47.71562],[10.32498,47.71555],[10.32446,47.71544],[10.32372,47.71531],[10.32349,47.71527],[10.3234,47.71526],[10.32296,47.7152],[10.32272,47.7152],[10.32155,47.71536],[10.32128,47.71541],[10.32099,47.71549],[10.32083,47.71553],[10.32061,47.71567],[10.32051,47.71578],[10.32047,47.71587],[10.32039,47.71592],[10.32029,47.71604],[10.32024,47.71611],[10.32026,47.71625],[10.32026,47.7163],[10.32031,47.71637],[10.32039,47.71642],[10.32052,47.71648],[10.32062,47.71649],[10.32081,47.71651],[10.32104,47.71654],[10.32114,47.71656],[10.32129,47.71658],[10.32139,47.71661],[10.32144,47.71665],[10.32151,47.71672],[10.32154,47.71679],[10.32156,47.7169],[10.32158,47.71727],[10.32157,47.71773],[10.32156,47.71782],[10.32152,47.71808],[10.32142,47.71843],[10.32163,47.71846],[10.3218,47.71848],[10.32204,47.71845],[10.3219,47.71801]],"type":"LineString"},"properties":{"quelle":"OSRM router.project-osrm.org, Profil driving","von":[47.59823,10.41456],"nach":[47.718,10.322],"distanz_m":27054.2,"dauer_s":1414.8,"punkte":620}}
