{"type":"Feature","geometry":{"coordinates":[[10.21695,47.55887],[10.21738,47.55879],[10.21733,47.5587],[10.218,47.5586],[10.21829,47.55855],[10.21858,47.55851],[10.2188,47.55847],[10.21922,47.55841],[10.21976,47.55835],[10.22012,47.55834],[10.22048,47.55834],[10.22092,47.55837],[10.22108,47.55837],[10.22138,47.55836],[10.22158,47.55833],[10.22181,47.55827],[10.22189,47.55825],[10.22242,47.55805],[10.22266,47.55794],[10.22272,47.55792],[10.22292,47.55784],[10.22299,47.55782],[10.22329,47.55776],[10.22354,47.55771],[10.22387,47.55768],[10.22439,47.55768],[10.22466,47.55769],[10.22487,47.55767],[10.22513,47.55763],[10.2256,47.55748],[10.22565,47.55746],[10.22575,47.55743],[10.22592,47.55738],[10.22653,47.55719],[10.2266,47.55716],[10.22754,47.55688],[10.22757,47.55686],[10.22842,47.55655],[10.22891,47.55633],[10.2294,47.55599],[10.22951,47.55592],[10.2297,47.55579],[10.22973,47.55577],[10.23007,47.55553],[10.23037,47.55533],[10.23044,47.55527],[10.23052,47.55521],[10.2309,47.55497],[10.231,47.55491],[10.23107,47.55487],[10.23127,47.55476],[10.23133,47.55473],[10.23144,47.55464],[10.2315,47.5546],[10.23152,47.55458],[10.2315,47.55456],[10.23149,47.55454],[10.23149,47.55452],[10.23149,47.5545],[10.2315,47.55448],[10.23151,47.55446],[10.23153,47.55444],[10.23157,47.55442],[10.23161,47.55441],[10.23165,47.55441],[10.23168,47.55441],[10.23171,47.55442],[10.23174,47.55443],[10.23177,47.55444],[10.23179,47.55446],[10.23181,47.55448],[10.23182,47.55451],[10.23182,47.55453],[10.23193,47.55462],[10.23201,47.5547],[10.23249,47.55492],[10.2327,47.55503],[10.23273,47.55504],[10.23386,47.55559],[10.23423,47.55574],[10.23428,47.55575],[10.23457,47.55584],[10.2349,47.55591],[10.2353,47.55598],[10.23587,47.55603],[10.23621,47.55605],[10.23635,47.55606],[10.23668,47.55606],[10.23726,47.55603],[10.2378,47.55597],[10.23841,47.55586],[10.23884,47.55576],[10.239,47.55571],[10.23975,47.55546],[10.24047,47.55519],[10.24107,47.55497],[10.24166,47.55477],[10.24217,47.55464],[10.24276,47.55453],[10.24325,47.55449],[10.24372,47.55448],[10.24403,47.55449],[10.24434,47.55452],[10.24473,47.55456],[10.24516,47.55465],[10.24536,47.55469],[10.24559,47.55476],[10.24615,47.55497],[10.24657,47.55516],[10.24706,47.55545],[10.24752,47.55584],[10.24776,47.55615],[10.2479,47.55631],[10.24797,47.55636],[10.24805,47.55643],[10.24808,47.55646],[10.24814,47.55646],[10.24822,47.55647],[10.24827,47.55649],[10.2483,47.55651],[10.24851,47.55644],[10.2487,47.5564],[10.24889,47.55638],[10.24905,47.5564],[10.24921,47.55647],[10.24949,47.55661],[10.24963,47.55666],[10.24973,47.55666],[10.24987,47.55665],[10.25019,47.55655],[10.25077,47.55616],[10.25113,47.55594],[10.25277,47.55485],[10.25511,47.55332],[10.25553,47.55305],[10.25758,47.55169],[10.25911,47.55069],[10.26146,47.54915],[10.26292,47.54819],[10.26365,47.54768],[10.26427,47.54725],[10.26494,47.54672],[10.26551,47.54621],[10.26597,47.54575],[10.2664,47.54522],[10.2667,47.54478],[10.26701,47.54424],[10.26719,47.54382],[10.26731,47.54348],[10.26741,47.54312],[10.26749,47.54274],[10.26754,47.54235],[10.26756,47.54205],[10.26756,47.54132],[10.2675,47.54062],[10.2674,47.53986],[10.2673,47.5392],[10.26702,47.53737],[10.26689,47.53642],[10.26678,47.53556],[10.26662,47.53407],[10.26658,47.53324],[10.26656,47.53251],[10.26657,47.53164],[10.26667,47.53053],[10.26679,47.52959],[10.26695,47.52869],[10.26705,47.52824],[10.2671,47.52801],[10.26745,47.52648],[10.26759,47.52598],[10.26802,47.52445],[10.26811,47.52413],[10.26839,47.52316],[10.26858,47.52251],[10.26867,47.52219],[10.26872,47.52198],[10.26881,47.52161],[10.26884,47.52144],[10.26889,47.52117],[10.26892,47.5209],[10.26895,47.52055],[10.26899,47.52015],[10.26891,47.51984],[10.26888,47.51973],[10.26885,47.51967],[10.26882,47.51962],[10.26879,47.51957],[10.26875,47.51953],[10.26871,47.5195],[10.2687,47.51949],[10.26868,47.51947],[10.26864,47.51946],[10.2686,47.51944],[10.26856,47.51942],[10.26852,47.5194],[10.26848,47.51939],[10.26837,47.51937],[10.26828,47.51936],[10.26818,47.51936],[10.26809,47.51937],[10.268,47.51939],[10.26793,47.51941],[10.26789,47.51943],[10.26786,47.51945],[10.26784,47.51946],[10.26778,47.51949],[10.26769,47.51954],[10.26765,47.51961],[10.26763,47.51967],[10.26763,47.51971],[10.26763,47.51975],[10.26766,47.5198],[10.26769,47.51983],[10.26775,47.5199],[10.26781,47.51993],[10.26787,47.51995],[10.26793,47.51997],[10.26799,47.52001],[10.26802,47.52006],[10.2681,47.52012],[10.26816,47.52014],[10.26824,47.52018],[10.26831,47.52023],[10.26841,47.52024],[10.26853,47.52026],[10.26864,47.52028],[10.26871,47.52028],[10.26875,47.52028],[10.2691,47.5203],[10.26935,47.5203],[10.26945,47.52031],[10.26969,47.52031],[10.27088,47.52033],[10.27104,47.52034],[10.27142,47.52035],[10.27194,47.52036],[10.27218,47.52036],[10.2725,47.52038],[10.27291,47.52039],[10.27416,47.52041],[10.27447,47.52042],[10.27506,47.52043],[10.27548,47.52044],[10.27577,47.52043],[10.27667,47.52041],[10.27669,47.52041],[10.27731,47.52038],[10.27774,47.52033],[10.27808,47.52028],[10.27872,47.52019],[10.27884,47.52017],[10.27917,47.5201],[10.28076,47.5198],[10.28128,47.5197],[10.28138,47.51968],[10.28143,47.51967],[10.28159,47.51955],[10.28167,47.5194],[10.28167,47.51918],[10.28151,47.51879],[10.28121,47.51886]],"type":"LineString"},"properties":{"quelle":"OSRM router.project-osrm.org, Profil driving","von":[47.559,10.217],"nach":[47.51885,10.2812],"distanz_m":8837.7,"dauer_s":532,"punkte":262}}
