{"type":"Feature","geometry":{"coordinates":[[10.33624,47.41171],[10.33625,47.4117],[10.33624,47.41168],[10.33612,47.41161],[10.33595,47.41148],[10.33588,47.41145],[10.33582,47.41142],[10.33581,47.41141],[10.33581,47.41139],[10.33583,47.41137],[10.33589,47.41136],[10.33596,47.41136],[10.33606,47.41135],[10.33614,47.41134],[10.3365,47.41128],[10.33676,47.41126],[10.33689,47.41125],[10.337,47.41123],[10.33704,47.41121],[10.33706,47.41119],[10.33705,47.41117],[10.33701,47.41114],[10.33686,47.41107],[10.33667,47.41095],[10.33632,47.41078],[10.33598,47.41059],[10.33555,47.41038],[10.33551,47.41036],[10.33545,47.41035],[10.33521,47.41033],[10.33502,47.41031],[10.33481,47.41027],[10.33458,47.4102],[10.3345,47.41019],[10.33447,47.41018],[10.33446,47.41016],[10.33446,47.41014],[10.33447,47.41013],[10.3345,47.41011],[10.33463,47.41006],[10.33473,47.41002],[10.33487,47.40991],[10.33493,47.40987],[10.33496,47.40984],[10.33496,47.4098],[10.33493,47.40977],[10.33488,47.40973],[10.33441,47.40958],[10.33413,47.40946],[10.33392,47.40936],[10.33328,47.40906],[10.33311,47.40901],[10.33283,47.40894],[10.33184,47.40872],[10.33096,47.40858],[10.33051,47.40855],[10.32997,47.40857],[10.32944,47.40854],[10.32914,47.40853],[10.32884,47.40849],[10.32799,47.40846],[10.32777,47.40848],[10.32693,47.40858],[10.32666,47.4086],[10.32631,47.40861],[10.32576,47.4086],[10.32549,47.40861],[10.32526,47.40862],[10.32502,47.40866],[10.32493,47.40867],[10.32485,47.40867],[10.32479,47.40864],[10.32474,47.40861],[10.32465,47.40852],[10.32459,47.40848],[10.32432,47.40836],[10.32424,47.40831],[10.32416,47.40828],[10.32406,47.40825],[10.32396,47.40824],[10.32387,47.40823],[10.32367,47.40824],[10.32362,47.40824],[10.32357,47.40823],[10.32353,47.40823],[10.32349,47.4082],[10.32344,47.40816],[10.32332,47.40801],[10.3233,47.408],[10.32327,47.40798],[10.32323,47.40798],[10.32319,47.40798],[10.32304,47.408],[10.32295,47.40801],[10.32278,47.40809],[10.32268,47.40815],[10.32247,47.40828],[10.32225,47.40845],[10.32218,47.4085],[10.32202,47.40862],[10.32197,47.40865],[10.32191,47.40867],[10.32184,47.4087],[10.32175,47.40872],[10.32127,47.4088],[10.32096,47.40881],[10.32062,47.40882],[10.32042,47.40882],[10.31995,47.40884],[10.31982,47.40884],[10.31956,47.40881],[10.31939,47.40881],[10.31911,47.40884],[10.3189,47.40886],[10.31882,47.40888],[10.31871,47.40889],[10.31855,47.40889],[10.31794,47.40895],[10.31774,47.40897],[10.31759,47.40897],[10.31742,47.40895],[10.31706,47.40892],[10.31689,47.4089],[10.31681,47.40888],[10.31672,47.40886],[10.3165,47.40879],[10.31625,47.40871],[10.31572,47.40851],[10.31558,47.40846],[10.31549,47.40844],[10.31542,47.40843],[10.31533,47.40842],[10.31512,47.40841],[10.31501,47.4084],[10.31487,47.40838],[10.31465,47.40834],[10.31458,47.40833],[10.31453,47.40832],[10.31449,47.40833],[10.31441,47.40835],[10.31431,47.40839],[10.31426,47.40841],[10.31414,47.40846],[10.31403,47.40848],[10.31377,47.40844],[10.31358,47.40838],[10.31334,47.40832],[10.31315,47.40824],[10.31292,47.40814],[10.31284,47.40808],[10.3128,47.408],[10.31278,47.4078],[10.31277,47.40771],[10.31267,47.40762],[10.31229,47.40733],[10.31217,47.40715],[10.31214,47.40711],[10.31212,47.40703],[10.31207,47.40689],[10.31201,47.40682],[10.31191,47.40679],[10.31172,47.40679],[10.31128,47.4068],[10.31113,47.40679],[10.31102,47.40675],[10.3109,47.40664],[10.31071,47.40654],[10.31057,47.40652],[10.31024,47.40652],[10.30948,47.40663],[10.30936,47.40662],[10.30921,47.40661],[10.309,47.40655],[10.30851,47.4064],[10.30795,47.40628],[10.30788,47.40629],[10.30782,47.40631],[10.30781,47.40635],[10.30786,47.40656],[10.30785,47.40661],[10.30781,47.40666],[10.30769,47.40671],[10.30761,47.40673],[10.30752,47.40673],[10.30744,47.40673],[10.30726,47.4067],[10.30722,47.40671],[10.30717,47.40676],[10.30708,47.40714],[10.30704,47.40718],[10.30697,47.4072],[10.3067,47.40723],[10.3066,47.40726],[10.30655,47.40731],[10.30643,47.40757],[10.30643,47.40771],[10.30647,47.40783],[10.30662,47.40797],[10.30692,47.4082],[10.307,47.40823],[10.30713,47.40825],[10.30741,47.40827],[10.30745,47.4083],[10.30747,47.40836],[10.30744,47.40841],[10.30738,47.40849],[10.3072,47.40857],[10.30696,47.4086],[10.30681,47.40861],[10.30676,47.40862],[10.3065,47.40867],[10.30639,47.4087],[10.30615,47.4087],[10.30598,47.40867],[10.30576,47.40857],[10.30557,47.40852],[10.30452,47.40841],[10.30434,47.4084],[10.30426,47.40845],[10.30421,47.40855],[10.30409,47.4086],[10.304,47.40857],[10.30395,47.40838],[10.30379,47.40829],[10.30369,47.40827],[10.30358,47.40832],[10.30353,47.4084],[10.30349,47.40845],[10.3034,47.40851],[10.30332,47.4085],[10.30312,47.40839],[10.30301,47.40838],[10.30295,47.40837],[10.30157,47.40828],[10.30047,47.40816],[10.30013,47.40826],[10.29972,47.40841],[10.29955,47.40858],[10.2994,47.40885],[10.29939,47.40901],[10.29939,47.40903],[10.29933,47.4091],[10.29929,47.40911],[10.29924,47.4091],[10.29918,47.40906],[10.29894,47.40877],[10.29885,47.40863],[10.29884,47.40851],[10.29888,47.40829],[10.29883,47.40824],[10.29859,47.40783],[10.2985,47.40778],[10.29837,47.4078],[10.29833,47.40788],[10.29835,47.40792],[10.29841,47.40812],[10.29833,47.40826],[10.29816,47.40839],[10.29789,47.40856],[10.29781,47.4087],[10.29773,47.40886],[10.29771,47.40915],[10.29775,47.4093],[10.29778,47.40947],[10.29769,47.40977],[10.29761,47.4098],[10.29753,47.40978],[10.29742,47.40958],[10.29732,47.40944],[10.29699,47.40893],[10.2967,47.40852],[10.29669,47.40844],[10.29681,47.40835],[10.29684,47.40828],[10.29675,47.4082],[10.29658,47.40817],[10.29639,47.40814],[10.29628,47.40805],[10.29624,47.40775],[10.29625,47.40755],[10.29627,47.40745],[10.2963,47.4074],[10.29633,47.40736],[10.29643,47.40727],[10.29651,47.40723],[10.29681,47.40711],[10.29688,47.40707],[10.29692,47.40703],[10.29703,47.40684],[10.29704,47.40675],[10.29703,47.4067],[10.29701,47.40667],[10.29694,47.40664],[10.29671,47.40666],[10.2965,47.4067],[10.29616,47.40678],[10.29588,47.40687],[10.29583,47.40689],[10.2958,47.4069],[10.29575,47.40695],[10.29574,47.40699],[10.29575,47.40708],[10.29575,47.40717],[10.29571,47.40727],[10.29543,47.40742],[10.29531,47.40746],[10.29506,47.40752],[10.29495,47.40758],[10.29478,47.40776],[10.29453,47.40789],[10.29445,47.4079],[10.29399,47.40782],[10.29389,47.40778],[10.29385,47.40772],[10.29384,47.40764],[10.29388,47.40757],[10.29405,47.4074],[10.29412,47.40734],[10.29415,47.40726],[10.29414,47.40722],[10.294,47.4071],[10.29382,47.40688],[10.29379,47.40684],[10.29366,47.4067],[10.29363,47.40664],[10.29365,47.40657],[10.29372,47.40653],[10.29387,47.40647],[10.29403,47.40644],[10.29438,47.40642],[10.29455,47.40641],[10.29466,47.40636],[10.2948,47.40625],[10.29494,47.40619],[10.29502,47.40613],[10.29502,47.40609],[10.29499,47.40606],[10.29493,47.40605],[10.29472,47.40605],[10.29441,47.40614],[10.29388,47.40611],[10.29354,47.40611],[10.29331,47.40614],[10.2931,47.40619],[10.29273,47.40632],[10.29241,47.40648],[10.29229,47.40661],[10.29223,47.40671],[10.29218,47.40674],[10.29212,47.40676],[10.29202,47.40677],[10.29194,47.40678],[10.29185,47.40676],[10.29176,47.40672],[10.29157,47.40682],[10.29141,47.40689],[10.29126,47.40695],[10.29109,47.40699],[10.29084,47.40704],[10.29047,47.40708],[10.28986,47.40709],[10.28957,47.40711],[10.28936,47.40714],[10.28937,47.40716],[10.28955,47.40743],[10.28957,47.40747],[10.2896,47.40753],[10.28961,47.40756],[10.28964,47.40759],[10.28974,47.40772],[10.2898,47.40786],[10.28983,47.40804],[10.28984,47.40822],[10.28986,47.40834],[10.28993,47.40845],[10.29016,47.40851],[10.29019,47.40858],[10.29017,47.4087],[10.29018,47.40886],[10.29031,47.4092],[10.2903,47.40927],[10.29029,47.40931],[10.29021,47.40938],[10.29023,47.40962],[10.29029,47.41025],[10.29035,47.41076],[10.29038,47.41131],[10.29036,47.41143],[10.2903,47.4115],[10.2901,47.41157],[10.28988,47.4116],[10.28968,47.4116],[10.28928,47.41155],[10.28925,47.4119],[10.28919,47.41202],[10.28906,47.41212],[10.28879,47.41224],[10.28856,47.41229],[10.28851,47.41235],[10.28831,47.41254],[10.28811,47.41277],[10.28785,47.41313],[10.28781,47.41322],[10.28773,47.41321],[10.28765,47.41319],[10.28735,47.41313],[10.28729,47.41313],[10.2872,47.41312],[10.28707,47.41313],[10.28708,47.41331],[10.28706,47.41343],[10.28699,47.41352],[10.28684,47.4136],[10.28654,47.41362],[10.28643,47.41363],[10.28633,47.41365],[10.28627,47.41369],[10.2862,47.41378],[10.28612,47.41409],[10.2861,47.41417],[10.28599,47.41459],[10.28593,47.41472],[10.28574,47.41501],[10.28533,47.41544],[10.28519,47.4156],[10.28445,47.41627],[10.28426,47.41639],[10.28414,47.41644],[10.28389,47.4165],[10.28365,47.41651],[10.28332,47.41649],[10.28305,47.41644],[10.28288,47.41636],[10.28277,47.4163],[10.2827,47.41622],[10.28266,47.41614],[10.28264,47.41606],[10.28264,47.41594],[10.28263,47.41566],[10.28261,47.41555],[10.28252,47.4154],[10.28233,47.41522],[10.28218,47.41513],[10.28207,47.41506],[10.28197,47.41501],[10.2818,47.41492],[10.2805,47.41422],[10.28036,47.41413],[10.27998,47.4145],[10.2798,47.41464],[10.27895,47.41517],[10.27843,47.41552],[10.27798,47.4158],[10.27755,47.41607],[10.27696,47.41648],[10.27673,47.41664],[10.27653,47.41677],[10.27643,47.41684],[10.27624,47.41696],[10.27607,47.41708],[10.27561,47.41739],[10.27511,47.41775],[10.27498,47.41789],[10.27488,47.41797],[10.27475,47.41804],[10.27447,47.41798],[10.27422,47.41796],[10.27413,47.418],[10.27408,47.41801],[10.274,47.41809],[10.27396,47.41815],[10.27385,47.41833],[10.27379,47.41849],[10.27369,47.41877],[10.2735,47.41931],[10.27338,47.41956],[10.27337,47.41959],[10.27316,47.41992],[10.27291,47.42029],[10.27276,47.42048],[10.27263,47.42063],[10.27233,47.42095],[10.27217,47.42109],[10.272,47.42124],[10.27054,47.42237],[10.27028,47.42256],[10.26934,47.42326],[10.26928,47.42331],[10.26908,47.42347],[10.26834,47.42407],[10.26823,47.42422],[10.2682,47.42426],[10.26823,47.4243],[10.26825,47.42434],[10.26826,47.42438],[10.26825,47.42442],[10.26823,47.42446],[10.2682,47.4245],[10.26816,47.42453],[10.2681,47.42456],[10.26802,47.42457],[10.26794,47.42457],[10.2679,47.42456],[10.26774,47.42468],[10.26762,47.42475],[10.26757,47.42481],[10.26744,47.42498],[10.26739,47.42505],[10.26735,47.42511],[10.26731,47.42518],[10.26724,47.42529],[10.26707,47.42562],[10.26701,47.42572],[10.26698,47.42581],[10.26694,47.4259],[10.26691,47.426],[10.26685,47.42624],[10.26682,47.42635],[10.26679,47.42651],[10.26677,47.42678],[10.26677,47.42687],[10.26678,47.42709],[10.26679,47.42739],[10.26687,47.42789],[10.26705,47.42865],[10.26712,47.42894],[10.26715,47.42905],[10.26721,47.42923],[10.26724,47.42929],[10.26727,47.42935],[10.26729,47.42939],[10.26738,47.42956],[10.26749,47.42973],[10.26779,47.4301],[10.26809,47.43041],[10.26846,47.43075],[10.26884,47.4311],[10.269,47.43125],[10.26902,47.43127],[10.26912,47.43136],[10.26938,47.4316],[10.26951,47.43173],[10.2699,47.43209],[10.27063,47.43276],[10.2707,47.43282],[10.27127,47.43332],[10.27273,47.43453],[10.27298,47.43474],[10.27347,47.43515],[10.27398,47.4356],[10.27438,47.436],[10.27469,47.43635],[10.27518,47.43689],[10.2753,47.43703],[10.27534,47.43708],[10.27545,47.43722],[10.27551,47.4373],[10.27562,47.43748],[10.27568,47.43759],[10.27573,47.4377],[10.27581,47.43792],[10.27584,47.43806],[10.27587,47.43836],[10.27585,47.43861],[10.27582,47.43875],[10.2757,47.43919],[10.2757,47.4392],[10.27554,47.43978],[10.27545,47.44048],[10.27533,47.44148],[10.27525,47.44185],[10.27507,47.44232],[10.27456,47.44359],[10.27405,47.4447],[10.2735,47.44583],[10.27323,47.44638],[10.27298,47.44704],[10.27286,47.44742],[10.27276,47.44793],[10.27271,47.4482],[10.27256,47.44945],[10.27229,47.45208],[10.27215,47.45269],[10.27199,47.45316],[10.27188,47.45343],[10.27186,47.45347],[10.27184,47.45353],[10.27181,47.45359],[10.27174,47.45372],[10.27166,47.45387],[10.27139,47.45433],[10.27119,47.45459],[10.27107,47.45475],[10.27097,47.45488],[10.27056,47.45534],[10.27052,47.45537],[10.27042,47.45547],[10.27015,47.45573],[10.2701,47.45578],[10.26995,47.45593],[10.2697,47.45617],[10.2694,47.45644],[10.26906,47.45675],[10.26822,47.45752],[10.26788,47.45792],[10.26764,47.4583],[10.2674,47.45874],[10.26728,47.45907],[10.26722,47.45931],[10.26718,47.45951],[10.26716,47.45963],[10.26714,47.45983],[10.26714,47.45994],[10.26714,47.46012],[10.26716,47.46026],[10.26718,47.46039],[10.26719,47.46041],[10.26726,47.46078],[10.26735,47.46108],[10.26739,47.46116],[10.26749,47.46142],[10.26766,47.46175],[10.26786,47.46211],[10.26791,47.46221],[10.26803,47.46247],[10.26815,47.46274],[10.26823,47.46297],[10.26833,47.46335],[10.26837,47.46375],[10.26837,47.46409],[10.26815,47.46689],[10.2681,47.46769],[10.26808,47.46793],[10.26804,47.46861],[10.26801,47.46895],[10.268,47.46947],[10.268,47.46957],[10.268,47.46964],[10.268,47.46976],[10.268,47.46992],[10.268,47.47091],[10.268,47.47102],[10.26799,47.47109],[10.26799,47.4714],[10.26798,47.47147],[10.26798,47.47163],[10.26798,47.47193],[10.26797,47.47229],[10.26793,47.47266],[10.26786,47.47298],[10.26779,47.47329],[10.26768,47.4737],[10.2675,47.47421],[10.26719,47.47513],[10.26695,47.47579],[10.2668,47.47626],[10.26678,47.47632],[10.2667,47.47663],[10.26665,47.47691],[10.26659,47.47728],[10.26657,47.4776],[10.26657,47.47787],[10.26659,47.4782],[10.26665,47.47874],[10.26666,47.47905],[10.26666,47.47939],[10.26665,47.47965],[10.26661,47.47985],[10.26633,47.48047],[10.26603,47.48101],[10.26598,47.48118],[10.26596,47.48133],[10.26596,47.4816],[10.26601,47.48192],[10.26609,47.48218],[10.26616,47.48249],[10.26624,47.48284],[10.2663,47.48321],[10.26632,47.48345],[10.26633,47.48369],[10.26633,47.48421],[10.26635,47.48453],[10.26641,47.48476],[10.26653,47.48498],[10.26703,47.48564],[10.26712,47.48585],[10.26718,47.48607],[10.26718,47.48628],[10.26715,47.48648],[10.26701,47.4869],[10.26693,47.48716],[10.26691,47.48738],[10.26692,47.48761],[10.26703,47.48807],[10.26706,47.48836],[10.26702,47.48886],[10.26699,47.48901],[10.26685,47.48985],[10.26666,47.49068],[10.26664,47.49096],[10.26669,47.49122],[10.26675,47.49167],[10.26675,47.4919],[10.2667,47.49308],[10.26666,47.49332],[10.26661,47.49355],[10.26653,47.49378],[10.26614,47.49455],[10.26555,47.49571],[10.2655,47.49583],[10.26548,47.49588],[10.26545,47.49601],[10.26543,47.49618],[10.26543,47.49632],[10.2655,47.49671],[10.26567,47.49757],[10.26586,47.49842],[10.266,47.49905],[10.26612,47.49955],[10.26629,47.50006],[10.26633,47.50015],[10.26641,47.50039],[10.26653,47.50066],[10.26676,47.50111],[10.26692,47.50141],[10.26721,47.50187],[10.2676,47.50243],[10.268,47.50293],[10.26836,47.50332],[10.2686,47.50358],[10.26925,47.50423],[10.26976,47.50476],[10.27008,47.50514],[10.27023,47.50535],[10.27045,47.50565],[10.2706,47.5059],[10.27074,47.50611],[10.27083,47.50626],[10.27096,47.50653],[10.27117,47.507],[10.27139,47.50752],[10.27151,47.508],[10.27159,47.50836],[10.2716,47.50844],[10.27168,47.50888],[10.2717,47.50909],[10.2717,47.50914],[10.27171,47.50945],[10.27171,47.50991],[10.27169,47.51015],[10.27166,47.51065],[10.2716,47.51102],[10.27154,47.51144],[10.27146,47.51195],[10.27135,47.51262],[10.27131,47.51285],[10.27119,47.5135],[10.27106,47.51412],[10.27104,47.5142],[10.27092,47.51475],[10.27082,47.51512],[10.27071,47.51546],[10.27072,47.51565],[10.27061,47.5159],[10.27059,47.51594],[10.27057,47.51599],[10.27048,47.51618],[10.27027,47.51662],[10.27011,47.5169],[10.26992,47.51725],[10.26969,47.51767],[10.26964,47.51778],[10.26956,47.51799],[10.26947,47.51821],[10.26943,47.51833],[10.26941,47.51841],[10.26938,47.51852],[10.26928,47.51889],[10.2692,47.51955],[10.26914,47.52007],[10.26911,47.52053],[10.26898,47.52156],[10.26887,47.52205],[10.26877,47.52241],[10.26867,47.52275],[10.26855,47.52315],[10.26827,47.52415],[10.26819,47.52444],[10.26793,47.5253],[10.26775,47.52598],[10.26761,47.52647],[10.26727,47.52798],[10.2672,47.52826],[10.26712,47.52867],[10.26695,47.52958],[10.26682,47.5305],[10.26677,47.53106],[10.26673,47.53163],[10.26672,47.53252],[10.26674,47.53324],[10.26678,47.53408],[10.26693,47.53556],[10.26704,47.53646],[10.26717,47.53738],[10.26746,47.53919],[10.26756,47.53985],[10.26765,47.54058],[10.26771,47.54131],[10.26772,47.54169],[10.26772,47.54206],[10.26769,47.54236],[10.26764,47.54273],[10.26757,47.54308],[10.26746,47.54351],[10.26731,47.54391],[10.26713,47.5443],[10.26689,47.54473],[10.26654,47.54525],[10.26613,47.54576],[10.26565,47.54626],[10.26534,47.54654],[10.26509,47.54677],[10.26441,47.5473],[10.2638,47.54774],[10.26309,47.54822],[10.26164,47.54919],[10.26058,47.54987],[10.25791,47.55162],[10.25495,47.55357],[10.25355,47.5545],[10.25183,47.55562],[10.25143,47.55588],[10.25118,47.55605],[10.25034,47.5566],[10.24983,47.55693],[10.24945,47.55719],[10.24886,47.55756],[10.24761,47.55839],[10.2467,47.55899],[10.24561,47.55971],[10.24498,47.56014],[10.24454,47.56046],[10.24399,47.56088],[10.24367,47.56115],[10.24319,47.56157],[10.24279,47.56196],[10.24264,47.56212],[10.24246,47.56231],[10.24208,47.56276],[10.24183,47.56311],[10.24164,47.56342],[10.24146,47.56375],[10.24126,47.56421],[10.24113,47.56461],[10.24105,47.56501],[10.241,47.56527],[10.24098,47.56561],[10.24099,47.56602],[10.24103,47.56637],[10.2411,47.5667],[10.24115,47.56691],[10.24126,47.56721],[10.24137,47.56749],[10.2415,47.56777],[10.24166,47.56806],[10.24172,47.56816],[10.24187,47.56839],[10.24211,47.56871],[10.24242,47.56905],[10.24269,47.56933],[10.24292,47.56953],[10.24314,47.56971],[10.2436,47.57005],[10.24394,47.57028],[10.24433,47.57052],[10.2447,47.57072],[10.24513,47.57093],[10.24577,47.5712],[10.24687,47.57172],[10.24737,47.572],[10.24775,47.57226],[10.24809,47.57252],[10.24856,47.57296],[10.24896,47.57339],[10.2492,47.5737],[10.24943,47.57406],[10.24955,47.57429],[10.24969,47.57465],[10.24979,47.57494],[10.24994,47.57581],[10.24995,47.57604],[10.24996,47.57616],[10.24994,47.57632],[10.24989,47.57686],[10.24981,47.57775],[10.24981,47.57815],[10.24983,47.57853],[10.24989,47.57896],[10.24997,47.57928],[10.25007,47.57959],[10.25023,47.58001],[10.2504,47.58035],[10.25061,47.5807],[10.2508,47.58103],[10.25099,47.58129],[10.25108,47.58141],[10.25139,47.58179],[10.25194,47.58242],[10.25253,47.58305],[10.25336,47.58395],[10.25424,47.58488],[10.2571,47.58796],[10.25845,47.5894],[10.2594,47.59041],[10.26068,47.59178],[10.26163,47.59281],[10.26213,47.59334],[10.26255,47.59379],[10.2629,47.59414],[10.26332,47.59455],[10.26369,47.59488],[10.26411,47.59524],[10.26498,47.59591],[10.26594,47.59655],[10.2673,47.59741],[10.26783,47.59777],[10.2687,47.59843],[10.26911,47.59875],[10.26954,47.59914],[10.27026,47.59984],[10.27072,47.60032],[10.27108,47.60074],[10.27133,47.60105],[10.27156,47.60138],[10.27176,47.60167],[10.27198,47.602],[10.27223,47.60242],[10.27251,47.60298],[10.27282,47.60364],[10.273,47.60408],[10.27315,47.60453],[10.27328,47.60501],[10.27334,47.60534],[10.27347,47.606],[10.27364,47.6073],[10.27364,47.60746],[10.27369,47.60806],[10.27374,47.60849],[10.27381,47.60932],[10.27391,47.6103],[10.27396,47.61082],[10.27405,47.61129],[10.27413,47.61171],[10.27422,47.61207],[10.27446,47.61281],[10.27484,47.61383],[10.27501,47.61427],[10.27526,47.61496],[10.27557,47.6159],[10.27571,47.61645],[10.2758,47.61689],[10.27592,47.61757],[10.27594,47.61771],[10.27599,47.61812],[10.27604,47.6186],[10.27618,47.61985],[10.27631,47.62082],[10.27653,47.62212],[10.27668,47.62273],[10.27688,47.62346],[10.27714,47.62429],[10.2773,47.6247],[10.27754,47.62535],[10.27782,47.62601],[10.27824,47.62686],[10.27843,47.62726],[10.27873,47.62782],[10.2792,47.62862],[10.27957,47.62921],[10.27974,47.62949],[10.28032,47.63043],[10.28102,47.63156],[10.28157,47.63244],[10.28205,47.63318],[10.28226,47.63348],[10.28249,47.63378],[10.28289,47.63423],[10.28323,47.63459],[10.28363,47.63499],[10.28439,47.63567],[10.28538,47.63659],[10.28559,47.63679],[10.2858,47.63702],[10.28598,47.63723],[10.28614,47.63746],[10.2863,47.6377],[10.28642,47.63793],[10.28653,47.63815],[10.28665,47.63843],[10.28673,47.63867],[10.28682,47.63903],[10.28689,47.63939],[10.28701,47.64003],[10.28707,47.64027],[10.28716,47.64059],[10.28731,47.64104],[10.28746,47.64136],[10.28757,47.64159],[10.28774,47.64189],[10.28791,47.64217],[10.28807,47.64239],[10.28852,47.64294],[10.28904,47.64349],[10.28933,47.64375],[10.28978,47.6441],[10.28985,47.64415],[10.29039,47.64455],[10.29114,47.64507],[10.29195,47.6456],[10.29278,47.64616],[10.29359,47.64674],[10.29389,47.64699],[10.29413,47.64719],[10.29438,47.64742],[10.29458,47.64761],[10.29481,47.64785],[10.29482,47.64787],[10.29522,47.64837],[10.2953,47.64848],[10.29551,47.64884],[10.29569,47.64921],[10.29577,47.64942],[10.29587,47.64968],[10.29596,47.65013],[10.29601,47.65065],[10.29597,47.65219],[10.296,47.65273],[10.2961,47.65324],[10.29624,47.65365],[10.29642,47.65405],[10.29675,47.65458],[10.29735,47.6554],[10.29774,47.65596],[10.29791,47.65625],[10.29807,47.65654],[10.2982,47.65685],[10.2984,47.65736],[10.29854,47.65787],[10.29861,47.65822],[10.29866,47.65857],[10.29868,47.65915],[10.29868,47.65973],[10.29867,47.66067],[10.2987,47.66135],[10.29875,47.66172],[10.29891,47.6624],[10.29915,47.66328],[10.29924,47.66378],[10.2993,47.66415],[10.2993,47.66472],[10.29925,47.66521],[10.29913,47.6657],[10.29883,47.66644],[10.29868,47.66679],[10.29842,47.66733],[10.29838,47.66742],[10.29826,47.66775],[10.29819,47.66801],[10.29813,47.66835],[10.2981,47.66873],[10.29811,47.6691],[10.29815,47.66933],[10.29825,47.66963],[10.29846,47.67017],[10.29868,47.67054],[10.29895,47.6709],[10.29926,47.67124],[10.29983,47.67173],[10.30017,47.67201],[10.30056,47.67234],[10.3008,47.67259],[10.301,47.67282],[10.30118,47.67307],[10.30135,47.67337],[10.30146,47.67362],[10.30153,47.67383],[10.30161,47.67409],[10.30166,47.67432],[10.30182,47.67529],[10.30187,47.67544],[10.30193,47.67567],[10.30198,47.67583],[10.3021,47.67609],[10.30222,47.67627],[10.30232,47.67642],[10.30255,47.67671],[10.30274,47.67692],[10.30292,47.67709],[10.30349,47.6776],[10.3037,47.67781],[10.3039,47.67802],[10.30411,47.67829],[10.30426,47.67856],[10.30432,47.67867],[10.30437,47.67879],[10.30441,47.67888],[10.30444,47.67896],[10.30452,47.67921],[10.30457,47.67945],[10.30454,47.67961],[10.30466,47.67997],[10.30473,47.68018],[10.30476,47.68028],[10.30482,47.68046],[10.30488,47.68065],[10.30499,47.68091],[10.30508,47.68113],[10.30514,47.68128],[10.30519,47.68141],[10.30523,47.68149],[10.30527,47.68158],[10.3053,47.68166],[10.3054,47.68192],[10.30546,47.68206],[10.30582,47.68282],[10.30593,47.683],[10.30609,47.68318],[10.30631,47.6834],[10.30652,47.6836],[10.30734,47.68418],[10.30747,47.68427],[10.30768,47.68445],[10.30771,47.68447],[10.30778,47.68454],[10.30786,47.68462],[10.30807,47.68484],[10.30822,47.68503],[10.30841,47.68527],[10.30864,47.68565],[10.30873,47.6858],[10.30898,47.6862],[10.30911,47.68636],[10.30922,47.6865],[10.30924,47.68653],[10.30931,47.68663],[10.30936,47.6867],[10.30942,47.68677],[10.3097,47.68715],[10.30979,47.68727],[10.30984,47.68734],[10.31007,47.68767],[10.31035,47.68818],[10.31058,47.6887],[10.31069,47.68912],[10.31072,47.68935],[10.31071,47.68962],[10.3106,47.69043],[10.31058,47.69091],[10.31059,47.69113],[10.3106,47.69132],[10.31077,47.69194],[10.31089,47.69219],[10.31129,47.69295],[10.31135,47.69305],[10.3114,47.69313],[10.31152,47.69333],[10.31155,47.69338],[10.3121,47.69425],[10.31221,47.69456],[10.31227,47.69502],[10.31228,47.69587],[10.31229,47.69602],[10.31231,47.69618],[10.31234,47.69634],[10.31239,47.69647],[10.31245,47.6966],[10.31257,47.69683],[10.31268,47.69704],[10.31279,47.69722],[10.31292,47.69745],[10.31294,47.69751],[10.313,47.69763],[10.31307,47.6978],[10.3131,47.69793],[10.31312,47.69804],[10.31315,47.69826],[10.31315,47.69851],[10.31314,47.69881],[10.31309,47.69923],[10.31298,47.70011],[10.31291,47.70079],[10.31289,47.70112],[10.31288,47.70143],[10.31288,47.70175],[10.31289,47.70196],[10.3129,47.7022],[10.31291,47.70253],[10.31292,47.70267],[10.31292,47.70284],[10.31292,47.70287],[10.31293,47.70318],[10.31291,47.70357],[10.31287,47.70392],[10.31283,47.70417],[10.31281,47.70427],[10.31278,47.70439],[10.31275,47.7045],[10.31259,47.70492],[10.31244,47.70533],[10.31229,47.70588],[10.3121,47.70629],[10.31203,47.70643],[10.31197,47.70656],[10.31189,47.70672],[10.31184,47.70685],[10.31177,47.70712],[10.31174,47.70729],[10.31169,47.70763],[10.3117,47.70799],[10.31172,47.70815],[10.31176,47.7083],[10.31178,47.70834],[10.31192,47.7086],[10.31216,47.70891],[10.31249,47.70927],[10.31271,47.70949],[10.31313,47.70992],[10.31325,47.71004],[10.31344,47.71022],[10.31366,47.71043],[10.31385,47.7106],[10.31405,47.71081],[10.31418,47.71095],[10.31435,47.71117],[10.31446,47.71131],[10.31472,47.7117],[10.31492,47.71211],[10.31508,47.71253],[10.31521,47.71314],[10.31527,47.71375],[10.31526,47.71401],[10.31526,47.71408],[10.31524,47.71417],[10.31519,47.71449],[10.31514,47.71472],[10.31517,47.7148],[10.31518,47.71491],[10.31519,47.71499],[10.31521,47.71504],[10.31525,47.7151],[10.3154,47.71522],[10.31545,47.71528],[10.31592,47.71544],[10.31677,47.71567],[10.31713,47.71574],[10.3172,47.71576],[10.31734,47.71577],[10.31757,47.7158],[10.31778,47.71582],[10.31803,47.71583],[10.31829,47.71583],[10.31863,47.71582],[10.31898,47.71578],[10.31932,47.71572],[10.31964,47.71566],[10.31989,47.71562],[10.32017,47.71556],[10.32035,47.71552],[10.32039,47.71563],[10.32041,47.71569],[10.32041,47.71574],[10.32039,47.71592],[10.32029,47.71604],[10.32024,47.71611],[10.32026,47.71625],[10.32026,47.7163],[10.32031,47.71637],[10.32039,47.71642],[10.32052,47.71648],[10.32062,47.71649],[10.32081,47.71651],[10.32104,47.71654],[10.32114,47.71656],[10.32129,47.71658],[10.32139,47.71661],[10.32144,47.71665],[10.32151,47.71672],[10.32154,47.71679],[10.32156,47.7169],[10.32158,47.71727],[10.32157,47.71773],[10.32156,47.71782],[10.32152,47.71808],[10.32142,47.71843],[10.32163,47.71846],[10.3218,47.71848],[10.32204,47.71845],[10.3219,47.71801]],"type":"LineString"},"properties":{"quelle":"OSRM router.project-osrm.org, Profil driving","von":[47.42142,10.34605],"nach":[47.718,10.322],"distanz_m":45165.8,"dauer_s":4292.4,"punkte":1298}}
