{"type":"Feature","geometry":{"coordinates":[[10.21695,47.55887],[10.21738,47.55879],[10.21733,47.5587],[10.218,47.5586],[10.21829,47.55855],[10.21858,47.55851],[10.2188,47.55847],[10.21922,47.55841],[10.21976,47.55835],[10.22012,47.55834],[10.22048,47.55834],[10.22092,47.55837],[10.22108,47.55837],[10.22138,47.55836],[10.22158,47.55833],[10.22181,47.55827],[10.22189,47.55825],[10.22242,47.55805],[10.22266,47.55794],[10.22272,47.55792],[10.22292,47.55784],[10.22299,47.55782],[10.22329,47.55776],[10.22354,47.55771],[10.22387,47.55768],[10.22439,47.55768],[10.22466,47.55769],[10.22487,47.55767],[10.22513,47.55763],[10.2256,47.55748],[10.22565,47.55746],[10.22575,47.55743],[10.22592,47.55738],[10.22653,47.55719],[10.2266,47.55716],[10.22754,47.55688],[10.22757,47.55686],[10.22842,47.55655],[10.22891,47.55633],[10.2294,47.55599],[10.22951,47.55592],[10.2297,47.55579],[10.22973,47.55577],[10.23007,47.55553],[10.23037,47.55533],[10.23044,47.55527],[10.23052,47.55521],[10.2309,47.55497],[10.231,47.55491],[10.23107,47.55487],[10.23127,47.55476],[10.23133,47.55473],[10.23144,47.55464],[10.2315,47.5546],[10.23152,47.55458],[10.2315,47.55456],[10.23149,47.55454],[10.23149,47.55452],[10.23149,47.5545],[10.2315,47.55448],[10.23151,47.55446],[10.23153,47.55444],[10.23157,47.55442],[10.23161,47.55441],[10.23165,47.55441],[10.23168,47.55441],[10.23171,47.55442],[10.23174,47.55443],[10.23177,47.55444],[10.23179,47.55446],[10.23181,47.55448],[10.23182,47.55451],[10.23182,47.55453],[10.23193,47.55462],[10.23201,47.5547],[10.23249,47.55492],[10.2327,47.55503],[10.23273,47.55504],[10.23386,47.55559],[10.23423,47.55574],[10.23428,47.55575],[10.23457,47.55584],[10.2349,47.55591],[10.2353,47.55598],[10.23587,47.55603],[10.23621,47.55605],[10.23635,47.55606],[10.23668,47.55606],[10.23726,47.55603],[10.2378,47.55597],[10.23841,47.55586],[10.23884,47.55576],[10.239,47.55571],[10.23975,47.55546],[10.24047,47.55519],[10.24107,47.55497],[10.24166,47.55477],[10.24217,47.55464],[10.24276,47.55453],[10.24325,47.55449],[10.24372,47.55448],[10.24403,47.55449],[10.24434,47.55452],[10.24473,47.55456],[10.24516,47.55465],[10.24536,47.55469],[10.24559,47.55476],[10.24615,47.55497],[10.24657,47.55516],[10.24706,47.55545],[10.24752,47.55584],[10.24776,47.55615],[10.2479,47.55631],[10.24797,47.55636],[10.24805,47.55643],[10.24808,47.55646],[10.24814,47.55646],[10.24822,47.55647],[10.24827,47.55649],[10.2483,47.55651],[10.24851,47.55644],[10.2487,47.5564],[10.24889,47.55638],[10.24905,47.5564],[10.24921,47.55647],[10.24949,47.55661],[10.24963,47.55666],[10.24973,47.55666],[10.24987,47.55665],[10.25019,47.55655],[10.25077,47.55616],[10.25113,47.55594],[10.25277,47.55485],[10.25511,47.55332],[10.25553,47.55305],[10.25758,47.55169],[10.25911,47.55069],[10.26146,47.54915],[10.26292,47.54819],[10.26365,47.54768],[10.26427,47.54725],[10.26494,47.54672],[10.26551,47.54621],[10.26597,47.54575],[10.2664,47.54522],[10.2667,47.54478],[10.26701,47.54424],[10.26719,47.54382],[10.26731,47.54348],[10.26741,47.54312],[10.26749,47.54274],[10.26754,47.54235],[10.26756,47.54205],[10.26756,47.54132],[10.2675,47.54062],[10.2674,47.53986],[10.2673,47.5392],[10.26702,47.53737],[10.26689,47.53642],[10.26678,47.53556],[10.26662,47.53407],[10.26658,47.53324],[10.26656,47.53251],[10.26657,47.53164],[10.26667,47.53053],[10.26679,47.52959],[10.26695,47.52869],[10.26705,47.52824],[10.2671,47.52801],[10.26745,47.52648],[10.26759,47.52598],[10.26802,47.52445],[10.26811,47.52413],[10.26839,47.52316],[10.26858,47.52251],[10.26867,47.52219],[10.26872,47.52198],[10.26881,47.52161],[10.26884,47.52144],[10.26889,47.52117],[10.26892,47.5209],[10.26895,47.52055],[10.26899,47.52015],[10.26903,47.51962],[10.26904,47.51949],[10.26906,47.51927],[10.2691,47.51902],[10.26915,47.51879],[10.2692,47.51861],[10.26925,47.51839],[10.26928,47.5183],[10.26933,47.51817],[10.26942,47.51794],[10.26954,47.51766],[10.26975,47.51725],[10.27023,47.51641],[10.27031,47.51626],[10.27038,47.5161],[10.2704,47.51607],[10.27049,47.51586],[10.27059,47.51563],[10.27071,47.51546],[10.27082,47.51512],[10.27092,47.51475],[10.27104,47.5142],[10.27106,47.51412],[10.27119,47.5135],[10.27131,47.51285],[10.27135,47.51262],[10.27146,47.51195],[10.27154,47.51144],[10.2716,47.51102],[10.27166,47.51065],[10.27169,47.51015],[10.27171,47.50991],[10.27171,47.50945],[10.2717,47.50914],[10.2717,47.50909],[10.27168,47.50888],[10.2716,47.50844],[10.27159,47.50836],[10.27151,47.508],[10.27139,47.50752],[10.27117,47.507],[10.27096,47.50653],[10.27083,47.50626],[10.27074,47.50611],[10.2706,47.5059],[10.27045,47.50565],[10.27023,47.50535],[10.27008,47.50514],[10.26976,47.50476],[10.26925,47.50423],[10.2686,47.50358],[10.26836,47.50332],[10.268,47.50293],[10.2676,47.50243],[10.26721,47.50187],[10.26692,47.50141],[10.26676,47.50111],[10.26653,47.50066],[10.26641,47.50039],[10.26633,47.50015],[10.26629,47.50006],[10.26612,47.49955],[10.266,47.49905],[10.26586,47.49842],[10.26567,47.49757],[10.2655,47.49671],[10.26543,47.49632],[10.26543,47.49618],[10.26545,47.49601],[10.26548,47.49588],[10.2655,47.49583],[10.26555,47.49571],[10.26614,47.49455],[10.26653,47.49378],[10.26661,47.49355],[10.26666,47.49332],[10.2667,47.49308],[10.26675,47.4919],[10.26675,47.49167],[10.26669,47.49122],[10.26664,47.49096],[10.26666,47.49068],[10.26685,47.48985],[10.26699,47.48901],[10.26702,47.48886],[10.26706,47.48836],[10.26703,47.48807],[10.26692,47.48761],[10.26691,47.48738],[10.26693,47.48716],[10.26701,47.4869],[10.26715,47.48648],[10.26718,47.48628],[10.26718,47.48607],[10.26712,47.48585],[10.26703,47.48564],[10.26653,47.48498],[10.26641,47.48476],[10.26635,47.48453],[10.26633,47.48421],[10.26633,47.48369],[10.26632,47.48345],[10.2663,47.48321],[10.26624,47.48284],[10.26616,47.48249],[10.26609,47.48218],[10.26601,47.48192],[10.26596,47.4816],[10.26596,47.48133],[10.26598,47.48118],[10.26603,47.48101],[10.26633,47.48047],[10.26661,47.47985],[10.26665,47.47965],[10.26666,47.47939],[10.26666,47.47905],[10.26665,47.47874],[10.26659,47.4782],[10.26657,47.47787],[10.26657,47.4776],[10.26659,47.47728],[10.26665,47.47691],[10.2667,47.47663],[10.26678,47.47632],[10.2668,47.47626],[10.26695,47.47579],[10.26719,47.47513],[10.2675,47.47421],[10.26768,47.4737],[10.26779,47.47329],[10.26786,47.47298],[10.26793,47.47266],[10.26797,47.47229],[10.26798,47.47193],[10.26798,47.47163],[10.26798,47.47147],[10.26799,47.4714],[10.26799,47.47109],[10.268,47.47102],[10.268,47.47091],[10.268,47.46992],[10.268,47.46976],[10.268,47.46964],[10.268,47.46957],[10.268,47.46947],[10.26801,47.46895],[10.26804,47.46861],[10.26808,47.46793],[10.2681,47.46769],[10.26815,47.46689],[10.26837,47.46409],[10.26837,47.46375],[10.26833,47.46335],[10.26823,47.46297],[10.26815,47.46274],[10.26803,47.46247],[10.26791,47.46221],[10.26786,47.46211],[10.26766,47.46175],[10.26749,47.46142],[10.26739,47.46116],[10.26735,47.46108],[10.26726,47.46078],[10.26719,47.46041],[10.26718,47.46039],[10.26716,47.46026],[10.26714,47.46012],[10.26714,47.45994],[10.26714,47.45983],[10.26716,47.45963],[10.26718,47.45951],[10.26722,47.45931],[10.26728,47.45907],[10.2674,47.45874],[10.26764,47.4583],[10.26788,47.45792],[10.26822,47.45752],[10.26906,47.45675],[10.2694,47.45644],[10.2697,47.45617],[10.26995,47.45593],[10.2701,47.45578],[10.27015,47.45573],[10.27042,47.45547],[10.27052,47.45537],[10.27056,47.45534],[10.27097,47.45488],[10.27107,47.45475],[10.27119,47.45459],[10.27139,47.45433],[10.27166,47.45387],[10.27174,47.45372],[10.27181,47.45359],[10.27184,47.45353],[10.27186,47.45347],[10.27188,47.45343],[10.27199,47.45316],[10.27215,47.45269],[10.27229,47.45208],[10.27256,47.44945],[10.27271,47.4482],[10.27276,47.44793],[10.27286,47.44742],[10.27298,47.44704],[10.27323,47.44638],[10.2735,47.44583],[10.27405,47.4447],[10.27456,47.44359],[10.27507,47.44232],[10.27525,47.44185],[10.27533,47.44148],[10.27545,47.44048],[10.27554,47.43978],[10.2757,47.4392],[10.2757,47.43919],[10.27582,47.43875],[10.27585,47.43861],[10.27587,47.43836],[10.27584,47.43806],[10.27581,47.43792],[10.27573,47.4377],[10.27568,47.43759],[10.27562,47.43748],[10.27551,47.4373],[10.27545,47.43722],[10.27534,47.43708],[10.2753,47.43703],[10.27518,47.43689],[10.27469,47.43635],[10.27438,47.436],[10.27398,47.4356],[10.27347,47.43515],[10.27298,47.43474],[10.27273,47.43453],[10.27127,47.43332],[10.2707,47.43282],[10.27063,47.43276],[10.2699,47.43209],[10.26951,47.43173],[10.26938,47.4316],[10.26912,47.43136],[10.26902,47.43127],[10.269,47.43125],[10.26884,47.4311],[10.26846,47.43075],[10.26809,47.43041],[10.26779,47.4301],[10.26749,47.42973],[10.26738,47.42956],[10.26729,47.42939],[10.26727,47.42935],[10.26724,47.42929],[10.26721,47.42923],[10.26715,47.42905],[10.26712,47.42894],[10.26705,47.42865],[10.26687,47.42789],[10.26679,47.42739],[10.26678,47.42709],[10.26677,47.42687],[10.26677,47.42678],[10.26679,47.42651],[10.26682,47.42635],[10.26685,47.42624],[10.26691,47.426],[10.26694,47.4259],[10.26698,47.42581],[10.26701,47.42572],[10.26707,47.42562],[10.26724,47.42529],[10.26731,47.42518],[10.26735,47.42511],[10.26739,47.42505],[10.26744,47.42498],[10.26757,47.42481],[10.26762,47.42475],[10.26774,47.42455],[10.26776,47.42451],[10.26773,47.42449],[10.26769,47.42444],[10.26767,47.42437],[10.26769,47.42431],[10.26773,47.42426],[10.26778,47.42422],[10.26779,47.42422],[10.26788,47.42419],[10.26797,47.42418],[10.26806,47.42419],[10.26811,47.42417],[10.26834,47.42407],[10.26908,47.42347],[10.26928,47.42331],[10.26934,47.42326],[10.27028,47.42256],[10.27054,47.42237],[10.272,47.42124],[10.27217,47.42109],[10.27233,47.42095],[10.27263,47.42063],[10.27276,47.42048],[10.27291,47.42029],[10.27316,47.41992],[10.27337,47.41959],[10.27338,47.41956],[10.2735,47.41931],[10.27369,47.41877],[10.27379,47.41849],[10.27385,47.41833],[10.27387,47.41814],[10.27389,47.41808],[10.2739,47.418],[10.27386,47.41798],[10.27378,47.41793],[10.27375,47.41786],[10.27376,47.41778],[10.27378,47.41776],[10.27381,47.41771],[10.27391,47.41767],[10.27402,47.41765],[10.27412,47.41766],[10.2742,47.4177],[10.27424,47.41773],[10.27428,47.41778],[10.27429,47.41783],[10.27451,47.41787],[10.2748,47.41793],[10.27491,47.41784],[10.27511,47.41775],[10.27561,47.41739],[10.27607,47.41708],[10.27624,47.41696],[10.27643,47.41684],[10.27653,47.41677],[10.27673,47.41664],[10.27696,47.41648],[10.27755,47.41607],[10.27798,47.4158],[10.27843,47.41552],[10.27895,47.41517],[10.2798,47.41464],[10.27998,47.4145],[10.28036,47.41413],[10.2805,47.41422],[10.2818,47.41492],[10.28197,47.41501],[10.28207,47.41506],[10.28218,47.41513],[10.28233,47.41522],[10.28252,47.4154],[10.28261,47.41555],[10.28263,47.41566],[10.28264,47.41594],[10.28264,47.41606],[10.28266,47.41614],[10.2827,47.41622],[10.28277,47.4163],[10.28288,47.41636],[10.28305,47.41644],[10.28332,47.41649],[10.28365,47.41651],[10.28389,47.4165],[10.28414,47.41644],[10.28426,47.41639],[10.28445,47.41627],[10.28519,47.4156],[10.28533,47.41544],[10.28574,47.41501],[10.28593,47.41472],[10.28599,47.41459],[10.2861,47.41417],[10.28612,47.41409],[10.2862,47.41378],[10.28627,47.41369],[10.28633,47.41365],[10.28643,47.41363],[10.28654,47.41362],[10.28684,47.4136],[10.28699,47.41352],[10.28706,47.41343],[10.28708,47.41331],[10.28707,47.41313],[10.2872,47.41312],[10.28729,47.41313],[10.28735,47.41313],[10.28765,47.41319],[10.28773,47.41321],[10.28781,47.41322],[10.28785,47.41313],[10.28811,47.41277],[10.28831,47.41254],[10.28851,47.41235],[10.28856,47.41229],[10.28879,47.41224],[10.28906,47.41212],[10.28919,47.41202],[10.28925,47.4119],[10.28928,47.41155],[10.28968,47.4116],[10.28988,47.4116],[10.2901,47.41157],[10.2903,47.4115],[10.29036,47.41143],[10.29038,47.41131],[10.29035,47.41076],[10.29029,47.41025],[10.29023,47.40962],[10.29021,47.40938],[10.29029,47.40931],[10.2903,47.40927],[10.29031,47.4092],[10.29018,47.40886],[10.29017,47.4087],[10.29019,47.40858],[10.29016,47.40851],[10.28993,47.40845],[10.28986,47.40834],[10.28984,47.40822],[10.28983,47.40804],[10.2898,47.40786],[10.28974,47.40772],[10.28964,47.40759],[10.28961,47.40756],[10.2896,47.40753],[10.28957,47.40747],[10.28955,47.40743],[10.28937,47.40716],[10.28936,47.40714],[10.28957,47.40711],[10.28986,47.40709],[10.29047,47.40708],[10.29084,47.40704],[10.29109,47.40699],[10.29126,47.40695],[10.29141,47.40689],[10.29157,47.40682],[10.29176,47.40672],[10.29185,47.40676],[10.29194,47.40678],[10.29202,47.40677],[10.29212,47.40676],[10.29218,47.40674],[10.29223,47.40671],[10.29229,47.40661],[10.29241,47.40648],[10.29273,47.40632],[10.2931,47.40619],[10.29331,47.40614],[10.29354,47.40611],[10.29388,47.40611],[10.29441,47.40614],[10.29472,47.40605],[10.29493,47.40605],[10.29499,47.40606],[10.29502,47.40609],[10.29502,47.40613],[10.29494,47.40619],[10.2948,47.40625],[10.29466,47.40636],[10.29455,47.40641],[10.29438,47.40642],[10.29403,47.40644],[10.29387,47.40647],[10.29372,47.40653],[10.29365,47.40657],[10.29363,47.40664],[10.29366,47.4067],[10.29379,47.40684],[10.29382,47.40688],[10.294,47.4071],[10.29414,47.40722],[10.29415,47.40726],[10.29412,47.40734],[10.29405,47.4074],[10.29388,47.40757],[10.29384,47.40764],[10.29385,47.40772],[10.29389,47.40778],[10.29399,47.40782],[10.29445,47.4079],[10.29453,47.40789],[10.29478,47.40776],[10.29495,47.40758],[10.29506,47.40752],[10.29531,47.40746],[10.29543,47.40742],[10.29571,47.40727],[10.29575,47.40717],[10.29575,47.40708],[10.29574,47.40699],[10.29575,47.40695],[10.2958,47.4069],[10.29583,47.40689],[10.29588,47.40687],[10.29616,47.40678],[10.2965,47.4067],[10.29671,47.40666],[10.29694,47.40664],[10.29701,47.40667],[10.29703,47.4067],[10.29704,47.40675],[10.29703,47.40684],[10.29692,47.40703],[10.29688,47.40707],[10.29681,47.40711],[10.29651,47.40723],[10.29643,47.40727],[10.29633,47.40736],[10.2963,47.4074],[10.29627,47.40745],[10.29625,47.40755],[10.29624,47.40775],[10.29628,47.40805],[10.29639,47.40814],[10.29658,47.40817],[10.29675,47.4082],[10.29684,47.40828],[10.29681,47.40835],[10.29669,47.40844],[10.2967,47.40852],[10.29699,47.40893],[10.29732,47.40944],[10.29742,47.40958],[10.29753,47.40978],[10.29761,47.4098],[10.29769,47.40977],[10.29778,47.40947],[10.29775,47.4093],[10.29771,47.40915],[10.29773,47.40886],[10.29781,47.4087],[10.29789,47.40856],[10.29816,47.40839],[10.29833,47.40826],[10.29841,47.40812],[10.29835,47.40792],[10.29833,47.40788],[10.29837,47.4078],[10.2985,47.40778],[10.29859,47.40783],[10.29883,47.40824],[10.29888,47.40829],[10.29884,47.40851],[10.29885,47.40863],[10.29894,47.40877],[10.29918,47.40906],[10.29924,47.4091],[10.29929,47.40911],[10.29933,47.4091],[10.29939,47.40903],[10.29939,47.40901],[10.2994,47.40885],[10.29955,47.40858],[10.29972,47.40841],[10.30013,47.40826],[10.30047,47.40816],[10.30157,47.40828],[10.30295,47.40837],[10.30301,47.40838],[10.30312,47.40839],[10.30332,47.4085],[10.3034,47.40851],[10.30349,47.40845],[10.30353,47.4084],[10.30358,47.40832],[10.30369,47.40827],[10.30379,47.40829],[10.30395,47.40838],[10.304,47.40857],[10.30409,47.4086],[10.30421,47.40855],[10.30426,47.40845],[10.30434,47.4084],[10.30452,47.40841],[10.30557,47.40852],[10.30576,47.40857],[10.30598,47.40867],[10.30615,47.4087],[10.30639,47.4087],[10.3065,47.40867],[10.30676,47.40862],[10.30681,47.40861],[10.30696,47.4086],[10.3072,47.40857],[10.30738,47.40849],[10.30744,47.40841],[10.30747,47.40836],[10.30745,47.4083],[10.30741,47.40827],[10.30713,47.40825],[10.307,47.40823],[10.30692,47.4082],[10.30662,47.40797],[10.30647,47.40783],[10.30643,47.40771],[10.30643,47.40757],[10.30655,47.40731],[10.3066,47.40726],[10.3067,47.40723],[10.30697,47.4072],[10.30704,47.40718],[10.30708,47.40714],[10.30717,47.40676],[10.30722,47.40671],[10.30726,47.4067],[10.30744,47.40673],[10.30752,47.40673],[10.30761,47.40673],[10.30769,47.40671],[10.30781,47.40666],[10.30785,47.40661],[10.30786,47.40656],[10.30781,47.40635],[10.30782,47.40631],[10.30788,47.40629],[10.30795,47.40628],[10.30851,47.4064],[10.309,47.40655],[10.30921,47.40661],[10.30936,47.40662],[10.30948,47.40663],[10.31024,47.40652],[10.31057,47.40652],[10.31071,47.40654],[10.3109,47.40664],[10.31102,47.40675],[10.31113,47.40679],[10.31128,47.4068],[10.31172,47.40679],[10.31191,47.40679],[10.31201,47.40682],[10.31207,47.40689],[10.31212,47.40703],[10.31214,47.40711],[10.31217,47.40715],[10.31229,47.40733],[10.31267,47.40762],[10.31277,47.40771],[10.31278,47.4078],[10.3128,47.408],[10.31284,47.40808],[10.31292,47.40814],[10.31315,47.40824],[10.31334,47.40832],[10.31358,47.40838],[10.31377,47.40844],[10.31403,47.40848],[10.31414,47.40846],[10.31426,47.40841],[10.31431,47.40839],[10.31441,47.40835],[10.31449,47.40833],[10.31453,47.40832],[10.31458,47.40833],[10.31465,47.40834],[10.31487,47.40838],[10.31501,47.4084],[10.31512,47.40841],[10.31533,47.40842],[10.31542,47.40843],[10.31549,47.40844],[10.31558,47.40846],[10.31572,47.40851],[10.31625,47.40871],[10.3165,47.40879],[10.31672,47.40886],[10.31681,47.40888],[10.31689,47.4089],[10.31706,47.40892],[10.31742,47.40895],[10.31759,47.40897],[10.31774,47.40897],[10.31794,47.40895],[10.31855,47.40889],[10.31871,47.40889],[10.31882,47.40888],[10.3189,47.40886],[10.31911,47.40884],[10.31939,47.40881],[10.31956,47.40881],[10.31982,47.40884],[10.31995,47.40884],[10.32042,47.40882],[10.32062,47.40882],[10.32096,47.40881],[10.32127,47.4088],[10.32175,47.40872],[10.32184,47.4087],[10.32191,47.40867],[10.32197,47.40865],[10.32202,47.40862],[10.32218,47.4085],[10.32225,47.40845],[10.32247,47.40828],[10.32268,47.40815],[10.32278,47.40809],[10.32295,47.40801],[10.32304,47.408],[10.32319,47.40798],[10.32323,47.40798],[10.32327,47.40798],[10.3233,47.408],[10.32332,47.40801],[10.32344,47.40816],[10.32349,47.4082],[10.32353,47.40823],[10.32357,47.40823],[10.32362,47.40824],[10.32367,47.40824],[10.32387,47.40823],[10.32396,47.40824],[10.32406,47.40825],[10.32416,47.40828],[10.32424,47.40831],[10.32432,47.40836],[10.32459,47.40848],[10.32465,47.40852],[10.32474,47.40861],[10.32479,47.40864],[10.32485,47.40867],[10.32493,47.40867],[10.32502,47.40866],[10.32526,47.40862],[10.32549,47.40861],[10.32576,47.4086],[10.32631,47.40861],[10.32666,47.4086],[10.32693,47.40858],[10.32777,47.40848],[10.32799,47.40846],[10.32884,47.40849],[10.32914,47.40853],[10.32944,47.40854],[10.32997,47.40857],[10.33051,47.40855],[10.33096,47.40858],[10.33184,47.40872],[10.33283,47.40894],[10.33311,47.40901],[10.33328,47.40906],[10.33392,47.40936],[10.33413,47.40946],[10.33441,47.40958],[10.33488,47.40973],[10.33493,47.40977],[10.33496,47.4098],[10.33496,47.40984],[10.33493,47.40987],[10.33487,47.40991],[10.33473,47.41002],[10.33463,47.41006],[10.3345,47.41011],[10.33447,47.41013],[10.33446,47.41014],[10.33446,47.41016],[10.33447,47.41018],[10.3345,47.41019],[10.33458,47.4102],[10.33481,47.41027],[10.33502,47.41031],[10.33521,47.41033],[10.33545,47.41035],[10.33551,47.41036],[10.33555,47.41038],[10.33598,47.41059],[10.33632,47.41078],[10.33667,47.41095],[10.33686,47.41107],[10.33701,47.41114],[10.33705,47.41117],[10.33706,47.41119],[10.33704,47.41121],[10.337,47.41123],[10.33689,47.41125],[10.33676,47.41126],[10.3365,47.41128],[10.33614,47.41134],[10.33606,47.41135],[10.33596,47.41136],[10.33589,47.41136],[10.33583,47.41137],[10.33581,47.41139],[10.33581,47.41141],[10.33582,47.41142],[10.33588,47.41145],[10.33595,47.41148],[10.33612,47.41161],[10.33624,47.41168],[10.33625,47.4117],[10.33624,47.41171]],"type":"LineString"},"properties":{"quelle":"OSRM router.project-osrm.org, Profil driving","von":[47.559,10.217],"nach":[47.42126,10.34595],"distanz_m":27734.9,"dauer_s":3530.8,"punkte":972}}
